{"type":"FeatureCollection","name":"chungthang_rgb_0.5m","source":"OpenStreetMap roads, paths and places","licence":"ODbL 1.0 (c) OpenStreetMap contributors","features":[{"type":"Feature","properties":{"kind":"place","place":"village","name":"Chungthang","population":null,"osm_id":13148720740},"geometry":{"type":"Point","coordinates":[88.6465196,27.604236]}},{"type":"Feature","properties":{"kind":"road","highway":"tertiary","motorable":true,"name":"North Sikkim Highway","ref":"NH310A","bridge":false,"osm_id":47415180},"geometry":{"type":"LineString","coordinates":[[88.6510257,27.5943771],[88.6509739,27.5945365],[88.6507971,27.5947201],[88.6506881,27.594805],[88.6505239,27.5948412],[88.6502577,27.5949764],[88.6500772,27.5951404],[88.6498493,27.5953242],[88.6497428,27.5954346],[88.6495616,27.5955039],[88.6493973,27.5955775],[88.6492625,27.5956412],[88.6490805,27.5957746],[88.6489371,27.5959279],[88.6487767,27.5961379],[88.6486099,27.5964179],[88.6484644,27.5966197],[88.6484032,27.5967827],[88.6483795,27.5969686],[88.6483911,27.5970854],[88.64845,27.5972629],[88.648467,27.5973668],[88.6484162,27.5974401],[88.6482778,27.5975256],[88.6480776,27.5976487],[88.6479075,27.5978095],[88.6477615,27.5979935],[88.647674,27.5981147],[88.6475564,27.5982748],[88.647456,27.5983977],[88.647405,27.5985064],[88.6473735,27.5987398],[88.6473552,27.5988579],[88.6472273,27.5989849],[88.647108,27.5990422],[88.6469872,27.5992608],[88.6469032,27.5995112],[88.6468809,27.5997182],[88.6468731,27.5999637],[88.6468605,27.6002164],[88.6468446,27.6003013],[88.6467646,27.6003981],[88.6466227,27.6005109],[88.6464791,27.6006254],[88.646343,27.6006963],[88.6462594,27.6007554],[88.6462528,27.6008074],[88.6462944,27.600827],[88.6463629,27.6008219],[88.6464336,27.6007789],[88.646609,27.6006515],[88.6469118,27.6004985],[88.64705,27.6004394],[88.6470864,27.6003855],[88.6470923,27.6002491],[88.6470547,27.6000384],[88.6470481,27.5999212],[88.6470922,27.599824],[88.6471826,27.5997794],[88.647322,27.5997661],[88.6474229,27.5997116],[88.6474911,27.5996272],[88.6475292,27.5995628],[88.6475853,27.5993825],[88.6476379,27.5992397],[88.6476848,27.5988802],[88.6476779,27.5987518],[88.6476835,27.5986556],[88.6477306,27.5985981],[88.6477973,27.5985909],[88.647864,27.5986395],[88.6478948,27.5986728],[88.6479033,27.5987622],[88.6478783,27.5989128],[88.6478495,27.5991158],[88.6478214,27.5994036],[88.6477784,27.5995721],[88.6477004,27.5997661],[88.647642,27.5998805],[88.6474364,27.6002519],[88.6472735,27.6005343],[88.6470747,27.6007685],[88.6468381,27.6010548],[88.646518,27.6012091],[88.6462991,27.6014172],[88.6458929,27.6015238],[88.6457185,27.6016459],[88.6455757,27.6017049],[88.6454157,27.6017515],[88.645176,27.6018908],[88.6450666,27.6019571],[88.6449762,27.6020235],[88.6449486,27.6020744],[88.6449896,27.602117],[88.645059,27.6021035],[88.645228,27.6020076],[88.6453694,27.6018912],[88.6454859,27.6018466],[88.6458893,27.6016849],[88.6461074,27.6016144],[88.6462277,27.6016061]]}},{"type":"Feature","properties":{"kind":"road","highway":"tertiary","motorable":true,"name":"North Sikkim Highway","ref":"NH310A","bridge":false,"osm_id":47415185},"geometry":{"type":"LineString","coordinates":[[88.6512515,27.5884857],[88.6510797,27.5886235],[88.6508811,27.5887321],[88.6507402,27.588777],[88.6506026,27.5887996],[88.65041,27.5888054],[88.6503444,27.5888318],[88.6503084,27.5889014],[88.6503253,27.5889963],[88.6503722,27.5891075],[88.6503693,27.5891964],[88.6503,27.5893753],[88.6503101,27.5894461],[88.6504016,27.5895634],[88.6505085,27.5896537],[88.6507822,27.5898158],[88.6510267,27.589901],[88.6512114,27.5899252],[88.6515034,27.5899631],[88.6518686,27.5900439],[88.6521185,27.5901075],[88.6522279,27.5901469],[88.6522784,27.5902053],[88.6522856,27.5903078],[88.6522782,27.5903839],[88.6522162,27.5904848],[88.6521306,27.5905208],[88.6519544,27.5905552],[88.6518108,27.590658],[88.6516982,27.5907045],[88.6515388,27.5906718],[88.6513441,27.5906087],[88.6511958,27.5905701],[88.6509327,27.590521],[88.6507813,27.5905189],[88.6506009,27.5905221],[88.6503158,27.5905046],[88.6501265,27.5905175],[88.6499146,27.5905827],[88.6498381,27.5906003],[88.6496389,27.5905914],[88.6495527,27.5906261],[88.6495475,27.590679],[88.649715,27.5907677],[88.6499675,27.5908644],[88.6502527,27.5909623],[88.6505027,27.5910535],[88.6506559,27.5911025],[88.6507358,27.5911947],[88.6508154,27.5912912],[88.6509077,27.5914564],[88.650942,27.5916739],[88.6509413,27.5918131],[88.6508928,27.5919821],[88.6507926,27.5921998],[88.6507639,27.592317],[88.6507585,27.5924174],[88.6507691,27.5925428],[88.6507565,27.5926992],[88.6507076,27.5928354],[88.6506804,27.5930193],[88.6506885,27.5932261],[88.650801,27.5934071],[88.6508721,27.5935191],[88.6509245,27.5936201],[88.6510288,27.5937918],[88.651152,27.5939915],[88.6511012,27.594194],[88.6510257,27.5943771]]}},{"type":"Feature","properties":{"kind":"road","highway":"residential","motorable":true,"name":null,"ref":null,"bridge":false,"osm_id":117990867},"geometry":{"type":"LineString","coordinates":[[88.6366281,27.612146],[88.6362315,27.6123253],[88.635934,27.6124808],[88.6357386,27.6126012],[88.6356798,27.612686],[88.6356983,27.6127668],[88.6357526,27.612861],[88.6358325,27.6129659],[88.6358977,27.6130312],[88.6359543,27.6131121]]}},{"type":"Feature","properties":{"kind":"road","highway":"tertiary","motorable":true,"name":"North Sikkim Highway","ref":"NH310AG","bridge":false,"osm_id":117990869},"geometry":{"type":"LineString","coordinates":[[88.6290026,27.613644],[88.629361,27.6134508],[88.6297511,27.6131206],[88.6300711,27.6125687],[88.6303543,27.6121435],[88.630477,27.6119816],[88.6307254,27.6118233],[88.6312541,27.6115872],[88.6314028,27.6115299],[88.6315101,27.6115677],[88.6316485,27.6116263],[88.6316641,27.6117266],[88.6316432,27.6118082],[88.6314228,27.6119441],[88.6313,27.6120332],[88.6312846,27.6120937],[88.6313349,27.6121382],[88.6314416,27.612184],[88.6316071,27.6122362],[88.6316838,27.6123252],[88.6318234,27.6125033],[88.6318988,27.6127473],[88.6319879,27.6128592],[88.6321735,27.6130076],[88.6323209,27.6131365],[88.6327086,27.6132754],[88.6331344,27.6133899],[88.6333224,27.6134188],[88.6335003,27.6134297],[88.633906,27.6133346],[88.6341571,27.6132493],[88.6344571,27.6132167],[88.6349292,27.6132526],[88.6352916,27.6132241],[88.6355314,27.6131508],[88.6357104,27.6131381],[88.6358202,27.6131686],[88.6358929,27.6131648],[88.6359543,27.6131121],[88.6364886,27.6128116],[88.6368172,27.6126725],[88.6371329,27.6126175],[88.6373627,27.6124637],[88.6375278,27.6122175],[88.6376771,27.6119789],[88.6378849,27.6117725],[88.6380928,27.6115697],[88.6383913,27.6113843],[88.6386191,27.6109851],[88.6387558,27.6107638],[88.6388297,27.6106971],[88.6389991,27.6105982],[88.6394133,27.6104283],[88.639725,27.6101945],[88.6398711,27.6101038],[88.6401374,27.609883],[88.6402174,27.6096751],[88.6402361,27.6095545],[88.6403961,27.6093608],[88.6405268,27.6091741],[88.6407028,27.6089401],[88.6410298,27.6083866],[88.6412111,27.608103],[88.6413498,27.6079537],[88.6414096,27.6078346],[88.6414885,27.6076153],[88.6416101,27.607481],[88.6417936,27.6073525],[88.6420966,27.6071332],[88.6422971,27.6069328],[88.642615,27.6067305],[88.6429052,27.6066095],[88.6431441,27.6065527],[88.6433425,27.6065244],[88.6434684,27.6064771],[88.6436924,27.606307],[88.6439463,27.6062578],[88.6441405,27.6062105],[88.6442535,27.6060612],[88.6443176,27.6058664],[88.6444285,27.6057341],[88.6446248,27.6056755],[88.6447912,27.6057114],[88.6449768,27.6056509],[88.6454575,27.6052559],[88.6455066,27.6051857],[88.6455093,27.6051325],[88.6454656,27.6050998],[88.6453522,27.6051058],[88.6452485,27.6051894],[88.6448963,27.6054677],[88.6447911,27.6055112],[88.6447187,27.6055112],[88.6446764,27.6054592],[88.6446996,27.6053757],[88.6449236,27.6051821],[88.6452212,27.6050417],[88.6454165,27.6049788],[88.6457095,27.6049959],[88.6457278,27.604997],[88.646117,27.6050926],[88.6464802,27.6052765],[88.6466822,27.6053562],[88.6468985,27.6055247],[88.6471934,27.6057279],[88.6473355,27.6058615],[88.6474152,27.6059545],[88.6474764,27.605997],[88.6475463,27.6060232],[88.6476227,27.6060232],[88.6477087,27.6059759]]}},{"type":"Feature","properties":{"kind":"road","highway":"tertiary","motorable":true,"name":"North Sikkim Highway","ref":"NH310A","bridge":true,"osm_id":117990901},"geometry":{"type":"LineString","coordinates":[[88.6462277,27.6016061],[88.6466809,27.6019186]]}},{"type":"Feature","properties":{"kind":"road","highway":"tertiary","motorable":true,"name":"North Sikkim Highway","ref":"NH310A","bridge":false,"osm_id":117990914},"geometry":{"type":"LineString","coordinates":[[88.6466809,27.6019186],[88.6468025,27.6020245],[88.6469135,27.6021871],[88.6469862,27.6023637],[88.647028,27.6024993],[88.6470232,27.6026579],[88.6469189,27.6030725],[88.6468306,27.6032909],[88.6467793,27.6033267],[88.6466944,27.6033585],[88.6464623,27.6033898],[88.6463301,27.6034599],[88.6462683,27.6035183],[88.6460444,27.6037216],[88.6458773,27.6039316],[88.6458159,27.6040269],[88.6457323,27.6042261],[88.6455553,27.6044583],[88.645453,27.6045717],[88.6454494,27.6046574],[88.6454917,27.6047112],[88.6455565,27.6047413],[88.6455737,27.6047454],[88.645806,27.6048011],[88.6458379,27.6048088],[88.6460691,27.6048777],[88.6464836,27.6050895],[88.6468821,27.6053628],[88.6471058,27.6055846],[88.6477087,27.6059759]]}},{"type":"Feature","properties":{"kind":"road","highway":"tertiary","motorable":true,"name":"NH310A","ref":"NH310A","bridge":false,"osm_id":117990942},"geometry":{"type":"LineString","coordinates":[[88.6477087,27.6059759],[88.6479152,27.6061353],[88.6481664,27.6062538],[88.6483371,27.6064148],[88.6484272,27.6065297],[88.6485032,27.6066486],[88.6486082,27.6067267],[88.6486939,27.6067729],[88.6488697,27.6067805],[88.64899,27.6067751],[88.6492212,27.606804],[88.6495299,27.6068918],[88.6497082,27.6069747],[88.6498051,27.6070481],[88.6499118,27.607169],[88.6499873,27.6073047],[88.6500733,27.6073917],[88.6501726,27.6074518],[88.6504845,27.6076136],[88.6507263,27.6077358],[88.6509124,27.6079037],[88.6511001,27.6080958],[88.6515159,27.6084289],[88.6519716,27.6087926],[88.6521098,27.6089129],[88.6522407,27.6091396],[88.6524169,27.6093123],[88.6526379,27.6095186],[88.652929,27.6097434],[88.6530217,27.6098436],[88.6530808,27.6099439],[88.6531231,27.6100516],[88.6531654,27.6101399],[88.6532225,27.6101935],[88.6534393,27.6102567],[88.6535324,27.6102941],[88.6535967,27.6103427],[88.6536983,27.6104781],[88.6537745,27.610538],[88.6538629,27.6105808],[88.6540378,27.6106473],[88.6541472,27.6107284],[88.6545044,27.6110092],[88.6551101,27.6113496],[88.6556108,27.6116226],[88.6559607,27.6118835],[88.6562705,27.6120917],[88.6566652,27.6122543],[88.6571768,27.6124639],[88.6574462,27.6125542],[88.6575951,27.6126389],[88.6577296,27.6127037],[88.6577243,27.6127963],[88.6576328,27.612818],[88.6574449,27.6127187],[88.6572046,27.6126135],[88.6567772,27.6124163],[88.6566748,27.6124019],[88.6565889,27.6124171],[88.656554,27.6125103],[88.6566042,27.6125905],[88.6568308,27.6126433],[88.6570161,27.6126655],[88.6573998,27.6129535],[88.6575609,27.6130406],[88.6577248,27.6131438],[88.658076,27.6131815],[88.6580879,27.6132805],[88.6579689,27.6133547],[88.6578245,27.6133122],[88.657637,27.6132424],[88.6574517,27.6131277],[88.6570963,27.6129466],[88.656715,27.6127904],[88.6565597,27.6127287],[88.6564627,27.6127481],[88.6564455,27.6128317],[88.6565164,27.6128582],[88.6567573,27.612928],[88.6571964,27.6131011],[88.6574026,27.6133419],[88.6575541,27.6135112],[88.657703,27.6135887],[88.6578449,27.6136905],[88.6579766,27.6137038],[88.6581718,27.6137052],[88.6582268,27.6137621],[88.6582013,27.6138596],[88.6580044,27.6138751],[88.6577619,27.6137926],[88.6575705,27.6136782],[88.6573329,27.6134762],[88.6570926,27.6133211],[88.6568287,27.6131992],[88.6563977,27.6130745],[88.6561237,27.6130512],[88.6558259,27.6128984],[88.6556712,27.6127514],[88.6553833,27.6125882],[88.6546498,27.6122412],[88.6543467,27.611971],[88.653853,27.6117219],[88.6533047,27.6113936],[88.6532041,27.6113282],[88.6531631,27.6113418],[88.6531539,27.6113915],[88.6531308,27.6114546],[88.6532375,27.6115169],[88.6534273,27.6115946],[88.653725,27.611802],[88.6540804,27.6119734],[88.6542497,27.6121307],[88.6547064,27.6125183],[88.6550389,27.6127145],[88.6553048,27.6128502],[88.6555551,27.6130079],[88.6557471,27.6131976],[88.655911,27.6133088],[88.6563104,27.6134208],[88.6565774,27.613472],[88.6567471,27.6135379],[88.6568782,27.6136613],[88.6570544,27.6139226],[88.6571909,27.614121],[88.6573083,27.6142287],[88.6574968,27.6143739],[88.657733,27.6145058],[88.6578436,27.6145857],[88.6579091,27.6147296],[88.6579965,27.6148155],[88.6580826,27.6148603],[88.6582068,27.6148748],[88.658372,27.6148833],[88.6584553,27.6149329],[88.6585291,27.6150563],[88.6585919,27.6151821],[88.658723,27.6153794],[88.658824,27.6155633],[88.6589196,27.6159674],[88.6589401,27.616098],[88.6589974,27.6162106],[88.6592842,27.616484],[88.6598252,27.6170235],[88.6600853,27.6172277],[88.6603015,27.6173943],[88.6603074,27.6175088],[88.660321,27.6176449],[88.6603859,27.6178612],[88.6604576,27.6179504],[88.66063,27.6180049],[88.6607682,27.618026],[88.6608706,27.6180699],[88.6610486,27.6183853],[88.6611288,27.618529],[88.6612517,27.6186273],[88.6614548,27.6187528],[88.661576,27.6188481],[88.6616716,27.6190674],[88.6617569,27.6191868],[88.6620829,27.6196557],[88.6621819,27.6197887],[88.6624738,27.6199808],[88.6628083,27.6201577],[88.6628971,27.6202712],[88.6630302,27.6203982],[88.6631634,27.6204829],[88.6633238,27.6205615],[88.6637505,27.6209547],[88.6640065,27.6212345],[88.6642899,27.6216217],[88.6642984,27.6218016],[88.6643438,27.6219088],[88.6643518,27.6220853],[88.664374,27.6222023],[88.6644145,27.6224316],[88.6646173,27.6225569],[88.6648248,27.622566],[88.6650623,27.622397],[88.6652138,27.6223265],[88.6655044,27.6223221],[88.6656538,27.6223562],[88.6657343,27.6225398],[88.6657482,27.6228889],[88.6659016,27.6229432],[88.6661281,27.6229764],[88.6663193,27.6229246],[88.6664405,27.6229202],[88.6665838,27.6229041],[88.6668245,27.6229812],[88.6670799,27.6231165],[88.6672956,27.6232307],[88.6674902,27.6233774],[88.6676045,27.6235438],[88.6676898,27.6236436],[88.6678366,27.6236753],[88.6679373,27.6236768],[88.6680739,27.6237283],[88.6682292,27.6238008],[88.668446,27.6238976],[88.6687105,27.6240413],[88.6688385,27.6240957],[88.6690673,27.6240564],[88.6693267,27.6240776],[88.6696663,27.6241759],[88.6698797,27.6242984],[88.6700794,27.6244481],[88.6703474,27.6246764],[88.6705505,27.6247611],[88.6707963,27.6248216],[88.6710506,27.6249577],[88.6712298,27.6249986],[88.6714688,27.6251256],[88.6717248,27.6251951],[88.6719313,27.6252012],[88.6721276,27.6252375],[88.6723665,27.6253025],[88.6725372,27.6253071],[88.6726601,27.6252904],[88.6728274,27.6252919],[88.67294,27.6253615],[88.6730766,27.6255112],[88.6732131,27.6255354],[88.6733599,27.6255203],[88.6735033,27.6255067],[88.6736415,27.6255142],[88.6739402,27.6255868],[88.6740977,27.6256749],[88.6744186,27.6257708],[88.6745962,27.6259049],[88.6748599,27.6259848],[88.6750833,27.6258701],[88.6752548,27.6257325],[88.6753088,27.6257003],[88.6753977,27.6256529],[88.6754461,27.6256738],[88.6754742,27.6257226],[88.6754682,27.6257955],[88.6753958,27.6259404],[88.6751349,27.6260792],[88.6747999,27.62614],[88.6744049,27.6259899],[88.6742031,27.6259807],[88.674103,27.6260292],[88.6741031,27.6260836],[88.6741949,27.6261831],[88.674486,27.6262204],[88.6749591,27.6262603],[88.6753079,27.6262047],[88.6757386,27.6262733],[88.6762316,27.6264172],[88.6768371,27.6263897],[88.67718,27.6263172],[88.6773385,27.62629],[88.6776201,27.6264654],[88.6778779,27.6266045],[88.6781697,27.6267149],[88.6782585,27.6268057],[88.6787052,27.6271445],[88.678741,27.6273214],[88.6788366,27.6274152]]}},{"type":"Feature","properties":{"kind":"road","highway":"residential","motorable":true,"name":null,"ref":null,"bridge":false,"osm_id":117990967},"geometry":{"type":"LineString","coordinates":[[88.6540378,27.6106473],[88.6541743,27.6106544],[88.6548823,27.6110537],[88.655368,27.6111874],[88.655736,27.6113311],[88.6559218,27.611376],[88.6560972,27.6114354],[88.6562743,27.611547]]}},{"type":"Feature","properties":{"kind":"road","highway":"unclassified","motorable":true,"name":null,"ref":null,"bridge":false,"osm_id":598518040},"geometry":{"type":"LineString","coordinates":[[88.6438532,27.6038496],[88.6439622,27.6037477]]}},{"type":"Feature","properties":{"kind":"road","highway":"unclassified","motorable":true,"name":null,"ref":null,"bridge":false,"osm_id":598518041},"geometry":{"type":"LineString","coordinates":[[88.643084,27.6045049],[88.643213,27.6043309],[88.6433959,27.6040817],[88.6435896,27.6039648],[88.6438532,27.6038496],[88.6439068,27.6038722],[88.6440731,27.603993]]}},{"type":"Feature","properties":{"kind":"road","highway":"unclassified","motorable":true,"name":null,"ref":null,"bridge":false,"osm_id":598518042},"geometry":{"type":"LineString","coordinates":[[88.642484,27.6062626],[88.642941,27.6058086],[88.6427894,27.6056696],[88.6426638,27.6055475],[88.64277,27.6053876],[88.6429415,27.6051556],[88.643155,27.6050246],[88.643401,27.6047669],[88.6435774,27.6044622],[88.6440731,27.603993],[88.6442066,27.6038349],[88.6443922,27.6037766],[88.6447115,27.6036874],[88.644915,27.6035851],[88.6451068,27.6035385],[88.6452139,27.6035326],[88.6453223,27.6036161],[88.6452881,27.6036862],[88.6452948,27.6037515],[88.6453672,27.6038684],[88.645495,27.603925],[88.645646,27.6039561],[88.645765,27.6039538],[88.6458773,27.6039316]]}},{"type":"Feature","properties":{"kind":"road","highway":"unclassified","motorable":true,"name":null,"ref":null,"bridge":false,"osm_id":598518045},"geometry":{"type":"LineString","coordinates":[[88.6498123,27.6060945],[88.649715,27.6060071],[88.6496398,27.6059181],[88.6494717,27.6058191],[88.6493227,27.6057512],[88.649177,27.6057109],[88.6490437,27.6057203],[88.6489378,27.6057054],[88.6488288,27.6056305],[88.648684,27.6053701],[88.6484754,27.60514],[88.6484607,27.6051148],[88.6483258,27.6048828],[88.6481873,27.6046356],[88.6481633,27.6045481],[88.6481433,27.6044205],[88.6481235,27.6043544],[88.6480709,27.6043061],[88.6479687,27.6042533],[88.6478335,27.6042273],[88.6476727,27.6041965],[88.6473854,27.6041288],[88.6472178,27.6040434],[88.6470573,27.6039247],[88.6469382,27.6037619],[88.6468741,27.6036717],[88.6468047,27.6035742],[88.6467442,27.6035178],[88.6466658,27.6034911],[88.6466012,27.6034754],[88.6464178,27.6034307],[88.6463301,27.6034599]]}},{"type":"Feature","properties":{"kind":"road","highway":"path","motorable":false,"name":null,"ref":null,"bridge":true,"osm_id":598518046},"geometry":{"type":"LineString","coordinates":[[88.6501718,27.6062846],[88.6510944,27.6056643]]}},{"type":"Feature","properties":{"kind":"road","highway":"path","motorable":false,"name":null,"ref":null,"bridge":false,"osm_id":696870881},"geometry":{"type":"LineString","coordinates":[[88.6501718,27.6062846],[88.6501218,27.6063073],[88.6500866,27.6063007],[88.6500048,27.6062316],[88.6499185,27.6061671],[88.6498123,27.6060945]]}},{"type":"Feature","properties":{"kind":"road","highway":"residential","motorable":true,"name":null,"ref":null,"bridge":false,"osm_id":1093655426},"geometry":{"type":"LineString","coordinates":[[88.647642,27.5998805],[88.6477305,27.5998158],[88.6478485,27.5996906],[88.6478981,27.5995833],[88.6479308,27.5994661],[88.6479665,27.5993472],[88.6479871,27.5992315],[88.648018,27.599097],[88.6480652,27.5989556],[88.6480695,27.5988653],[88.6480708,27.5987796],[88.6481022,27.5987292],[88.6481632,27.5987286],[88.6482147,27.5987872],[88.6482233,27.598856],[88.6482219,27.5989448],[88.6482207,27.599043],[88.6482214,27.5991655],[88.6482124,27.5992626],[88.6481943,27.5993321],[88.6481856,27.5993656],[88.6481543,27.5994844],[88.6481342,27.5996403],[88.6481074,27.599767],[88.6480135,27.5999116],[88.6477699,27.6002226],[88.6474905,27.6005653],[88.6473419,27.6007522],[88.6473106,27.6008552],[88.6473151,27.6009265],[88.6473688,27.6009483],[88.6474604,27.6009483],[88.6475833,27.6009126],[88.6480147,27.6007463],[88.6481064,27.6006829],[88.6483053,27.6004828],[88.6483813,27.6003976]]}},{"type":"Feature","properties":{"kind":"road","highway":"unclassified","motorable":true,"name":null,"ref":null,"bridge":false,"osm_id":1093655427},"geometry":{"type":"LineString","coordinates":[[88.6481943,27.5993321],[88.6482673,27.5993082],[88.6483269,27.5992543],[88.6483092,27.5991227],[88.6483141,27.5990561],[88.64832,27.5989565],[88.6483142,27.5988585],[88.6482919,27.5987555],[88.6482874,27.5986743],[88.6482882,27.5985542],[88.6483073,27.5984376],[88.648321,27.5983473],[88.6483513,27.5982655],[88.6484132,27.5981931],[88.6485212,27.5981332],[88.6486737,27.5981119]]}},{"type":"Feature","properties":{"kind":"road","highway":"unclassified","motorable":true,"name":null,"ref":null,"bridge":false,"osm_id":1153390674},"geometry":{"type":"LineString","coordinates":[[88.6486737,27.5981119],[88.6487849,27.5981573],[88.6489338,27.5980586],[88.6489129,27.5975801],[88.6489511,27.5972942],[88.6490468,27.5970097],[88.6491535,27.5969322],[88.6493229,27.5969447],[88.6497342,27.5971878],[88.6503336,27.5975079],[88.6510797,27.5979024],[88.6510996,27.5978635],[88.6507799,27.5975264],[88.6502448,27.5970233],[88.6500887,27.5968909],[88.6500734,27.596842],[88.650116,27.5968236],[88.6505034,27.5970499],[88.6510762,27.5973941],[88.6511989,27.5974542],[88.6512653,27.59745],[88.6513284,27.5974322],[88.6514679,27.597223],[88.6516758,27.5968581],[88.6517387,27.596826],[88.6520068,27.5969294],[88.6520512,27.5969187],[88.6521291,27.5968653],[88.65231,27.5966395],[88.6529618,27.5961937],[88.6533024,27.5958193],[88.6535386,27.5956267],[88.6537142,27.5955281],[88.6539248,27.5951977],[88.654199,27.5951187],[88.6545591,27.5949802],[88.654654,27.5949486],[88.6548431,27.5948503],[88.6549225,27.5948203],[88.6549645,27.5947634]]}},{"type":"Feature","properties":{"kind":"road","highway":"unclassified","motorable":true,"name":null,"ref":null,"bridge":false,"osm_id":1153390675},"geometry":{"type":"LineString","coordinates":[[88.6512653,27.59745],[88.6512369,27.5974124],[88.6511031,27.5973038],[88.6504795,27.5967701],[88.6504191,27.596712],[88.6504217,27.5966703],[88.6504794,27.5966513],[88.6506745,27.5967751],[88.6510534,27.5970019],[88.6511781,27.5970637],[88.6512449,27.5970475],[88.6512734,27.5969955],[88.6512572,27.5969487],[88.6510509,27.5968262],[88.6510356,27.5967613],[88.6510458,27.596701],[88.6510854,27.5966496],[88.651306,27.5964713],[88.651371,27.5963929],[88.6514686,27.5961749],[88.6515042,27.5960461],[88.6515194,27.5958624]]}},{"type":"Feature","properties":{"kind":"road","highway":"path","motorable":false,"name":null,"ref":null,"bridge":false,"osm_id":1214962134},"geometry":{"type":"LineString","coordinates":[[88.6510944,27.6056643],[88.6512952,27.6057307],[88.6518563,27.6062999],[88.6520392,27.6065016],[88.6523522,27.6067286],[88.6529255,27.6073771],[88.6535312,27.6076977],[88.6535638,27.6079607],[88.6538605,27.6082021],[88.6539084,27.6083021],[88.6540593,27.6083758],[88.6541918,27.6086147],[88.6542997,27.6088045],[88.6545076,27.6089192],[88.6548311,27.6089615]]}},{"type":"Feature","properties":{"kind":"road","highway":"path","motorable":false,"name":null,"ref":null,"bridge":false,"osm_id":1214962139},"geometry":{"type":"LineString","coordinates":[[88.6510944,27.6056643],[88.6510449,27.6054943],[88.6506444,27.6053358],[88.650307,27.6050746],[88.6499391,27.6047665],[88.6497826,27.6045612],[88.6496423,27.6043108],[88.6495081,27.6038983],[88.6495346,27.6035668]]}},{"type":"Feature","properties":{"kind":"road","highway":"unclassified","motorable":true,"name":null,"ref":null,"bridge":false,"osm_id":1214968878},"geometry":{"type":"LineString","coordinates":[[88.654337,27.5938215],[88.6544389,27.5938522],[88.6545461,27.5938243],[88.6546226,27.5936967],[88.6547005,27.5936182]]}},{"type":"Feature","properties":{"kind":"road","highway":"service","motorable":true,"name":null,"ref":null,"bridge":true,"osm_id":1214968879},"geometry":{"type":"LineString","coordinates":[[88.6547005,27.5936182],[88.6547824,27.5935143]]}},{"type":"Feature","properties":{"kind":"road","highway":"unclassified","motorable":true,"name":null,"ref":null,"bridge":false,"osm_id":1214970407},"geometry":{"type":"LineString","coordinates":[[88.6504794,27.5966513],[88.650598,27.5964125],[88.6508555,27.5960916],[88.6510647,27.5958349],[88.6514751,27.5955568],[88.6519471,27.5953381],[88.6524406,27.5951075],[88.6526794,27.5949221],[88.6529181,27.5946844],[88.6530656,27.5944823],[88.6532882,27.594228],[88.6535082,27.5939974],[88.653763,27.5938072],[88.6539641,27.5936384],[88.6541492,27.5935386],[88.6542967,27.5935077],[88.6543826,27.5935505],[88.6543933,27.5936741],[88.654337,27.5938215],[88.6536637,27.5942803]]}},{"type":"Feature","properties":{"kind":"road","highway":"residential","motorable":true,"name":null,"ref":null,"bridge":false,"osm_id":1214977921},"geometry":{"type":"LineString","coordinates":[[88.6478274,27.6028408],[88.6478431,27.6029365],[88.6478381,27.6029796],[88.6478113,27.6030366],[88.6478099,27.603086],[88.6478489,27.603178],[88.6478934,27.6033138],[88.6479293,27.6034627],[88.6479373,27.603537],[88.6479306,27.6036243],[88.6478871,27.6037969],[88.6478669,27.6039125],[88.6478542,27.6040088],[88.6478401,27.6041371],[88.6478335,27.6042273]]}},{"type":"Feature","properties":{"kind":"road","highway":"unclassified","motorable":true,"name":null,"ref":null,"bridge":false,"osm_id":1218507733},"geometry":{"type":"LineString","coordinates":[[88.644656,27.6048303],[88.6447523,27.6048425],[88.644919,27.6047968],[88.6450394,27.6046749],[88.64522,27.6046383],[88.6453283,27.6046414],[88.6454494,27.6046574]]}},{"type":"Feature","properties":{"kind":"road","highway":"track","motorable":true,"name":null,"ref":null,"bridge":false,"osm_id":1224920845},"geometry":{"type":"LineString","coordinates":[[88.6453557,27.6255253],[88.6454469,27.6256536],[88.6454791,27.6255919],[88.6454469,27.6255443],[88.6454415,27.6254683],[88.645471,27.6254445],[88.6455086,27.6254825],[88.64553,27.6255301],[88.6455542,27.625542],[88.645573,27.6255206],[88.6455676,27.625473],[88.6455327,27.6253709],[88.6455274,27.6253233],[88.6455408,27.6252924],[88.6455756,27.6253019],[88.6455837,27.6253518],[88.6456105,27.6254089],[88.6457178,27.6254421],[88.6458734,27.6254897],[88.6459619,27.625542],[88.6460397,27.6255443],[88.6460558,27.6254968],[88.6459887,27.6254445],[88.6459699,27.6253447],[88.6459887,27.6252116],[88.6459726,27.6250215],[88.6459002,27.6248932],[88.6458868,27.6247791],[88.6458331,27.6246246],[88.6457849,27.6244939],[88.6457902,27.6243941],[88.6457607,27.6242991],[88.6457366,27.6241042],[88.64575,27.6239616],[88.6458492,27.6238594],[88.6459833,27.6238666],[88.6460853,27.6238808],[88.6462167,27.6238333],[88.6463776,27.6238285],[88.6464903,27.6238547],[88.646619,27.6238594],[88.6467102,27.6238309],[88.6467236,27.6237691],[88.6467075,27.6237192],[88.6467504,27.6236693],[88.6468014,27.6235885],[88.6468551,27.6235053],[88.6469221,27.623377],[88.6469597,27.6232582],[88.6469355,27.6231441],[88.6469516,27.6230182],[88.6469677,27.6229374],[88.6469865,27.6228352],[88.6469704,27.6226997],[88.6469758,27.6225666],[88.6469543,27.6223789],[88.6469462,27.622222],[88.6469221,27.6220747],[88.6468738,27.6217848],[88.6468738,27.6215281],[88.6468577,27.6213522],[88.6468631,27.6211764],[88.6469167,27.6211241],[88.6470187,27.6211146],[88.6471313,27.6211526],[88.6472601,27.6212429],[88.647421,27.6213665],[88.6475229,27.6214473],[88.6475927,27.6215709],[88.6476409,27.6216992],[88.6476999,27.621761],[88.6478126,27.6217562],[88.6478502,27.6216754],[88.647818,27.6215424],[88.647716,27.6213855],[88.647598,27.6211574],[88.647539,27.6209577],[88.6475015,27.6208484],[88.6474907,27.6207961],[88.6475256,27.6207842],[88.6475793,27.6207937],[88.6476892,27.6208936],[88.6477992,27.6209482],[88.6478823,27.620972],[88.6479869,27.6210504],[88.6480325,27.6211193],[88.6480862,27.6212001],[88.6481291,27.62125],[88.6481667,27.6213213],[88.6482283,27.6214497],[88.6482954,27.6215305],[88.6483678,27.6215685],[88.6484268,27.6215614],[88.6484885,27.6214948],[88.6485019,27.6213926],[88.6484724,27.6212976],[88.6484402,27.621174],[88.6484322,27.6210789],[88.6484429,27.6209197],[88.6484054,27.6208223],[88.648341,27.6207106],[88.6482686,27.6206084],[88.6481908,27.6205252],[88.6481318,27.6204515],[88.6480889,27.6203826],[88.648054,27.6202971],[88.6480916,27.6202519],[88.6481613,27.6202757],[88.6482418,27.6203779],[88.6483195,27.6204848],[88.6483705,27.6205632],[88.6484402,27.6205965],[88.6485019,27.6205704],[88.6485207,27.6204919],[88.6484376,27.6203422],[88.6483383,27.6202709],[88.6482364,27.6202162],[88.6481908,27.6201354],[88.6481908,27.6200237],[88.6482096,27.6198716],[88.6481479,27.6196934],[88.6481076,27.6195437],[88.6481023,27.6193773],[88.6480325,27.6192038],[88.6481023,27.619009],[88.6481559,27.6188283],[88.6481398,27.618662],[88.6480325,27.6184386],[88.6479682,27.6182485],[88.6479789,27.6180536],[88.6479628,27.6178112],[88.6479145,27.6176543],[88.6478072,27.6174974],[88.647716,27.6173976],[88.6475283,27.6172503],[88.6474264,27.6170887],[88.6473781,27.6169841],[88.6473191,27.6168272],[88.6471581,27.6167322],[88.6470187,27.6167037],[88.6468095,27.6166656],[88.6466432,27.6165563],[88.6465627,27.616428],[88.6465681,27.6162521],[88.6466163,27.6161238],[88.6465788,27.6159669],[88.646509,27.6157578],[88.6466002,27.6154916],[88.6466914,27.6151493],[88.6467719,27.6148927],[88.6467987,27.6146645],[88.6468685,27.6144886],[88.6469704,27.6144126],[88.6470991,27.6143841],[88.6474049,27.6143318],[88.6479413,27.6141797],[88.6482525,27.6140085],[88.648746,27.6138659],[88.6491108,27.6138564],[88.6495614,27.6137804],[88.6499584,27.6137043],[88.6503124,27.6133716],[88.6505914,27.6131434],[88.650924,27.6129723],[88.6512136,27.6129058],[88.6517072,27.6129058],[88.6519754,27.6129438],[88.6522436,27.6129248],[88.652426,27.6128582],[88.6526298,27.6127156],[88.6528015,27.6126015],[88.653177,27.612497],[88.6534774,27.6124209],[88.6536705,27.6122878],[88.6537671,27.6120501],[88.6537054,27.6119337],[88.653725,27.611802]]}}]}