{"type":"FeatureCollection","name":"chungthang_west_rgb_0.5m","source":"OpenStreetMap roads, paths and places","licence":"ODbL 1.0 (c) OpenStreetMap contributors","features":[{"type":"Feature","properties":{"kind":"road","highway":"residential","motorable":true,"name":null,"ref":null,"bridge":false,"osm_id":117990877},"geometry":{"type":"LineString","coordinates":[[88.6103414,27.6395345],[88.6100759,27.639544],[88.6098013,27.6395703],[88.6097528,27.6396135],[88.6096889,27.6397345],[88.609717,27.6398449],[88.6100025,27.6402081],[88.6101612,27.6403889],[88.6102187,27.6405094],[88.6102432,27.6406573],[88.6102285,27.6408308],[88.6102127,27.6409638],[88.6102226,27.641062]]}},{"type":"Feature","properties":{"kind":"road","highway":"tertiary","motorable":true,"name":"North Sikkim Highway","ref":"NH310AG","bridge":false,"osm_id":117990884},"geometry":{"type":"LineString","coordinates":[[88.6079946,27.6438889],[88.6083327,27.6435836],[88.6085931,27.6434228],[88.6090382,27.6433036],[88.6095717,27.6432707],[88.6102454,27.6431543],[88.6107355,27.6430436],[88.6110064,27.6428952],[88.611465,27.6426191],[88.6115789,27.6424828],[88.6116114,27.6423722],[88.6117692,27.642108],[88.6119097,27.6418367],[88.6119391,27.6416589],[88.6119388,27.6415018],[88.6119346,27.6413417],[88.6120728,27.641021],[88.6121501,27.6407359],[88.6123044,27.6405235],[88.6126412,27.6402896],[88.6130342,27.639819],[88.6132885,27.6394579],[88.6134401,27.6392816],[88.6136396,27.6391478],[88.6140012,27.6387585],[88.6144487,27.6384387],[88.6148844,27.6381533],[88.6152144,27.6379091],[88.6153912,27.6376005],[88.6155108,27.6373875],[88.6156652,27.6372665],[88.6157867,27.63724],[88.6159231,27.6371716],[88.6159226,27.6371693],[88.6160623,27.6369053],[88.6161668,27.63678],[88.6162524,27.6365505],[88.6164414,27.6363223],[88.6166515,27.6360423],[88.6170099,27.6351231],[88.6169852,27.6347041],[88.6172359,27.6339432],[88.617384,27.6336408],[88.6176091,27.6332957],[88.6177325,27.6330981],[88.6178252,27.6328074],[88.6178669,27.632583],[88.6178653,27.6323737],[88.6179132,27.6322633],[88.6180026,27.6321839],[88.6181666,27.6320912],[88.6183293,27.6319801],[88.6182735,27.6317668],[88.6182888,27.6316065],[88.6183672,27.6314925],[88.6183868,27.6312318],[88.618474,27.6310792],[88.6186288,27.6308649],[88.6188402,27.6307471],[88.6191302,27.6305308],[88.619379,27.6302545],[88.6195359,27.6301347],[88.6197103,27.6299513],[88.6198364,27.6297375],[88.6199425,27.629383],[88.6200391,27.6291403],[88.6202253,27.629014],[88.6204176,27.6289733],[88.6207661,27.6289488],[88.6213036,27.6288179],[88.6215697,27.6287714],[88.6216477,27.6287287],[88.6216889,27.6286321],[88.6218794,27.6282442],[88.6221253,27.6282045]]}},{"type":"Feature","properties":{"kind":"road","highway":"tertiary","motorable":true,"name":"North Sikkim Highway","ref":"NH310AG","bridge":true,"osm_id":117990894},"geometry":{"type":"LineString","coordinates":[[88.6196706,27.6271945],[88.6190461,27.6267147]]}},{"type":"Feature","properties":{"kind":"road","highway":"tertiary","motorable":true,"name":"North Sikkim Highway","ref":"NH310AG","bridge":false,"osm_id":117990950},"geometry":{"type":"LineString","coordinates":[[88.6190461,27.6267147],[88.6187918,27.6265371],[88.6187383,27.6264886],[88.6186851,27.6264074],[88.6186422,27.626252],[88.6186107,27.6260561],[88.6186189,27.62592],[88.6186111,27.625769],[88.6184999,27.6255869],[88.6183925,27.625418],[88.6181639,27.6250684],[88.6181174,27.624871],[88.6181371,27.6247339],[88.6182712,27.6245687],[88.6184138,27.6243827],[88.6186816,27.624138],[88.6187355,27.6239824],[88.6187088,27.6238048],[88.6186748,27.6234586],[88.6185884,27.6232007],[88.6185243,27.6229624],[88.6184329,27.6226645],[88.6184918,27.6223529],[88.6185697,27.6221411],[88.6186536,27.6217203],[88.6186401,27.6214766],[88.6187073,27.6212516],[88.618761,27.6210696],[88.618748,27.6209489],[88.6186734,27.6206036],[88.6186373,27.62004],[88.6187789,27.6197972],[88.6188584,27.6197011],[88.6190007,27.6195919],[88.6191088,27.6195183],[88.6191954,27.6194829],[88.6193774,27.619432],[88.6195641,27.6194005],[88.6198002,27.6193498],[88.6202189,27.6192947],[88.6204756,27.6192836],[88.6206165,27.619249],[88.6208397,27.6191625],[88.6209206,27.6191106],[88.6210266,27.6190957],[88.621222,27.6191254],[88.6213949,27.6191538],[88.621483,27.6191928],[88.6216606,27.6191874],[88.6218465,27.6190419],[88.6219656,27.6189202],[88.6220204,27.6187379],[88.621973,27.6185485],[88.6220063,27.618462],[88.6221638,27.618263]]}},{"type":"Feature","properties":{"kind":"road","highway":"residential","motorable":true,"name":null,"ref":null,"bridge":false,"osm_id":117990952},"geometry":{"type":"LineString","coordinates":[[88.6184999,27.6255869],[88.6184177,27.6256472],[88.6183368,27.6256287],[88.6182136,27.6255556],[88.6181207,27.6254603],[88.6180579,27.6254479],[88.618023,27.625485],[88.617996,27.6255707],[88.6180602,27.626007],[88.6180588,27.6261219],[88.6180393,27.6262393],[88.6180459,27.6263667],[88.618035,27.6266746],[88.6179308,27.627463],[88.6177991,27.6281853],[88.6177157,27.6285337],[88.617572,27.6288856],[88.6173932,27.6292128],[88.6171974,27.6295654],[88.6170612,27.629816],[88.6170097,27.6299798],[88.6169454,27.6301845],[88.6166304,27.6311504],[88.6165492,27.631634],[88.6164003,27.6320357],[88.6160837,27.6328273],[88.6157045,27.6334701],[88.6156132,27.633835],[88.6152343,27.6347811],[88.6151692,27.6349034],[88.6151086,27.6350233],[88.6149759,27.6352163],[88.6146872,27.635532],[88.6142232,27.6360937],[88.6138456,27.6363498],[88.6135212,27.6365372],[88.6133961,27.6366479],[88.6132807,27.6367501],[88.6131809,27.6368244],[88.6130834,27.6369854],[88.6130012,27.6372278],[88.6129076,27.6374001],[88.612832,27.6375105],[88.6127845,27.6375372],[88.6127309,27.6376259],[88.6125269,27.6376878],[88.6124246,27.637802],[88.6122929,27.6379721],[88.6122329,27.6380693],[88.6120929,27.6382178],[88.6118652,27.6383736],[88.6117223,27.6385533],[88.6116714,27.6387021]]}},{"type":"Feature","properties":{"kind":"road","highway":"unclassified","motorable":true,"name":null,"ref":null,"bridge":false,"osm_id":598518039},"geometry":{"type":"LineString","coordinates":[[88.6217042,27.6265078],[88.6217114,27.6264269],[88.6216129,27.6262055],[88.6215858,27.6259859],[88.6215239,27.6258798],[88.6214456,27.6257896],[88.6213451,27.6256831],[88.6213697,27.625567],[88.6214773,27.6255008],[88.6216519,27.6254624],[88.6217341,27.6254258],[88.6218358,27.6251778],[88.6219082,27.6250138],[88.6218696,27.6248932],[88.6217826,27.6247923],[88.6217173,27.6246333],[88.6216628,27.6245041],[88.6215068,27.6243242],[88.6214302,27.6241771],[88.6213621,27.6240828],[88.6212258,27.6239847],[88.6211151,27.6239319],[88.6210427,27.6238942],[88.6210172,27.6238602],[88.6209661,27.6237772],[88.6209618,27.6236716],[88.6209789,27.6235283],[88.6210129,27.6234038],[88.6210002,27.6232944],[88.6209789,27.6231548],[88.6209704,27.6230378],[88.6210044,27.6228945],[88.6210087,27.6227662],[88.6208682,27.6224041],[88.6207192,27.621891],[88.6206638,27.6217137],[88.6206212,27.6215553],[88.6205786,27.6213968],[88.6205446,27.621261],[88.6205957,27.6211403],[88.6206979,27.620963],[88.6208128,27.6208159],[88.6209576,27.6206197],[88.6210938,27.6204311],[88.6211875,27.6203518],[88.6213791,27.620299],[88.621592,27.6202538],[88.6218006,27.6202387],[88.6218943,27.6202387],[88.6220476,27.6201972],[88.6222349,27.6201066],[88.6224521,27.6199821],[88.6225585,27.6198576],[88.6227927,27.6197256],[88.6230098,27.61962],[88.6232568,27.6195143],[88.6234995,27.6193634],[88.623806,27.6190465]]}},{"type":"Feature","properties":{"kind":"road","highway":"path","motorable":false,"name":null,"ref":null,"bridge":false,"osm_id":1153382033},"geometry":{"type":"LineString","coordinates":[[88.6152343,27.6347811],[88.6154218,27.6349062],[88.6155339,27.6349186],[88.6159495,27.6342608],[88.6163511,27.6335823],[88.6165005,27.6335161],[88.6165332,27.6333299],[88.6165379,27.6330982],[88.6166361,27.632401],[88.6167378,27.6320408],[88.6167256,27.6317815],[88.6166727,27.6316806],[88.6165492,27.631634]]}},{"type":"Feature","properties":{"kind":"road","highway":"unclassified","motorable":true,"name":null,"ref":null,"bridge":false,"osm_id":1215116718},"geometry":{"type":"LineString","coordinates":[[88.6127845,27.6375372],[88.6125215,27.637224],[88.6124598,27.6371907],[88.6124116,27.6371907],[88.6123579,27.6372763],[88.6123016,27.6373571],[88.6122587,27.6373998],[88.6121889,27.637407],[88.6121165,27.6373499],[88.6120468,27.6372905]]}},{"type":"Feature","properties":{"kind":"road","highway":"unclassified","motorable":true,"name":null,"ref":null,"bridge":false,"osm_id":1215116719},"geometry":{"type":"LineString","coordinates":[[88.6120468,27.6372905],[88.6120038,27.637265],[88.6118992,27.6372685],[88.6117584,27.6373054],[88.6116632,27.6373517],[88.6115868,27.6374206],[88.6115313,27.6374799],[88.611462,27.6374682],[88.6112997,27.6373624]]}},{"type":"Feature","properties":{"kind":"road","highway":"unclassified","motorable":true,"name":null,"ref":null,"bridge":false,"osm_id":1215116720},"geometry":{"type":"LineString","coordinates":[[88.6124598,27.6371907],[88.612488,27.6371034],[88.6125161,27.6369727],[88.6125644,27.6368693],[88.6126529,27.6367921],[88.612724,27.6367791],[88.6128876,27.636751],[88.6131316,27.6366892],[88.6133961,27.6366479]]}},{"type":"Feature","properties":{"kind":"road","highway":"track","motorable":true,"name":null,"ref":null,"bridge":false,"osm_id":1215116723},"geometry":{"type":"LineString","coordinates":[[88.6098738,27.6381098],[88.6100404,27.6380485],[88.6101934,27.637982],[88.6103328,27.6379392],[88.6104562,27.6378846],[88.6106037,27.6378798],[88.610719,27.6378109],[88.6107968,27.6377325],[88.61088,27.6376493],[88.6110114,27.6376517],[88.6112072,27.6375757],[88.6113601,27.6375852],[88.6114862,27.6375424],[88.6115313,27.6374799]]}},{"type":"Feature","properties":{"kind":"road","highway":"path","motorable":false,"name":null,"ref":null,"bridge":false,"osm_id":1215116724},"geometry":{"type":"LineString","coordinates":[[88.6170097,27.6299798],[88.6171738,27.6299259],[88.6173025,27.6299212],[88.6174393,27.6299639],[88.617442,27.6300566],[88.6175037,27.6301897],[88.617552,27.6302325]]}},{"type":"Feature","properties":{"kind":"road","highway":"tertiary","motorable":true,"name":"North Sikkim Highway","ref":"NH310AG","bridge":false,"osm_id":1224972442},"geometry":{"type":"LineString","coordinates":[[88.6202731,27.6271675],[88.6201885,27.6273076],[88.6200481,27.6274649],[88.6198833,27.6275839],[88.6197279,27.6277402],[88.6197051,27.628131],[88.6196381,27.6282721],[88.6195319,27.6283204],[88.6194133,27.6283142],[88.6193346,27.6282502],[88.619291,27.628171],[88.6194076,27.6278805],[88.6195411,27.6275773],[88.6196683,27.6274812],[88.6197567,27.6273504],[88.61974,27.6272468],[88.6196706,27.6271945]]}},{"type":"Feature","properties":{"kind":"road","highway":"tertiary","motorable":true,"name":"North Sikkim Highway","ref":"NH310AG","bridge":false,"osm_id":1224972443},"geometry":{"type":"LineString","coordinates":[[88.6202962,27.6270214],[88.6202731,27.6271675]]}},{"type":"Feature","properties":{"kind":"road","highway":"tertiary","motorable":true,"name":"North Sikkim Highway","ref":"NH310AG","bridge":false,"osm_id":1224972444},"geometry":{"type":"LineString","coordinates":[[88.6208136,27.6274326],[88.6208131,27.6273536],[88.6206909,27.6272477],[88.6205412,27.6270661],[88.6204568,27.6269232],[88.620444,27.6268015],[88.6205066,27.6266915],[88.6206921,27.6265207],[88.6208598,27.6264466],[88.6208606,27.6263609],[88.6207236,27.6263003],[88.6206211,27.6263597],[88.620436,27.6265429],[88.6203386,27.6266945],[88.6203032,27.6268733],[88.6202962,27.6270214]]}},{"type":"Feature","properties":{"kind":"road","highway":"tertiary","motorable":true,"name":"North Sikkim Highway","ref":"NH310AG","bridge":false,"osm_id":1224972445},"geometry":{"type":"LineString","coordinates":[[88.6207171,27.6275386],[88.6208136,27.6274326]]}},{"type":"Feature","properties":{"kind":"road","highway":"tertiary","motorable":true,"name":"North Sikkim Highway","ref":"NH310AG","bridge":false,"osm_id":1224972446},"geometry":{"type":"LineString","coordinates":[[88.6212481,27.627753],[88.6211369,27.6277667],[88.6208826,27.6277553],[88.6205887,27.6277831],[88.6205519,27.6278955],[88.6205903,27.627974],[88.6205913,27.6280828],[88.6205177,27.6281986],[88.6204533,27.6284243],[88.620372,27.6284944],[88.620283,27.6285131],[88.620201,27.6284588],[88.6201358,27.6283074],[88.620129,27.6279352],[88.6201508,27.6277715],[88.6201822,27.6276455],[88.6202645,27.6275743],[88.6203552,27.6275123],[88.6207171,27.6275386]]}},{"type":"Feature","properties":{"kind":"road","highway":"tertiary","motorable":true,"name":"North Sikkim Highway","ref":"NH310AG","bridge":false,"osm_id":1224972447},"geometry":{"type":"LineString","coordinates":[[88.621307,27.6276688],[88.6212481,27.627753]]}},{"type":"Feature","properties":{"kind":"road","highway":"tertiary","motorable":true,"name":"North Sikkim Highway","ref":"NH310AG","bridge":false,"osm_id":1224972448},"geometry":{"type":"LineString","coordinates":[[88.622221,27.6281124],[88.6221338,27.6279808],[88.6220744,27.6279045],[88.6219195,27.6277675],[88.6219082,27.6276706],[88.6220115,27.6275681],[88.6221541,27.6273961],[88.6221409,27.6272604],[88.6220991,27.6271279],[88.6220664,27.6270487],[88.6220228,27.6270043],[88.6219487,27.6269618],[88.6218674,27.6269379],[88.6217454,27.6269186],[88.6216952,27.626849],[88.6217149,27.6267737],[88.6218247,27.6266984],[88.6218756,27.6266208],[88.621836,27.6265512],[88.6217714,27.6264956],[88.6217042,27.6265078],[88.6215665,27.6266543],[88.6215132,27.6267553],[88.6215132,27.626794],[88.6215372,27.6268442],[88.6216021,27.6269271],[88.6216936,27.6270449],[88.6217503,27.627155],[88.6218003,27.6272749],[88.6217844,27.6273789],[88.621712,27.6274241],[88.6216181,27.6274217],[88.6215488,27.6273793],[88.6215018,27.6272882],[88.6215123,27.6272026],[88.6215043,27.627056],[88.6214176,27.6269712],[88.6212902,27.626937],[88.6211813,27.6269903],[88.621128,27.6270559],[88.6210742,27.627144],[88.6210757,27.6272319],[88.6210829,27.6273175],[88.6211644,27.6274283],[88.6212598,27.6274949],[88.621307,27.6276688]]}},{"type":"Feature","properties":{"kind":"road","highway":"tertiary","motorable":true,"name":"North Sikkim Highway","ref":"NH310AG","bridge":false,"osm_id":1224972449},"geometry":{"type":"LineString","coordinates":[[88.6221253,27.6282045],[88.622221,27.6281124]]}},{"type":"Feature","properties":{"kind":"road","highway":"residential","motorable":true,"name":null,"ref":null,"bridge":false,"osm_id":1224972507},"geometry":{"type":"LineString","coordinates":[[88.6115143,27.6391367],[88.6115145,27.6391771],[88.6117563,27.639251],[88.6116984,27.6395271],[88.6115285,27.6397836],[88.6109961,27.6402058],[88.6106776,27.6405455],[88.6104816,27.6408065],[88.6103618,27.6410296],[88.6102226,27.641062]]}},{"type":"Feature","properties":{"kind":"road","highway":"residential","motorable":true,"name":null,"ref":null,"bridge":false,"osm_id":1224972508},"geometry":{"type":"LineString","coordinates":[[88.6116714,27.6387021],[88.6115143,27.6391367]]}}]}