{"type":"FeatureCollection","name":"nepal_sunkoshi","source":"OpenStreetMap roads, paths and places","licence":"ODbL 1.0 (c) OpenStreetMap contributors","features":[{"type":"Feature","properties":{"kind":"road","highway":"trunk","motorable":true,"name":"BP Highway","ref":"NH13","bridge":false,"osm_id":235964779},"geometry":{"type":"LineString","coordinates":[[85.811905,27.443811],[85.8122858,27.4439158],[85.8125271,27.4439647],[85.8126638,27.4439699],[85.8128159,27.4439478],[85.8129705,27.4439035],[85.8131441,27.4438087],[85.8133909,27.4436207],[85.8136859,27.4434183],[85.8139086,27.4432922],[85.814099,27.4432183],[85.8143029,27.4431588],[85.8145201,27.4431255],[85.8152148,27.4430922],[85.816454,27.4430231],[85.8171406,27.4429922],[85.8174545,27.4429779],[85.8177629,27.4429946],[85.8181438,27.4430112],[85.8183879,27.4430564],[85.8186749,27.4431231],[85.8188572,27.4431636],[85.8192167,27.4432683],[85.8194071,27.4433445],[85.8197156,27.4434397],[85.8204505,27.4436968],[85.8212042,27.4439538],[85.8218077,27.4441705],[85.8221027,27.4443157],[85.8224487,27.4445061],[85.8227116,27.4446894],[85.8229396,27.4448703],[85.8231381,27.4450393],[85.8233178,27.4452083],[85.8235511,27.4453511],[85.8237576,27.4454154],[85.8239561,27.4454082],[85.8241358,27.4453582],[85.824286,27.4452441],[85.8243874,27.4451598],[85.8244148,27.445137],[85.8247098,27.4447704],[85.8252018,27.4441229],[85.825426,27.4438278],[85.8256191,27.443554],[85.825713,27.4433469],[85.8257908,27.443035],[85.825831,27.4428208],[85.8258551,27.4426161],[85.8258605,27.4424447],[85.8258122,27.4422019],[85.8258283,27.4420044],[85.825882,27.4418686],[85.8259436,27.4417948],[85.8260402,27.4417234],[85.8261341,27.4416496],[85.8262735,27.4415664],[85.8263406,27.4415306],[85.8263943,27.4414711],[85.8264318,27.4413806],[85.8264157,27.4412914],[85.8263674,27.4412271],[85.8261743,27.4410212],[85.8259356,27.4407284],[85.8259034,27.4406332],[85.8259061,27.440538],[85.8259624,27.4404344],[85.8260201,27.4404106],[85.8260912,27.4404118],[85.8261555,27.4404237],[85.8262615,27.4404654],[85.8263487,27.4405296],[85.8264506,27.4406165],[85.826582,27.4407213],[85.8267041,27.4407713],[85.8268444,27.4407635],[85.8269441,27.4407499],[85.82727,27.4405963],[85.8275114,27.4404939],[85.8276536,27.440394],[85.8277059,27.4403047],[85.827726,27.4402273],[85.827726,27.4400976],[85.8276723,27.4399381],[85.8274966,27.4394323],[85.8274806,27.439293],[85.8274846,27.4391942],[85.827506,27.4391049],[85.8275074,27.4390383],[85.8274792,27.4389728],[85.8274055,27.4389109],[85.8271292,27.4388443],[85.8270018,27.4388002],[85.8269106,27.438736],[85.8268744,27.4387015],[85.8268476,27.4386348],[85.8268596,27.4385527],[85.8269159,27.4384908],[85.8269562,27.4384515],[85.8270219,27.4384229],[85.8270863,27.4384075],[85.8271949,27.4383979],[85.8275365,27.4383378],[85.827612,27.4383052],[85.827671,27.4382481],[85.82773,27.4381528],[85.8278105,27.438029],[85.827899,27.4379992],[85.8279593,27.4379885],[85.8280398,27.4380028],[85.8281498,27.4380206],[85.8283134,27.4380468],[85.8284377,27.4380355],[85.8287606,27.4379498],[85.8289704,27.4378707],[85.8290993,27.4378385],[85.8292012,27.4377802],[85.8292776,27.4376921],[85.8293192,27.4375874],[85.829338,27.4374648],[85.8292803,27.4372982],[85.8291087,27.4366197],[85.829055,27.4363543],[85.829055,27.4361948],[85.8290778,27.4360543],[85.8291086,27.4359652],[85.8291676,27.4358628],[85.8292857,27.4357175],[85.8293608,27.4356056],[85.8294064,27.4355294],[85.8294654,27.4353747],[85.8297041,27.4345963],[85.8298784,27.4341369],[85.830038,27.4338619],[85.8301815,27.4336464],[85.8303411,27.4333893],[85.8306509,27.4329322],[85.8308226,27.4326419],[85.8309942,27.4324406],[85.8311404,27.432299],[85.8313107,27.4321681],[85.8315253,27.4320264],[85.83176,27.4318622],[85.8319558,27.4317015],[85.8320685,27.4315955],[85.8321677,27.4314646],[85.8323702,27.431223],[85.8324949,27.4311158],[85.8326197,27.4310385],[85.8327726,27.4309087],[85.8328718,27.4308397],[85.8330649,27.4306754],[85.8332406,27.4305349],[85.8333841,27.4304409],[85.8336818,27.4302707],[85.8338508,27.4301755],[85.834052,27.4300838],[85.8342612,27.4299576],[85.8343939,27.4298886],[85.8345777,27.4297946],[85.8350109,27.4296029],[85.8353944,27.4294565],[85.8356291,27.4293613],[85.8359121,27.4293018],[85.8363815,27.4292161],[85.8366095,27.4291958],[85.8368388,27.4291423],[85.8370332,27.4291327],[85.8371754,27.4291494],[85.8373135,27.4291506],[85.8375201,27.429122],[85.8377628,27.4290756],[85.8380364,27.4289947],[85.8382872,27.4289637],[85.838495,27.4289804],[85.8386171,27.4289982],[85.8387579,27.4290089],[85.8388987,27.4290006],[85.8390623,27.4289768],[85.8391844,27.4289589],[85.8393306,27.4289101],[85.8403176,27.4286828],[85.8405389,27.4286435],[85.8411156,27.4285971],[85.8413181,27.4285816],[85.8415662,27.4285364],[85.8417808,27.4284769],[85.8419417,27.4283792],[85.8419859,27.4283495],[85.8420932,27.4282828],[85.8422381,27.4281674],[85.8424231,27.4280091],[85.8426404,27.4278376],[85.8428979,27.4276758],[85.8430964,27.4275722],[85.8433458,27.4274603],[85.8435939,27.4273639],[85.8437951,27.4272806],[85.8440646,27.4271211],[85.8442095,27.4270307],[85.8443543,27.426895],[85.8444723,27.4267604],[85.8445463,27.4266787],[85.8447084,27.426426],[85.845041,27.425914],[85.8455739,27.4251282],[85.8456762,27.4249706],[85.8459127,27.4246296],[85.8460374,27.4244772],[85.8461729,27.4243177],[85.846421,27.4240642],[85.8465631,27.4239154],[85.8466879,27.4237606],[85.8467455,27.423657],[85.8467992,27.4235094],[85.8468836,27.4233857],[85.8469775,27.423294],[85.847117,27.4232023],[85.847345,27.4230214],[85.8474576,27.4228952],[85.8475971,27.4227119],[85.8477232,27.4225643],[85.8479083,27.4224262],[85.8480625,27.4223321],[85.8482409,27.4222155],[85.8483656,27.4221464],[85.8485024,27.4220238],[85.8486418,27.4219238],[85.8487464,27.4218571],[85.8489811,27.4216929],[85.8491608,27.4215691],[85.8493003,27.4214822],[85.8494814,27.4213988],[85.8496638,27.4213334],[85.8498327,27.4212965],[85.8500379,27.4212441],[85.8502445,27.421181],[85.8507179,27.4209953],[85.8509351,27.4209203],[85.8511122,27.4208786],[85.8512302,27.4208691],[85.8513361,27.4208786],[85.8514957,27.4209155],[85.851654,27.4209619],[85.8517747,27.4209631],[85.8518538,27.4209429],[85.8519329,27.4209119],[85.8522065,27.4207608],[85.8523071,27.4207001],[85.8524238,27.4206691],[85.8524841,27.4206596],[85.8525297,27.4206631],[85.8526169,27.420681],[85.8526745,27.4207179],[85.8527537,27.4208608],[85.852806,27.4209453],[85.8528489,27.4210072],[85.8528958,27.4210596],[85.8529736,27.4210929],[85.8531493,27.4211167],[85.8535101,27.4211381],[85.8537635,27.4211346],[85.8540706,27.421106],[85.8542584,27.4211167]]}},{"type":"Feature","properties":{"kind":"road","highway":"unclassified","motorable":true,"name":null,"ref":null,"bridge":false,"osm_id":329376481},"geometry":{"type":"LineString","coordinates":[[85.8508985,27.4197039],[85.8506872,27.4197391],[85.8505279,27.4197486],[85.8503563,27.4197201],[85.8500791,27.4196888],[85.8498279,27.419667],[85.8495797,27.4197432],[85.8493653,27.4197513],[85.8491126,27.4197527],[85.8489349,27.4197459],[85.8487449,27.4196181],[85.8486331,27.4195392],[85.8484876,27.4195243],[85.8484646,27.4195841],[85.8485504,27.419663],[85.8485948,27.4197581],[85.8485749,27.4198655],[85.8484723,27.4199784],[85.8484361,27.4199883],[85.8483727,27.4200056],[85.8483344,27.4199784],[85.8483911,27.4199172],[85.8484447,27.4198492],[85.8484309,27.4197649],[85.8483513,27.4196616],[85.8482027,27.4194944],[85.8480449,27.4193788],[85.8478688,27.4192102],[85.8477907,27.4190919],[85.8476804,27.4190239],[85.8475655,27.4190158],[85.8474736,27.4190824],[85.8474062,27.4191966],[85.8473786,27.4193108],[85.8473158,27.4193842],[85.8470845,27.4195991],[85.8469957,27.4197024],[85.8469543,27.4197717],[85.8468425,27.4198424],[85.8467491,27.4199091],[85.8466817,27.419977],[85.8465867,27.4200056],[85.84636,27.4199961],[85.846213,27.4200192],[85.8461854,27.4200736],[85.8462528,27.420098],[85.8463508,27.420094],[85.8464718,27.4201266],[85.8465607,27.4202027],[85.8465775,27.4202762],[85.8464856,27.4202898],[85.8463294,27.4202462],[85.8461655,27.4202666],[85.8459955,27.420249],[85.84583,27.4202748],[85.8456876,27.4202775],[85.845516,27.4202055],[85.8453368,27.4200872],[85.845081,27.419939],[85.8449228,27.4199218],[85.8448559,27.4199145],[85.8446659,27.4197921],[85.8444668,27.4197187],[85.8442324,27.419701],[85.8439338,27.4196969],[85.8436887,27.4196902],[85.8433931,27.4196874],[85.8432383,27.4197758],[85.8430392,27.4198737],[85.842834,27.4199553],[85.8427313,27.4200681],[85.8426289,27.4201102],[85.8425889,27.4201266],[85.842451,27.4202],[85.842474,27.4202585],[85.8425736,27.4202354],[85.8427191,27.4201606],[85.842968,27.4201234],[85.8431889,27.4200964],[85.8433861,27.4200907],[85.8437305,27.4200561],[85.8439254,27.4201234],[85.8440901,27.4202637],[85.8442179,27.420406],[85.8443695,27.4205368],[85.8445168,27.4206214],[85.8446165,27.4207387],[85.8446555,27.4208559],[85.8446728,27.4209982],[85.8446698,27.4210458],[85.8446641,27.4211348],[85.8446121,27.4212117],[85.8445536,27.4212636],[85.844441,27.4213559],[85.8443435,27.4214674],[85.8443197,27.4215251],[85.844285,27.4215674],[85.844233,27.421577],[85.8441919,27.4215462],[85.8441876,27.4214924],[85.8442157,27.4214309],[85.8442439,27.4213193],[85.8442547,27.4211501],[85.8442244,27.4210405],[85.8441356,27.4209252],[85.8440576,27.4208502],[85.8438648,27.4208386],[85.8436178,27.4208559],[85.8433297,27.4209232],[85.8431434,27.4210136],[85.8429723,27.4211232],[85.8429442,27.4211963],[85.8429961,27.4212328],[85.8431066,27.4212347],[85.8432518,27.4212386],[85.8433622,27.4212713],[85.8434835,27.4213482],[85.8435507,27.4214424],[85.8435204,27.4215559],[85.8433839,27.4216828],[85.8432106,27.4218327],[85.8429766,27.4219904],[85.8427167,27.4221058],[85.8426019,27.4221269],[85.8424438,27.4220885],[85.8421946,27.4220962],[85.8421275,27.4221073],[85.8418567,27.4221519],[85.841547,27.4221885],[85.8412913,27.4223077],[85.8411609,27.4223512],[85.8410379,27.4223923],[85.8407541,27.4225288],[85.8405202,27.4226422],[85.8402971,27.4227268],[85.8400783,27.4228134],[85.8400482,27.4228407],[85.8398855,27.4229883],[85.8397512,27.4231249],[85.8395887,27.423196],[85.8394089,27.4232191],[85.8392573,27.4231691],[85.8391574,27.4231336],[85.8390732,27.4231037],[85.8387352,27.4231018],[85.8385786,27.4231159],[85.838458,27.4231268],[85.8381698,27.4231595],[85.8379641,27.4232498],[85.8377799,27.4233864],[85.8376023,27.4234479],[85.8373922,27.4235325],[85.8372275,27.4236344],[85.8371293,27.4237249],[85.8371149,27.4237382],[85.8369005,27.4238728],[85.8367618,27.4239651],[85.8365799,27.4240363],[85.8363979,27.4240862],[85.8362333,27.4241728],[85.8360318,27.4242978],[85.8359148,27.4243881],[85.835839,27.4244958],[85.8358433,27.4245785],[85.8358368,27.4246727],[85.8358368,27.4247804],[85.8357827,27.4249073],[85.8356722,27.4250284],[85.8356441,27.4251072],[85.8355942,27.425238],[85.835504,27.4253258],[85.8354816,27.4253476],[85.8353884,27.4254264],[85.8353126,27.4255648],[85.835278,27.4256591],[85.8351718,27.4257398],[85.8351164,27.4257482],[85.8350072,27.4257648],[85.8347559,27.4257937],[85.8345415,27.425811],[85.8343833,27.4257687],[85.8343349,27.4257463],[85.834184,27.4256764],[85.8339826,27.425636],[85.8337876,27.4256187],[85.8336403,27.4255687],[85.8334497,27.4255668],[85.8333176,27.4255591],[85.8331681,27.4255264],[85.832997,27.4255648],[85.8328323,27.4256533],[85.8326179,27.4257514],[85.8325124,27.4257854],[85.8323319,27.4258436],[85.8322525,27.4258831],[85.83215,27.425934],[85.8320807,27.4260301],[85.8320048,27.4260974],[85.8318229,27.426182],[85.8316517,27.4262493],[85.8315586,27.4263512],[85.8315304,27.4265128],[85.8315283,27.4266935],[85.8315326,27.4268319],[85.8314633,27.4269511],[85.8314676,27.4270742],[85.8315239,27.4272895],[85.8315673,27.4275203],[85.8315186,27.4276911],[85.8315078,27.4277289],[85.8314546,27.4278048],[85.8313376,27.4278471],[85.8311254,27.4279471],[85.8309261,27.4281548],[85.8306531,27.4284085],[85.8305795,27.4285777],[85.8304408,27.42872],[85.8302805,27.4288354],[85.8302112,27.4290007],[85.8300076,27.4291007],[85.8297433,27.4291392],[85.8295137,27.4292468],[85.8293274,27.4294237],[85.8292408,27.4296275],[85.8291324,27.4297044],[85.8288162,27.4295737],[85.8286862,27.4295622],[85.8285172,27.4296544],[85.8283829,27.4298006],[85.8282944,27.4300047],[85.8281154,27.4301141],[85.82809,27.4302252],[85.8280364,27.4303466],[85.8279454,27.4306004],[85.8278544,27.4309349],[85.8277872,27.4311493],[85.8276083,27.4314396],[85.8275342,27.431652],[85.8274088,27.4317532],[85.8272652,27.4317704],[85.8271125,27.4316915],[85.8270464,27.4317047],[85.8269826,27.431822],[85.8269267,27.4318695],[85.8267683,27.4318898],[85.8267182,27.4319474],[85.8266486,27.4321073],[85.8265689,27.432171],[85.8264435,27.4322023],[85.826364,27.4322731],[85.8262999,27.4324117],[85.8261836,27.4324481],[85.8261403,27.4324856],[85.8260913,27.432613],[85.825991,27.4327476],[85.8259476,27.4328633],[85.825915,27.4330195],[85.8258884,27.4331218],[85.8258562,27.4332754],[85.8258779,27.4333376],[85.8259714,27.4334492],[85.8260343,27.4334778],[85.826106,27.4334763],[85.826189,27.4334234],[85.8262551,27.4334248],[85.8262978,27.4334878],[85.8262921,27.4335722],[85.8262301,27.4336165],[85.8261342,27.4336637],[85.8261431,27.4337145],[85.8262051,27.4337317],[85.8262921,27.4337217],[85.8263832,27.4336552],[85.8264219,27.4335801],[85.826492,27.4335464],[85.82652,27.4336112],[85.8265017,27.4336981],[85.8264267,27.4338011],[85.8263163,27.4338669],[85.8261737,27.4338984],[85.826164,27.4339384],[85.8262132,27.4339706],[85.8263623,27.4339606],[85.8264985,27.4339341],[85.8266067,27.433865],[85.8266951,27.4337403],[85.8267483,27.4337331],[85.8267837,27.4337746],[85.826754,27.4338881],[85.8266413,27.4340034],[85.8264853,27.434115],[85.8263077,27.4341573],[85.8262237,27.4342023],[85.826247,27.4342538],[85.8263389,27.4342581],[85.8265243,27.4342303],[85.8266976,27.434138],[85.8268926,27.434038],[85.8269576,27.4339535],[85.8270486,27.4338266],[85.827099,27.4337706],[85.827149,27.4337806],[85.8271785,27.4338458],[85.8270832,27.434038],[85.8269013,27.4342534],[85.8266929,27.4344687],[85.8265438,27.4345581],[85.8263698,27.4347069],[85.8262465,27.4347405],[85.8262013,27.4347884],[85.826211,27.4348213],[85.8262787,27.434832],[85.826373,27.4348027],[85.8264503,27.4347626],[85.8265487,27.4346575],[85.826622,27.4346382],[85.826663,27.4346494],[85.8266567,27.4347147],[85.8264931,27.4348614],[85.8264165,27.4349565],[85.8263021,27.4350259],[85.8262118,27.4350359],[85.8260949,27.4349736],[85.8260174,27.4348571],[85.8259048,27.4346071],[85.8257825,27.4344146],[85.8257118,27.4343742],[85.8255876,27.4343681],[85.8254531,27.4344146],[85.8253653,27.4345522],[85.8252203,27.4348763],[85.8250946,27.4351301],[85.824917,27.4353262],[85.8247827,27.4354723],[85.8246701,27.4355107],[85.8245098,27.4354531],[85.8244405,27.4354954],[85.8244231,27.43558],[85.8244145,27.435703],[85.8243321,27.4357607],[85.8242368,27.4356799],[85.8241329,27.4355953],[85.8240679,27.4356261],[85.8240722,27.4357914],[85.8241415,27.4359952],[85.8241762,27.4361298],[85.8242672,27.4362106],[85.8243841,27.436349],[85.8243755,27.4364028],[85.8241892,27.4363413],[85.8239552,27.4362221],[85.8237819,27.4361567],[85.8237733,27.4362567],[85.8238729,27.436422],[85.8239379,27.4366297],[85.8239032,27.4368412],[85.8239162,27.4371103],[85.8240635,27.4373949],[85.8241996,27.4376037],[85.8242238,27.4376409],[85.8244275,27.437837],[85.8246051,27.4380447],[85.8247394,27.4382177],[85.82493,27.4384138],[85.8250253,27.4385676],[85.8249863,27.4387522],[85.8248996,27.4389302],[85.8249032,27.4390651],[85.8249857,27.4392749],[85.8251085,27.4394245],[85.8252569,27.4395806],[85.8253692,27.4397464],[85.8254132,27.4398798],[85.8254535,27.4399375],[85.8255048,27.4399757],[85.8255945,27.4399887],[85.8257521,27.4399757],[85.8259106,27.439996],[85.8260443,27.4400302],[85.826256,27.4401651],[85.8264724,27.4404247],[85.8266197,27.4405785],[85.8267366,27.4407016],[85.8269441,27.4407499]]}},{"type":"Feature","properties":{"kind":"road","highway":"secondary","motorable":true,"name":"NH03","ref":"NH03","bridge":false,"osm_id":331129344},"geometry":{"type":"LineString","coordinates":[[85.8149447,27.4533332],[85.8152297,27.4534384],[85.8156273,27.4535306],[85.8159219,27.4538025],[85.8160898,27.4538593],[85.8163097,27.4538956],[85.8164376,27.4539985],[85.8165775,27.4540304],[85.8167574,27.4539665],[85.8169013,27.4540056],[85.8171372,27.4540871],[85.8172611,27.4540729],[85.817345,27.4539665],[85.817449,27.4538956],[85.8177634,27.4537963],[85.8180445,27.4536721],[85.8182284,27.4534487],[85.8186242,27.4532075],[85.8191238,27.4528634],[85.8194396,27.4527853],[85.8197954,27.4527712],[85.8200672,27.4527109],[85.820363,27.4526967],[85.8206068,27.4525654],[85.8209905,27.4523668],[85.8212783,27.4523597],[85.8214103,27.4522497],[85.8216341,27.4521504],[85.82177,27.4519872],[85.8218859,27.4518134],[85.8220418,27.4517673],[85.8223416,27.4518028],[85.8224655,27.4517709],[85.8225295,27.4516822],[85.8226134,27.4514552],[85.8226534,27.4511075],[85.8226814,27.4509621],[85.8228493,27.4508202],[85.8230052,27.450657],[85.8231171,27.4504513],[85.8235168,27.4502562],[85.8237407,27.4501782],[85.8239645,27.4501356],[85.8241804,27.4499653],[85.8245161,27.4497135],[85.82478,27.4495467],[85.8249798,27.4494758],[85.8251717,27.4494829],[85.8253676,27.4494474],[85.8256394,27.4494758],[85.8258912,27.4494864],[85.8260151,27.4495255],[85.8262869,27.449451],[85.8265547,27.4494297],[85.8271344,27.4492665],[85.827602,27.4491672],[85.8282269,27.4489291],[85.8287198,27.4486752],[85.8289821,27.4483252],[85.8291694,27.4482451],[85.8292346,27.4480587],[85.8300032,27.4458623],[85.8301451,27.445528],[85.8303238,27.4452656],[85.8302659,27.445066],[85.8305332,27.4446993],[85.8305121,27.4442779],[85.8306309,27.4440576],[85.8307524,27.4437003],[85.8308553,27.4432069],[85.8310064,27.4428894],[85.831158,27.4426295],[85.8312921,27.4421443],[85.8315556,27.4413366],[85.8317696,27.4407747],[85.832028,27.4405139],[85.8321989,27.4403377],[85.8324804,27.4402311]]}},{"type":"Feature","properties":{"kind":"road","highway":"service","motorable":true,"name":null,"ref":null,"bridge":false,"osm_id":340591515},"geometry":{"type":"LineString","coordinates":[[85.8252018,27.4441229],[85.8254009,27.4441432],[85.8255641,27.4441074],[85.8256095,27.4440974],[85.8260665,27.4440876],[85.8263805,27.4440891],[85.8266551,27.444173],[85.8267528,27.4442191],[85.8268474,27.4441947],[85.8269908,27.4441351],[85.8271281,27.4439591],[85.8272227,27.443783],[85.827238,27.4435826],[85.8272654,27.4435257],[85.8276225,27.4435664]]}},{"type":"Feature","properties":{"kind":"road","highway":"path","motorable":false,"name":null,"ref":null,"bridge":false,"osm_id":340626641},"geometry":{"type":"LineString","coordinates":[[85.8439218,27.4332921],[85.843872,27.4333366],[85.8438398,27.4334239],[85.8437754,27.4335306],[85.8436432,27.4335652],[85.8436042,27.4336585],[85.8435263,27.4337201],[85.8433518,27.4339743],[85.8432857,27.4340013],[85.8432044,27.4340976],[85.8431417,27.4341186],[85.8430858,27.4340931],[85.8429841,27.4340961],[85.8429485,27.4341292],[85.8429502,27.4341788],[85.8429994,27.4342059],[85.8432975,27.4343315],[85.843437,27.4343696],[85.8437374,27.4344553],[85.8438983,27.4345267],[85.8441236,27.4346076],[85.8443435,27.4347076],[85.8446171,27.4348314],[85.8448317,27.4349885],[85.8450034,27.4350028],[85.845234,27.435098],[85.8453467,27.4352504],[85.8455398,27.4352123],[85.8456793,27.4350647],[85.8458509,27.4349885],[85.8458027,27.4351647],[85.8458027,27.4354027],[85.8458617,27.4356503],[85.845969,27.4358217],[85.8460655,27.4359931],[85.8461299,27.4358931],[85.8461621,27.4356646],[85.8461943,27.4354313],[85.8463177,27.4352742],[85.8463177,27.435179],[85.8463177,27.4350218],[85.8464571,27.4351456],[85.8464839,27.4353075],[85.8464839,27.4354837],[85.8466449,27.4355884],[85.8467253,27.4356884],[85.8468434,27.4358741],[85.8469667,27.4360455],[85.8471062,27.4361788],[85.8472403,27.4363454],[85.8474174,27.436493],[85.8474764,27.4362597],[85.8475139,27.4360693],[85.8473959,27.4359217],[85.8473959,27.4357074],[85.8474066,27.435498],[85.8474334,27.4352694],[85.847294,27.4352123],[85.8472993,27.4351218],[85.8475676,27.4351885],[85.8476963,27.4352075],[85.8478948,27.4351218],[85.8480289,27.4351266],[85.8481094,27.4352694],[85.8482113,27.4354123],[85.8483186,27.4355598],[85.8483615,27.4356789],[85.8484527,27.435855],[85.8485546,27.4360026],[85.8486512,27.4361835],[85.848737,27.4361597],[85.8487477,27.4358884],[85.8488443,27.4357693],[85.8488228,27.435536],[85.8487906,27.4353742],[85.8488228,27.4352171],[85.8489087,27.4350314],[85.849016,27.4350457],[85.8489838,27.435198],[85.8490213,27.4353361],[85.8491286,27.4353313],[85.8491286,27.4351123],[85.8492466,27.4349123],[85.8491769,27.4347505],[85.8492734,27.4346267],[85.8495202,27.43436],[85.8497562,27.4342363],[85.8499333,27.4341125],[85.8501747,27.4340506],[85.8504107,27.4339839],[85.8506467,27.4338887],[85.8509418,27.4339315],[85.8511027,27.4339315],[85.8512744,27.4339506],[85.8515426,27.4339173],[85.8518162,27.4338458],[85.8521488,27.4339649],[85.8522507,27.4340506],[85.8524063,27.4340934],[85.8526959,27.4342077],[85.85305,27.4341601],[85.8533558,27.4341506],[85.8536133,27.4341601],[85.8538278,27.4342363],[85.8540907,27.4343458],[85.8544233,27.4343886],[85.8544555,27.4344315],[85.8544877,27.4345219],[85.8543321,27.4346076],[85.8541658,27.4346695],[85.8541658,27.4347409],[85.8543884,27.4348029],[85.8546593,27.434779],[85.8548524,27.4346624],[85.8551636,27.4346029],[85.8552736,27.4345624],[85.8553177,27.434526],[85.8554238,27.4344386],[85.8556142,27.4344243],[85.8561184,27.4344362],[85.8563759,27.4344981],[85.8564779,27.4343839],[85.8565905,27.4342315],[85.8569124,27.4340553],[85.857143,27.4338697],[85.8574113,27.4337459],[85.8577814,27.4337316],[85.8579638,27.4337363],[85.8582428,27.4337268],[85.8585378,27.4337411],[85.8588972,27.4337411],[85.8591601,27.433803],[85.8593425,27.4338554],[85.8594766,27.4337982],[85.8595517,27.4337221],[85.8595839,27.4335459],[85.8596751,27.4334507],[85.8599004,27.4334173],[85.8599272,27.4333316],[85.8600237,27.4331745],[85.860072,27.4329746],[85.8600881,27.4328317],[85.8601793,27.4326889],[85.8601793,27.4325651],[85.8602008,27.4323318],[85.8603349,27.432089],[85.8603992,27.4319461],[85.8606138,27.4317271],[85.8607265,27.4316081],[85.8609142,27.4314367],[85.861161,27.4313129],[85.8614078,27.4311748],[85.8616653,27.4310843],[85.8618315,27.4310653],[85.8621051,27.4309939],[85.8623412,27.4308558],[85.8625772,27.4307225],[85.8628079,27.4305654],[85.8631083,27.4303797],[85.8632853,27.4302511],[85.8634677,27.4301368],[85.8637091,27.4301035],[85.8638539,27.4301797],[85.8640578,27.4301559],[85.8642724,27.4302178],[85.8644869,27.4303416],[85.8648571,27.4305177],[85.8650609,27.4305558],[85.8653345,27.430513],[85.8655384,27.4304082],[85.8658388,27.4303654],[85.8661445,27.4303083],[85.8664181,27.4302844],[85.8667078,27.4302892],[85.8667936,27.4304225],[85.8669331,27.4306368],[85.8670082,27.4307987],[85.8671906,27.4308844],[85.8673676,27.4310129],[85.8676198,27.4309939],[85.8677056,27.4308225],[85.8678933,27.4308844],[85.8680221,27.431051],[85.8682796,27.4310605],[85.8685854,27.4310463],[85.8688965,27.4310082],[85.8690306,27.4309034],[85.8692046,27.4309295],[85.8694026,27.4309945],[85.8696519,27.4309555],[85.8698499,27.4307407],[85.8700479,27.4305715],[85.8703412,27.4302916],[85.8705905,27.4299987],[85.8710232,27.4297774],[85.8715218,27.4295236],[85.8717712,27.4292958],[85.8718518,27.4290094],[85.8720938,27.4288337],[85.8722918,27.4285733],[85.8724898,27.4282934],[85.8726731,27.4279745],[85.8727905,27.4276491],[85.8728931,27.4273627],[85.8731278,27.4273041],[85.8735238,27.4274668],[85.8738098,27.4277011],[85.8741104,27.4278769]]}},{"type":"Feature","properties":{"kind":"road","highway":"unclassified","motorable":true,"name":null,"ref":null,"bridge":false,"osm_id":340892472},"geometry":{"type":"LineString","coordinates":[[85.8315556,27.4413366],[85.8317265,27.4411069],[85.831933,27.4408189],[85.8321744,27.4407617],[85.8324173,27.4407657],[85.8326036,27.4407213],[85.8329603,27.4405903],[85.8333841,27.4402833],[85.8334565,27.4401309],[85.8337757,27.4399072],[85.8338673,27.4396851]]}},{"type":"Feature","properties":{"kind":"road","highway":"unclassified","motorable":true,"name":null,"ref":null,"bridge":false,"osm_id":341737677},"geometry":{"type":"LineString","coordinates":[[85.8148447,27.4310099],[85.8148916,27.4310625],[85.8149927,27.4313181],[85.8150907,27.4315574],[85.8150999,27.4317395],[85.8149804,27.4318673],[85.815011,27.4319761],[85.8150631,27.4321093],[85.8151183,27.4322181],[85.8153051,27.4322181],[85.8154767,27.4321392],[85.8156605,27.4321066],[85.8158474,27.4321121],[85.8160251,27.4320794],[85.8161782,27.4319707],[85.8164417,27.4318782],[85.8166439,27.431764],[85.8167695,27.4316607],[85.8168062,27.4315247],[85.8168369,27.4313589],[85.8169043,27.431193],[85.8169073,27.431019],[85.8169625,27.4309483],[85.8170942,27.4309891],[85.8172995,27.431038],[85.8175323,27.4311604],[85.8177038,27.4312338],[85.8179183,27.431242],[85.8180561,27.4313426],[85.8181572,27.4314377],[85.818436,27.4315003],[85.8186688,27.4315492],[85.8189537,27.4316444],[85.8190371,27.4316763],[85.8191314,27.4317124],[85.8194088,27.4316607],[85.819496,27.4316444],[85.8197165,27.4315846],[85.8198176,27.4314649],[85.8199769,27.4313507],[85.8202404,27.4312719],[85.8203813,27.4311441],[85.8204916,27.4309673],[85.8205835,27.4308858],[85.8208194,27.4308124],[85.8209787,27.4307009],[85.8210251,27.4306851],[85.8211227,27.4306519],[85.8213923,27.4305894],[85.8217262,27.4304589],[85.82191,27.4303528],[85.822103,27.4302849],[85.8225166,27.4301136],[85.8227157,27.4300374],[85.823019,27.4299423],[85.823454,27.4297791],[85.8236929,27.4298281],[85.8239166,27.4299368],[85.824036,27.430051],[85.8240483,27.4302169],[85.8240847,27.4304106],[85.8240912,27.4304453],[85.824085,27.4306846],[85.8240392,27.4309129],[85.8240514,27.4310924],[85.8240759,27.4312909],[85.8241065,27.4313725],[85.8241555,27.4313806],[85.8241953,27.4313534],[85.8241708,27.4312746],[85.82418,27.4311223],[85.8242198,27.4308858],[85.8242903,27.4306574],[85.8243393,27.4304888],[85.8244435,27.4303827],[85.8245293,27.4302604],[85.82471,27.4298417],[85.8248295,27.4296404],[85.8248601,27.4294773],[85.8248846,27.4292462],[85.8247988,27.4290694],[85.8247713,27.4289199],[85.8248356,27.4288329],[85.8249459,27.4287676],[85.8251634,27.4286806],[85.8253748,27.4285555],[85.8254514,27.4284033],[85.8255218,27.4282918],[85.8256321,27.428183],[85.82577,27.4280307],[85.825966,27.4279628],[85.826156,27.42799],[85.8263336,27.4280552],[85.8264654,27.4281205],[85.8266063,27.4281042],[85.8267503,27.428009],[85.827026,27.4279546],[85.8273752,27.4279709],[85.827608,27.4280443],[85.8276871,27.4281186],[85.8277122,27.4281422],[85.8278746,27.4281885],[85.8280002,27.4281694],[85.8282575,27.428096],[85.8285455,27.4280715],[85.8287109,27.4280634],[85.828907,27.42796],[85.8291,27.4279736],[85.8293021,27.4279519],[85.8294798,27.4279682],[85.829587,27.42799],[85.8297249,27.4279356],[85.8300221,27.4278948],[85.8303621,27.4279465],[85.8307113,27.427922],[85.8309748,27.4277833],[85.8311678,27.4277099],[85.8313424,27.4277045],[85.8315078,27.4277289]]}},{"type":"Feature","properties":{"kind":"road","highway":"path","motorable":false,"name":null,"ref":null,"bridge":false,"osm_id":343078912},"geometry":{"type":"LineString","coordinates":[[85.8285385,27.4281886],[85.8284945,27.428245],[85.8285165,27.4282898],[85.8285618,27.4283255],[85.8285877,27.4283646],[85.8285787,27.428452],[85.8285113,27.4286072],[85.828488,27.428644],[85.828497,27.4287026],[85.8284919,27.4287394],[85.828453,27.4287831],[85.8283079,27.4288004],[85.8281887,27.4288533],[85.8280475,27.4289349],[85.827962,27.4289913],[85.8278609,27.4290028],[85.8277197,27.4289901],[85.827607,27.42902],[85.8275047,27.4290396],[85.8273647,27.429081],[85.8270797,27.4292362],[85.8269955,27.4293247],[85.8269281,27.4293753],[85.8267532,27.4295536],[85.8266081,27.4296283],[85.8264812,27.429741],[85.8264177,27.4297801],[85.8263464,27.4298525],[85.8261599,27.4300331],[85.8259953,27.4301504],[85.8259085,27.430201],[85.8257051,27.4302711],[85.8256637,27.4302987],[85.8256442,27.4303275],[85.8255548,27.4303999],[85.8254525,27.4305091],[85.8253605,27.4305724],[85.8252297,27.4306414],[85.8250923,27.4307069],[85.824977,27.4307736],[85.8248125,27.4308737],[85.8247192,27.4309645],[85.8245352,27.4310484],[85.8244912,27.4311013],[85.8244277,27.4311565],[85.8243707,27.4311795],[85.8243098,27.4312014]]}},{"type":"Feature","properties":{"kind":"road","highway":"track","motorable":true,"name":null,"ref":null,"bridge":false,"osm_id":343078915},"geometry":{"type":"LineString","coordinates":[[85.8282575,27.428096],[85.8285385,27.4281886],[85.8287225,27.4282323],[85.8288119,27.428268],[85.8288766,27.4283692],[85.8288961,27.4284175]]}},{"type":"Feature","properties":{"kind":"road","highway":"path","motorable":false,"name":null,"ref":null,"bridge":false,"osm_id":343529005},"geometry":{"type":"LineString","coordinates":[[85.8445463,27.4266787],[85.8444834,27.4263592]]}},{"type":"Feature","properties":{"kind":"road","highway":"path","motorable":false,"name":null,"ref":null,"bridge":false,"osm_id":343552670},"geometry":{"type":"LineString","coordinates":[[85.8351164,27.4257482],[85.83506,27.4259858],[85.8350543,27.4262512],[85.8352764,27.4261096],[85.8356836,27.4257331],[85.8360167,27.4255031],[85.8363271,27.4252706],[85.8365264,27.4251922],[85.8366972,27.4250583],[85.8368567,27.4249875],[85.8370503,27.4249496],[85.8374774,27.4247803],[85.8378817,27.4246438],[85.8382917,27.4245654],[85.8385224,27.4244795],[85.838753,27.4244239],[85.8389694,27.4242697],[85.8390491,27.4241939],[85.8392086,27.4240953],[85.8393339,27.424017],[85.8392129,27.4238022],[85.839247,27.4236758],[85.8391075,27.423461],[85.8390022,27.4233144],[85.8389253,27.423231],[85.8387352,27.4231018]]}},{"type":"Feature","properties":{"kind":"road","highway":"path","motorable":false,"name":null,"ref":null,"bridge":false,"osm_id":343556018},"geometry":{"type":"LineString","coordinates":[[85.8349017,27.4424724],[85.834992,27.4423488],[85.8350257,27.4422806],[85.8353126,27.4419894],[85.8354045,27.4419211],[85.8354533,27.4418063],[85.8355526,27.4415633],[85.8358414,27.4413337],[85.8362465,27.4411439],[85.836494,27.4409842],[85.8366627,27.4410541],[85.8368203,27.4409409],[85.8371165,27.4408311],[85.8371278,27.4402353],[85.8371728,27.4401554],[85.8368728,27.439513],[85.836884,27.4390703],[85.8368781,27.4390272],[85.836869,27.4389605],[85.8370753,27.4388207],[85.8371728,27.4386077],[85.8375141,27.4384113],[85.8376566,27.438185],[85.8378404,27.4380052],[85.8378104,27.4377489],[85.8380429,27.4375792],[85.8383504,27.4374061],[85.8385979,27.4371432],[85.8387592,27.43705],[85.8388642,27.4369434],[85.839048,27.4368336],[85.8393293,27.4367104],[85.8397418,27.4364109],[85.8400756,27.436098],[85.8403343,27.4357452],[85.8404956,27.4355688],[85.8406719,27.4354889],[85.8408519,27.4354789],[85.8409457,27.4355987],[85.8410169,27.4356952],[85.8411369,27.4357984],[85.8412044,27.4356719],[85.8413056,27.4353525],[85.8412687,27.4351696],[85.8412293,27.4351134],[85.8411538,27.4349527]]}},{"type":"Feature","properties":{"kind":"road","highway":"unclassified","motorable":true,"name":null,"ref":null,"bridge":false,"osm_id":343682864},"geometry":{"type":"LineString","coordinates":[[85.8258884,27.4331218],[85.8259219,27.4332406],[85.8259436,27.4332704],[85.8259948,27.4332714],[85.8260165,27.4332082],[85.8260102,27.4330828],[85.8260343,27.4329132],[85.8261521,27.4327166],[85.8262593,27.4325972],[85.8263391,27.4325699],[85.8264485,27.4324768],[85.8265602,27.4323595],[85.8267311,27.4323423],[85.8268551,27.4322847],[85.8269118,27.4322396],[85.8269569,27.4322452],[85.8269586,27.432276],[85.8268822,27.4323494],[85.826795,27.432408],[85.8267102,27.4324276],[85.8266137,27.432518],[85.8265158,27.4326725],[85.8263991,27.4327323],[85.8262972,27.4328656],[85.8262864,27.4330132],[85.8263186,27.4332084],[85.8264205,27.4333417],[85.8264474,27.433456],[85.826492,27.4335464]]}},{"type":"Feature","properties":{"kind":"road","highway":"path","motorable":false,"name":null,"ref":null,"bridge":false,"osm_id":343683729},"geometry":{"type":"LineString","coordinates":[[85.8458724,27.4439271],[85.8456984,27.4438665],[85.8455777,27.4438261],[85.8455375,27.4438189],[85.8456341,27.4437285],[85.8457574,27.4436594],[85.8458352,27.4435785],[85.8458915,27.4435142],[85.8460176,27.443369],[85.8460578,27.4433143],[85.846082,27.4432],[85.8461732,27.4430691],[85.8462724,27.4429596],[85.84631,27.4428834],[85.8463743,27.4428144],[85.846487,27.4426978],[85.846538,27.4425811],[85.8466104,27.4425073],[85.8466318,27.4424621],[85.846656,27.4424264],[85.8466613,27.4423836],[85.8465996,27.4423788],[85.8466077,27.4423003],[85.8466077,27.4422479],[85.8466587,27.4421931],[85.8467338,27.4421717],[85.8468384,27.4421574],[85.8469135,27.442155],[85.8469644,27.442086],[85.8470181,27.4420217],[85.8471254,27.441948],[85.8472273,27.4418551],[85.8473077,27.4417718],[85.8473855,27.4417123],[85.8474955,27.4416718],[85.8475679,27.441598],[85.8476162,27.4415385],[85.8477932,27.4414171],[85.8479112,27.441329],[85.8480105,27.4412553],[85.848107,27.4411838],[85.8482277,27.4411196],[85.8482814,27.4410363],[85.8483887,27.4409791],[85.8484772,27.4408768],[85.8485684,27.440803],[85.848681,27.4406816],[85.8487266,27.4405887],[85.848783,27.4405268],[85.8488688,27.4404531],[85.848968,27.4403912],[85.8490405,27.4403578],[85.8490753,27.4403007],[85.8491853,27.4402317],[85.8492255,27.4401793],[85.8493221,27.4401103],[85.8494482,27.4400031],[85.8495313,27.4399651],[85.8496547,27.4399222],[85.8497298,27.4398675],[85.8498317,27.4398222],[85.849931,27.4397794],[85.8500999,27.4397223],[85.8501884,27.4397175],[85.8502582,27.4396937],[85.8503574,27.4396461],[85.8503762,27.4395961],[85.8503896,27.4395104],[85.8504164,27.4394295],[85.8504513,27.4394009],[85.8505049,27.4393842],[85.8505774,27.4393652],[85.850682,27.439358],[85.8508188,27.4393461],[85.8508912,27.439339],[85.8509743,27.4392628],[85.8511353,27.4391748],[85.8512157,27.439139],[85.8512613,27.4391105],[85.8512479,27.4390652],[85.8512506,27.4389962],[85.8512426,27.4389343],[85.8512291,27.4388796],[85.8512399,27.4388224],[85.8512881,27.4387725],[85.8513177,27.4387153],[85.8513659,27.4386439],[85.851382,27.4385868],[85.8514008,27.4385344],[85.851433,27.438463],[85.8514705,27.4384035],[85.8515054,27.4383511],[85.8515027,27.4383011],[85.8515027,27.4382178],[85.8515537,27.4381464],[85.8515751,27.4381035],[85.8515295,27.4380155],[85.8515135,27.4379631],[85.8515269,27.437875],[85.8515564,27.4377965],[85.8515832,27.4377536],[85.8516127,27.4376655],[85.8516127,27.4376013],[85.8516181,27.4375346],[85.8516342,27.4374751],[85.8516073,27.4373727],[85.8515725,27.4373227],[85.8515376,27.4372823],[85.8515,27.4372275],[85.8514518,27.4371799],[85.8514464,27.437018],[85.8514196,27.4369061],[85.8514464,27.4368109],[85.8515295,27.4366752],[85.8515671,27.4365824],[85.8515939,27.436511],[85.85172,27.4362682],[85.85172,27.4362206],[85.8517468,27.4361539],[85.851779,27.4360587],[85.8517978,27.4360254],[85.8518139,27.4360039],[85.8518487,27.4359777]]}},{"type":"Feature","properties":{"kind":"road","highway":"path","motorable":false,"name":null,"ref":null,"bridge":false,"osm_id":343684369},"geometry":{"type":"LineString","coordinates":[[85.8425782,27.4435714],[85.8425031,27.4435571],[85.8423851,27.4435523],[85.8423368,27.4435381],[85.842369,27.4434833],[85.842369,27.4434238],[85.842369,27.4434024],[85.8422885,27.4433905],[85.842259,27.443369],[85.8422134,27.4433357],[85.8421678,27.4433143],[85.8421651,27.4432834],[85.8421651,27.4432476],[85.8421544,27.4432048],[85.842141,27.4431501],[85.8421598,27.4431143],[85.8422027,27.4431143],[85.8422268,27.4430953],[85.8421919,27.4430763],[85.8421463,27.443031],[85.8420873,27.4429787],[85.8420605,27.4429334],[85.8420444,27.4429049],[85.8420203,27.4428715],[85.8419935,27.4428263],[85.8419613,27.4427763],[85.8419559,27.4427097],[85.8419505,27.442643],[85.8419479,27.4425526],[85.8419076,27.4425145],[85.8418754,27.4424669],[85.8418298,27.4424788],[85.841803,27.4424359],[85.8417789,27.4423907],[85.841744,27.4423264],[85.8417091,27.4422241],[85.841693,27.4421622],[85.8417118,27.4421051],[85.8417226,27.4420598],[85.8417574,27.4420265],[85.8417091,27.4419932],[85.8417279,27.4419218],[85.841685,27.4419027],[85.8416072,27.4419051],[85.8415804,27.4418646],[85.8416179,27.441798],[85.8415804,27.4417789],[85.8415402,27.441798],[85.8415133,27.4417694],[85.8415294,27.4417409],[85.8415053,27.4417242],[85.8414651,27.4417432],[85.8414248,27.4417004],[85.841449,27.4416361],[85.841457,27.441598],[85.841398,27.4415909],[85.8413631,27.4416171],[85.8413444,27.4415885],[85.8413497,27.4415242],[85.8413175,27.4415195],[85.8412988,27.4414957],[85.8412988,27.4414624],[85.8412773,27.4414028],[85.8412505,27.4413957],[85.8412237,27.4413981],[85.8411995,27.4413743],[85.84117,27.4413362],[85.8411164,27.4412838],[85.8411164,27.4412315],[85.8411137,27.4412005],[85.8411405,27.4411696]]}},{"type":"Feature","properties":{"kind":"road","highway":"path","motorable":false,"name":null,"ref":null,"bridge":false,"osm_id":343684370},"geometry":{"type":"LineString","coordinates":[[85.8411405,27.4411696],[85.8411459,27.4411458],[85.8411191,27.4411172],[85.8410922,27.4410862],[85.8410842,27.4410505],[85.8411244,27.4409934],[85.8411486,27.4409601],[85.8411298,27.4409125],[85.8410761,27.4408744],[85.841052,27.4408363],[85.8410815,27.4407673],[85.841111,27.4407268],[85.8410842,27.4406792],[85.8410279,27.4406482],[85.8410413,27.4406078],[85.8410547,27.4405721],[85.8410976,27.440534],[85.841111,27.4405054],[85.8410386,27.4404673],[85.8409849,27.4404578],[85.8409286,27.4404197],[85.8409018,27.440384],[85.8409098,27.4403388],[85.8409018,27.4403007],[85.8408589,27.4402888],[85.8408401,27.4402531],[85.8408294,27.4401983],[85.8407865,27.4401769],[85.8407489,27.4401484],[85.8407114,27.4401341],[85.8406979,27.440096]]}},{"type":"Feature","properties":{"kind":"road","highway":"path","motorable":false,"name":null,"ref":null,"bridge":false,"osm_id":343684371},"geometry":{"type":"LineString","coordinates":[[85.8406979,27.440096],[85.840647,27.4401412],[85.840588,27.4401722],[85.8404968,27.4401769],[85.8403814,27.4401936],[85.8402903,27.4402174],[85.8402312,27.4402341],[85.8401696,27.4402555],[85.840132,27.4402317],[85.840022,27.4401722],[85.8399496,27.4401626],[85.8398557,27.4401674],[85.8397967,27.4401674],[85.8397484,27.4401698],[85.8397189,27.4401603],[85.8397055,27.4401055],[85.8397002,27.4400531],[85.8397002,27.4400031],[85.839676,27.4399532],[85.8395982,27.439896],[85.8395714,27.4398722],[85.8395231,27.4398318],[85.8394695,27.4398008],[85.8394293,27.4397722],[85.8394239,27.4397461],[85.8394212,27.4397008],[85.8393998,27.439658],[85.8393971,27.439627],[85.8393515,27.4396247],[85.8393139,27.4396009],[85.8392388,27.4395366],[85.839204,27.4395175],[85.8391879,27.4395009],[85.8391798,27.4394414],[85.8391664,27.439389],[85.8391101,27.4393866],[85.8390511,27.4394247],[85.8390082,27.4394652],[85.838976,27.4395271],[85.8389304,27.4395985],[85.8388848,27.4397508],[85.8388526,27.4397841],[85.8388097,27.4398222],[85.8387668,27.439877],[85.8387131,27.4399127],[85.8386219,27.4399341],[85.8385817,27.439946],[85.8385093,27.4399198],[85.8384208,27.4399198],[85.8383644,27.439877],[85.8383322,27.4398532],[85.8382142,27.4397794],[85.8382223,27.4397318],[85.8381928,27.4396961],[85.8381659,27.4396913],[85.8381257,27.4396818],[85.8380801,27.4396818],[85.8380104,27.4396961],[85.837954,27.4396937],[85.8379192,27.4396865],[85.8378387,27.4396961],[85.8378226,27.4396675],[85.8377609,27.4396651],[85.837718,27.4396746],[85.8376617,27.4396818],[85.8376054,27.4396508],[85.8375732,27.4396508],[85.8375598,27.4396223],[85.8375088,27.4396366],[85.8374954,27.4395985],[85.8374552,27.4396128],[85.8374444,27.4395604],[85.8374203,27.439539],[85.8373881,27.4395294],[85.8372889,27.439558],[85.8372808,27.4394937],[85.8372567,27.4394652],[85.8372325,27.4394533],[85.8372272,27.4394104],[85.8371896,27.4394366],[85.8371735,27.4393533],[85.8371494,27.4393152],[85.8371333,27.4392652],[85.8371279,27.4392081],[85.8371065,27.4391986],[85.8370877,27.4391367],[85.8370501,27.4390914],[85.8369885,27.4390557],[85.8369241,27.4390486],[85.8368781,27.4390272]]}},{"type":"Feature","properties":{"kind":"road","highway":"path","motorable":false,"name":null,"ref":null,"bridge":false,"osm_id":343684372},"geometry":{"type":"LineString","coordinates":[[85.8368781,27.4390272],[85.8367777,27.4389718],[85.8366865,27.4389147],[85.8365685,27.4389004],[85.836429,27.4388528],[85.8363486,27.4387861],[85.8362466,27.4387766],[85.8361501,27.4387147],[85.8361233,27.4386624],[85.8360052,27.4386481],[85.8359409,27.4386528],[85.8358979,27.4387338],[85.8357424,27.4387338],[85.8356351,27.4386909],[85.8354581,27.4386814],[85.8353293,27.4386814],[85.8351791,27.4386909],[85.8350986,27.4387004]]}},{"type":"Feature","properties":{"kind":"road","highway":"path","motorable":false,"name":null,"ref":null,"bridge":false,"osm_id":343684375},"geometry":{"type":"LineString","coordinates":[[85.8350986,27.4387004],[85.835089,27.4387347],[85.8350943,27.4387823],[85.8351292,27.4388347],[85.8351721,27.4388728],[85.8352123,27.4389442],[85.8352043,27.4390204],[85.8351587,27.4390347],[85.8350702,27.4390466],[85.8350353,27.4390966],[85.8350085,27.4391299],[85.834987,27.439187],[85.8349093,27.4392322],[85.8348368,27.4392346],[85.8348315,27.4392965],[85.8347081,27.4392632],[85.8347,27.4392918],[85.8346196,27.4392941],[85.8346249,27.4393322],[85.8345981,27.4393775],[85.8345525,27.4393465],[85.8345525,27.4394227],[85.8345123,27.439437],[85.8344077,27.4393798],[85.8343621,27.4393775],[85.8339459,27.4394439]]}},{"type":"Feature","properties":{"kind":"road","highway":"secondary","motorable":true,"name":"NH03","ref":"NH03","bridge":false,"osm_id":343684621},"geometry":{"type":"LineString","coordinates":[[85.8340965,27.438934],[85.8344032,27.4387136],[85.8345413,27.4383964],[85.8349868,27.4379398],[85.8351869,27.437667],[85.8355847,27.4373436],[85.8362443,27.437136],[85.8365972,27.4370563],[85.8367985,27.4370238],[85.8369916,27.4369876]]}},{"type":"Feature","properties":{"kind":"road","highway":"secondary","motorable":true,"name":"NH03","ref":"NH03","bridge":false,"osm_id":343684622},"geometry":{"type":"LineString","coordinates":[[85.8369916,27.4369876],[85.8372028,27.436867]]}},{"type":"Feature","properties":{"kind":"road","highway":"path","motorable":false,"name":null,"ref":null,"bridge":false,"osm_id":343685190},"geometry":{"type":"LineString","coordinates":[[85.8324173,27.4407657],[85.8324255,27.4408681],[85.8323396,27.440899],[85.832227,27.4409442],[85.8321009,27.4410061],[85.832007,27.4411276],[85.8318837,27.4412299],[85.8317307,27.4414108],[85.8316369,27.4415655],[85.8316771,27.4420916],[85.8315403,27.4423701],[85.831602,27.4425201],[85.8316074,27.44267],[85.8317629,27.4427938],[85.8318112,27.4429271],[85.8317656,27.4430414],[85.83183,27.4431509],[85.8317576,27.4433128],[85.8317334,27.4435056],[85.8316288,27.443696],[85.831653,27.4438007],[85.8315323,27.4441316],[85.8316235,27.4443506],[85.8315671,27.4445172],[85.8315966,27.4451194],[85.8314303,27.4454741],[85.8312479,27.4456836],[85.8312024,27.4458359],[85.8311916,27.4463286],[85.8313016,27.4462977],[85.8313123,27.4463929],[85.8313767,27.44645],[85.8314384,27.4464477],[85.8314625,27.446531],[85.831543,27.4465095],[85.8315671,27.446669],[85.8317794,27.4471365],[85.8318524,27.447216],[85.8321003,27.4471623],[85.832196,27.4471987],[85.8322006,27.447399],[85.8322689,27.4474475],[85.8323373,27.4476336],[85.8324171,27.447666],[85.8323875,27.447842],[85.8326507,27.448359],[85.8325595,27.4487137],[85.8325917,27.4489874],[85.8325569,27.4491731],[85.8321814,27.4498871],[85.8318729,27.4502942],[85.8315886,27.4504917],[85.8315644,27.4505488],[85.8316181,27.4506107],[85.8316851,27.4508392],[85.8316396,27.450913],[85.8316771,27.4511487],[85.8319131,27.45137],[85.8313418,27.4518603],[85.831205,27.4520912],[85.8309516,27.452077],[85.8308,27.4521626],[85.8307161,27.4522973],[85.8307001,27.4524075]]}},{"type":"Feature","properties":{"kind":"road","highway":"secondary","motorable":true,"name":"NH03","ref":"NH03","bridge":false,"osm_id":343785828},"geometry":{"type":"LineString","coordinates":[[85.8439218,27.4332921],[85.8441489,27.4332859],[85.8444375,27.4332745],[85.8450409,27.433159],[85.8454139,27.433009],[85.8455157,27.4328763],[85.845539,27.4327314],[85.8455793,27.4325299],[85.8457436,27.4323848],[85.8459529,27.4322258],[85.8460844,27.4321526],[85.8461579,27.4320658],[85.8462372,27.4320538],[85.8463582,27.4320736],[85.8464907,27.4321121],[85.8465988,27.4321225],[85.8466557,27.43208],[85.8466609,27.4320147],[85.8466946,27.431955],[85.8468208,27.4319087],[85.8470587,27.4318969],[85.8471947,27.4318664],[85.8472404,27.4317895],[85.8473007,27.4317491],[85.8476602,27.4317467],[85.8477754,27.4317759],[85.8478264,27.4317681],[85.8478707,27.4316134],[85.8480624,27.4314272],[85.8482395,27.4313467],[85.848316,27.4312825],[85.8483575,27.4311986],[85.8484178,27.4309296],[85.8486485,27.4306706],[85.8486995,27.4303784],[85.8488389,27.4300928],[85.8490777,27.4298404],[85.8491863,27.4295982],[85.849303,27.4294863],[85.849311,27.4293595],[85.8492936,27.4292672],[85.8493004,27.4291753],[85.8493594,27.4290623],[85.8494277,27.4288952],[85.8494626,27.4288363],[85.8495625,27.4287924],[85.8497134,27.4287518],[85.8497842,27.4287145],[85.8498099,27.4286828],[85.8497769,27.4286074],[85.8497352,27.4285568],[85.849699,27.4285009],[85.8495873,27.4283406],[85.8494049,27.4281738],[85.8493808,27.4281281],[85.8493963,27.4280661],[85.8494781,27.4279858],[85.8496007,27.4279079],[85.8499373,27.4277359],[85.8500469,27.427614],[85.8501157,27.4274073],[85.8502444,27.427036],[85.8502862,27.4268918],[85.8503385,27.426815],[85.8504129,27.4267811],[85.8504531,27.426749],[85.8504571,27.4267008],[85.8504471,27.4266384],[85.850445,27.4265884],[85.8504933,27.4265188],[85.850626,27.426385],[85.8507707,27.4262905],[85.8509456,27.4262119],[85.8514246,27.4260075],[85.851767,27.4258054],[85.8519006,27.4256679],[85.8520101,27.4256174],[85.8521835,27.4255872],[85.8523697,27.425567],[85.8525431,27.4256338],[85.8528159,27.4257602],[85.8532324,27.4259326],[85.854257,27.4261408],[85.8548149,27.426217],[85.8553513,27.4262551],[85.8558878,27.4264185],[85.8564763,27.426578],[85.8569101,27.426525],[85.8572703,27.4263822],[85.857544,27.4263475],[85.8579763,27.4263452],[85.8583248,27.4263081],[85.8588308,27.426234],[85.8591801,27.4261339],[85.859469,27.4260866],[85.8597711,27.4259428],[85.860077,27.4257834],[85.86033,27.4255902],[85.8605697,27.4255558],[85.860756,27.4255224],[85.8608486,27.4254688],[85.8608644,27.4253829],[85.860917,27.4252879],[85.8610226,27.4252203],[85.8613477,27.4250858],[85.8614333,27.4250188],[85.8614604,27.4249221],[85.8614534,27.4247403],[85.861492,27.424652],[85.861507,27.4244755],[85.8614923,27.424307],[85.8614923,27.4242427],[85.8614963,27.4242118],[85.8615513,27.4241981],[85.8616717,27.4242425]]}},{"type":"Feature","properties":{"kind":"road","highway":"track","motorable":true,"name":null,"ref":null,"bridge":false,"osm_id":343785830},"geometry":{"type":"LineString","coordinates":[[85.8419417,27.4283792],[85.8419398,27.4284753],[85.8419823,27.4286768],[85.841972,27.4288245],[85.8419675,27.4290603],[85.8419195,27.4291708],[85.8417199,27.4292454],[85.8411035,27.4294626],[85.8406128,27.4295465],[85.839924,27.4295971],[85.8393638,27.4294685],[85.8389746,27.4294349],[85.8385596,27.4295321],[85.8382343,27.429824],[85.8380337,27.4300381],[85.8377673,27.4301837],[85.8373661,27.4304993],[85.8371017,27.430649],[85.8369057,27.4307634],[85.8367929,27.4307749],[85.8366769,27.4307405],[85.8365479,27.4306947],[85.8363803,27.4306976],[85.8362578,27.4307491],[85.8360773,27.4309265],[85.8359032,27.4310009],[85.8355583,27.4310324],[85.8345622,27.4310781],[85.8335564,27.4313156],[85.832786,27.4316475],[85.8325152,27.4317877],[85.8321542,27.4319079],[85.8320059,27.4320194],[85.830926,27.4329693],[85.8307326,27.433161],[85.8306294,27.4334986],[85.8305714,27.4338391],[85.8306906,27.4343999],[85.8306423,27.4345515],[85.8303618,27.4348576],[85.8298138,27.4353641],[85.8292626,27.4358676],[85.8291086,27.4359652]]}},{"type":"Feature","properties":{"kind":"road","highway":"track","motorable":true,"name":null,"ref":null,"bridge":false,"osm_id":343785831},"geometry":{"type":"LineString","coordinates":[[85.8298138,27.4353641],[85.8299847,27.4353841],[85.8300975,27.4354556],[85.8302232,27.435653],[85.8302168,27.4358962],[85.8301169,27.4360908],[85.8299524,27.4362681],[85.8298138,27.4365685]]}},{"type":"Feature","properties":{"kind":"road","highway":"track","motorable":true,"name":null,"ref":null,"bridge":false,"osm_id":343786433},"geometry":{"type":"LineString","coordinates":[[85.8309155,27.440095],[85.8310073,27.4401136],[85.8311399,27.4401723],[85.8314034,27.4403115],[85.8315435,27.4403669],[85.8317384,27.4403926],[85.8318846,27.4403791],[85.8320476,27.4402967],[85.8322623,27.440225],[85.8324804,27.4402311]]}},{"type":"Feature","properties":{"kind":"road","highway":"path","motorable":false,"name":null,"ref":null,"bridge":false,"osm_id":343786434},"geometry":{"type":"LineString","coordinates":[[85.8428476,27.4332683],[85.8427733,27.4332006],[85.8426792,27.4330728],[85.8426333,27.4330382]]}},{"type":"Feature","properties":{"kind":"road","highway":"track","motorable":true,"name":null,"ref":null,"bridge":false,"osm_id":343807352},"geometry":{"type":"LineString","coordinates":[[85.8444834,27.4263592],[85.8442381,27.4265923],[85.844,27.4268354],[85.8436261,27.4271062],[85.8433016,27.4272185],[85.8430563,27.4273507],[85.842951,27.4274124],[85.8427745,27.4275114],[85.8426085,27.4277069],[85.8423606,27.4278748],[85.8421768,27.42806],[85.8419681,27.4282817],[85.8419859,27.4283495]]}},{"type":"Feature","properties":{"kind":"road","highway":"track","motorable":true,"name":null,"ref":null,"bridge":false,"osm_id":343807353},"geometry":{"type":"LineString","coordinates":[[85.8427745,27.4275114],[85.84253,27.4276895],[85.8423944,27.4277814],[85.842266,27.4278684],[85.8420555,27.4279777],[85.8418182,27.4280284],[85.841672,27.42822],[85.8416381,27.4283561],[85.8414757,27.428364],[85.8411261,27.4283419],[85.8404767,27.4283941],[85.8398506,27.4284765],[85.8396883,27.4285303]]}},{"type":"Feature","properties":{"kind":"road","highway":"path","motorable":false,"name":null,"ref":null,"bridge":false,"osm_id":343807354},"geometry":{"type":"LineString","coordinates":[[85.835504,27.4253258],[85.835453,27.4252569],[85.8354138,27.425222],[85.8353906,27.4251603],[85.8352978,27.4251144],[85.8352158,27.4250241],[85.8351052,27.4249164],[85.8350285,27.4249196],[85.8349678,27.4248784],[85.8348875,27.4248056],[85.8348198,27.4247787],[85.8347002,27.4247486],[85.8346503,27.4247058]]}},{"type":"Feature","properties":{"kind":"road","highway":"path","motorable":false,"name":null,"ref":null,"bridge":false,"osm_id":343807357},"geometry":{"type":"LineString","coordinates":[[85.8310934,27.4245749],[85.8311949,27.4247051],[85.831334,27.4247621],[85.8314517,27.4249473],[85.8315302,27.425017],[85.8315338,27.4250724],[85.8317318,27.4252672],[85.831753,27.4252747],[85.8318781,27.4253194],[85.8319869,27.4255126],[85.8321385,27.4256314],[85.8323954,27.4255807],[85.8324793,27.4256757],[85.8325124,27.4257854]]}},{"type":"Feature","properties":{"kind":"road","highway":"track","motorable":true,"name":null,"ref":null,"bridge":false,"osm_id":343807362},"geometry":{"type":"LineString","coordinates":[[85.8315186,27.4276911],[85.8316658,27.4276391],[85.8318906,27.4274918],[85.8322099,27.4274412],[85.8323687,27.4274317],[85.8327647,27.4271973],[85.8328307,27.4270707],[85.8331643,27.4269915],[85.8332553,27.4268601],[85.833621,27.4267445],[85.8341508,27.4266416],[85.8343417,27.4265414],[85.8345611,27.4264262],[85.8346413,27.4263925],[85.8349268,27.4262726],[85.8350543,27.4262512]]}},{"type":"Feature","properties":{"kind":"road","highway":"path","motorable":false,"name":null,"ref":null,"bridge":false,"osm_id":343807364},"geometry":{"type":"LineString","coordinates":[[85.8325114,27.4239331],[85.8324186,27.4239949],[85.8322438,27.424025],[85.8322117,27.4240503],[85.8321261,27.4240424],[85.8320101,27.4240725],[85.831953,27.4240677],[85.8318513,27.4240994],[85.8318103,27.4240804],[85.8314803,27.4241706],[85.8314125,27.4243322],[85.8310934,27.4245749],[85.8310379,27.4246172],[85.8309059,27.4248784],[85.8307649,27.4251999],[85.8307846,27.4254406],[85.8306347,27.4257525],[85.8304288,27.4259863],[85.8300254,27.4262646],[85.8295906,27.4265132],[85.8293127,27.4266319],[85.8290075,27.4267191],[85.8287081,27.4266558]]}},{"type":"Feature","properties":{"kind":"road","highway":"path","motorable":false,"name":null,"ref":null,"bridge":false,"osm_id":343807370},"geometry":{"type":"LineString","coordinates":[[85.8283995,27.4252632],[85.8284601,27.425089],[85.828478,27.4249244],[85.8285029,27.4248104],[85.828585,27.4247233],[85.8285761,27.4246726],[85.8286706,27.4245523],[85.8287134,27.4244082],[85.8287331,27.4243353],[85.8287991,27.4242641],[85.82894,27.4242767],[85.8290328,27.4243021],[85.8290988,27.4242783],[85.8291487,27.4242245],[85.829245,27.4242308],[85.8293396,27.4242546],[85.8295965,27.4242767],[85.8298551,27.4242324]]}},{"type":"Feature","properties":{"kind":"road","highway":"path","motorable":false,"name":null,"ref":null,"bridge":false,"osm_id":343807372},"geometry":{"type":"LineString","coordinates":[[85.8413491,27.4266057],[85.8413187,27.4265107],[85.8413741,27.4261956],[85.8414115,27.4261212],[85.8417986,27.4259929],[85.8418628,27.4257111],[85.8419984,27.4256936],[85.842093,27.4254704],[85.8421768,27.4251062],[85.8427138,27.4250571],[85.8428172,27.4250247],[85.8428957,27.4249312],[85.8429724,27.4247745],[85.843149,27.4246858],[85.8432347,27.424491],[85.8433685,27.4244388],[85.8434559,27.424404],[85.8435522,27.4243675],[85.8436485,27.4242979]]}},{"type":"Feature","properties":{"kind":"road","highway":"track","motorable":true,"name":null,"ref":null,"bridge":false,"osm_id":343807374},"geometry":{"type":"LineString","coordinates":[[85.8444834,27.4263592],[85.8446955,27.4259859]]}},{"type":"Feature","properties":{"kind":"road","highway":"path","motorable":false,"name":null,"ref":null,"bridge":false,"osm_id":343807375},"geometry":{"type":"LineString","coordinates":[[85.8346413,27.4263925],[85.8345673,27.4262972],[85.8344157,27.4262196],[85.8342766,27.4261737],[85.8340232,27.4261468],[85.8339251,27.4260945],[85.8338163,27.4260818],[85.8334167,27.4260502],[85.8331919,27.4260834],[85.8330189,27.4261594],[85.8329119,27.4261705],[85.8328227,27.4262861],[85.8327174,27.4262497],[85.8326282,27.4261578],[85.8325533,27.4260533],[85.8324605,27.4259837],[85.832407,27.4259979],[85.8323749,27.4259789],[85.8323473,27.4259164],[85.8322525,27.4258831]]}},{"type":"Feature","properties":{"kind":"road","highway":"path","motorable":false,"name":null,"ref":null,"bridge":false,"osm_id":343807379},"geometry":{"type":"LineString","coordinates":[[85.8280558,27.4238212],[85.8280124,27.4238856],[85.8280463,27.4239552],[85.8280195,27.4240692],[85.8280211,27.4241208],[85.8280231,27.4241848],[85.8280338,27.4242403],[85.8279642,27.4243163],[85.8279535,27.4244097],[85.8279767,27.4244509],[85.82795,27.4245633],[85.8279714,27.4246836],[85.8279625,27.4247707],[85.8279072,27.4249172],[85.8279357,27.4250771],[85.8280338,27.4253178],[85.8281533,27.4254381],[85.8283264,27.4256392],[85.828437,27.4257928],[85.8284316,27.4259068],[85.8283567,27.4260715],[85.8284013,27.4262393],[85.8285565,27.4264119],[85.8285922,27.4265513],[85.8287081,27.4266558]]}},{"type":"Feature","properties":{"kind":"road","highway":"path","motorable":false,"name":null,"ref":null,"bridge":false,"osm_id":343807381},"geometry":{"type":"LineString","coordinates":[[85.8427138,27.4250571],[85.8427923,27.4249122],[85.8428208,27.424841],[85.8429778,27.4246684],[85.8430759,27.4244784],[85.8430741,27.424244],[85.8431847,27.4239432],[85.843438,27.4237357],[85.8435932,27.4236502],[85.8436735,27.4234745],[85.8438198,27.4233494],[85.8438323,27.4231879],[85.8438965,27.4229583],[85.8439714,27.4228569],[85.8439607,27.4228316],[85.8439875,27.4228142],[85.8440892,27.4226907],[85.8441177,27.4224872],[85.8441445,27.4223835],[85.8444245,27.4222631],[85.8446279,27.42207],[85.8448491,27.4220715],[85.8451006,27.4218974],[85.8452219,27.4218451],[85.8452576,27.4216662],[85.8453236,27.4215743]]}},{"type":"Feature","properties":{"kind":"road","highway":"track","motorable":true,"name":null,"ref":null,"bridge":false,"osm_id":343807397},"geometry":{"type":"LineString","coordinates":[[85.8366672,27.425369],[85.8368545,27.4252582],[85.8370543,27.4252899],[85.8371935,27.4252028],[85.837379,27.425168],[85.837486,27.425092],[85.8375895,27.4250666],[85.8377376,27.4250904],[85.8381871,27.4250555],[85.8383833,27.4249384],[85.8388311,27.4248307],[85.8389881,27.4247673],[85.8392128,27.4245409],[85.8395054,27.4244966],[85.8396338,27.4243826],[85.8398336,27.4242385],[85.8399425,27.4239582],[85.8400192,27.4238822],[85.8402386,27.4237603],[85.8403492,27.4235972],[85.840499,27.4235861],[85.8406257,27.4235861],[85.840797,27.4235402],[85.8408487,27.4234658],[85.8409165,27.4233525],[85.8411466,27.4232417],[85.8413232,27.4231499],[85.8414472,27.4230659],[85.8416095,27.4229504],[85.8417273,27.4227461],[85.8419431,27.4225165],[85.8422731,27.4222806],[85.8421982,27.4222251],[85.8421055,27.422222],[85.8421275,27.4221073]]}},{"type":"Feature","properties":{"kind":"road","highway":"path","motorable":false,"name":null,"ref":null,"bridge":false,"osm_id":343807401},"geometry":{"type":"LineString","coordinates":[[85.8280211,27.4241208],[85.8278697,27.4242711],[85.8278037,27.4243012],[85.8277573,27.4244041],[85.8276039,27.424496],[85.8274933,27.4245894],[85.8274166,27.4246654],[85.8274487,27.4248063],[85.827529,27.4249916],[85.827636,27.4250533],[85.8276699,27.4251563],[85.8278108,27.4253178],[85.8278519,27.4254207],[85.8276021,27.4255395],[85.8275753,27.4256028],[85.82757,27.4257714],[85.8274701,27.4258078],[85.827438,27.4259171],[85.8270937,27.4261404],[85.8270812,27.4263304],[85.8270045,27.4264808],[85.8270509,27.4265552],[85.8270009,27.4266502],[85.8270509,27.4267721],[85.8269991,27.4268276],[85.8269938,27.4268719],[85.8270812,27.4269637],[85.8272328,27.4270603],[85.8273559,27.4270619],[85.827397,27.4273089],[85.8274719,27.427244],[85.8275932,27.4272487],[85.8276485,27.4273152],[85.8277323,27.4273232],[85.8277502,27.4274308],[85.8277466,27.4276113],[85.8276645,27.4277538],[85.8275254,27.4278868],[85.8275896,27.427985],[85.827608,27.4280443]]}},{"type":"Feature","properties":{"kind":"road","highway":"path","motorable":false,"name":null,"ref":null,"bridge":false,"osm_id":343807403},"geometry":{"type":"LineString","coordinates":[[85.8352176,27.4229676],[85.8351962,27.4231382],[85.8349964,27.4232142],[85.8347395,27.4232222],[85.8347163,27.4232808],[85.8346414,27.4234225],[85.8343934,27.4236584],[85.8343756,27.4237091],[85.8343363,27.4237392],[85.8341062,27.423793],[85.8339653,27.4238706],[85.8339813,27.4239387],[85.8338172,27.4239973],[85.8337084,27.4240669],[85.8334693,27.4241572],[85.8333266,27.4241904],[85.8332018,27.4241825],[85.8330073,27.4242063],[85.8327593,27.4243432],[85.832531,27.4245364],[85.832292,27.424633],[85.8321903,27.4246425],[85.8321653,27.4247122],[85.8321171,27.4246963],[85.8320975,27.4247438],[85.832069,27.4247328],[85.8320369,27.4249149],[85.8319833,27.4249275],[85.8319798,27.4249719],[85.8318995,27.4250035],[85.831805,27.4251302],[85.831753,27.4252747],[85.8316819,27.4253978],[85.8315641,27.4255641],[85.8315195,27.4257192],[85.8315962,27.4259172],[85.831532,27.4259789],[85.8314393,27.4259979],[85.831359,27.4260438],[85.8312841,27.4261293]]}},{"type":"Feature","properties":{"kind":"road","highway":"path","motorable":false,"name":null,"ref":null,"bridge":false,"osm_id":343807406},"geometry":{"type":"LineString","coordinates":[[85.8446955,27.4259859],[85.8446955,27.4259042],[85.8447551,27.4258073],[85.8447551,27.4257621],[85.8447773,27.4257378],[85.8448608,27.4253905],[85.8448934,27.4253349],[85.8449729,27.4252793],[85.8449755,27.4251496],[85.8449742,27.4250466],[85.8450069,27.4249864],[85.8449677,27.4247907],[85.8450173,27.4246379],[85.8450564,27.4245985],[85.8450642,27.4245035],[85.8451451,27.424441],[85.8451814,27.4242465],[85.8451748,27.4240301],[85.8452785,27.4239461],[85.845344,27.4236732],[85.845444,27.4235052],[85.8455113,27.4233776],[85.8455459,27.4233227],[85.8455459,27.4232711],[85.8455841,27.4232065],[85.845666,27.423108],[85.8457606,27.4230676],[85.8458206,27.4229755],[85.8458952,27.4228383],[85.8459698,27.4227704],[85.8461445,27.4227301],[85.8463282,27.4226412],[85.8464119,27.4225266],[85.846492,27.4224426],[85.8465302,27.4221568],[85.8466794,27.422005],[85.8468195,27.4217692],[85.8469122,27.4216545],[85.8470287,27.4213768],[85.8473471,27.4209537],[85.8473925,27.4208648],[85.8475072,27.4208018],[85.8481112,27.4205709],[85.848375,27.420537],[85.8485478,27.4204239],[85.8486461,27.4203222],[85.8486934,27.4202237],[85.8485369,27.4201882],[85.8484361,27.4199883]]}},{"type":"Feature","properties":{"kind":"road","highway":"track","motorable":true,"name":null,"ref":null,"bridge":false,"osm_id":343807407},"geometry":{"type":"LineString","coordinates":[[85.8353132,27.426289],[85.8353275,27.4263935],[85.835447,27.4263698],[85.8358395,27.4261893],[85.8361677,27.4260452]]}},{"type":"Feature","properties":{"kind":"road","highway":"track","motorable":true,"name":null,"ref":null,"bridge":false,"osm_id":343807411},"geometry":{"type":"LineString","coordinates":[[85.8446955,27.4259859],[85.8448063,27.4259122],[85.8449098,27.4258472],[85.8450204,27.4256271],[85.8452398,27.4254498],[85.8454967,27.4251759],[85.8455739,27.4251282]]}},{"type":"Feature","properties":{"kind":"road","highway":"path","motorable":false,"name":null,"ref":null,"bridge":false,"osm_id":343807412},"geometry":{"type":"LineString","coordinates":[[85.8276871,27.4281186],[85.8279678,27.42789],[85.8280517,27.4277238],[85.8281194,27.4275353],[85.8283085,27.427491],[85.8284298,27.4273659],[85.8286171,27.427168]]}},{"type":"Feature","properties":{"kind":"road","highway":"path","motorable":false,"name":null,"ref":null,"bridge":false,"osm_id":343807413},"geometry":{"type":"LineString","coordinates":[[85.8302547,27.4228121],[85.830203,27.4228279],[85.8301459,27.4227835],[85.8301281,27.4229213],[85.8300924,27.42301],[85.8301352,27.4230797],[85.830112,27.4231351],[85.8301352,27.4232],[85.8300175,27.4232538],[85.829955,27.4233647],[85.8299889,27.4234312],[85.8299711,27.4235119],[85.8299554,27.4235444],[85.8299443,27.4235674],[85.8299925,27.4236117],[85.829889,27.4236592],[85.8299354,27.4236798],[85.8298551,27.4236988],[85.8298284,27.4238128],[85.8298605,27.423816],[85.8298623,27.4239252],[85.829823,27.4239949],[85.8298016,27.4241754],[85.8298551,27.4242324],[85.8299301,27.4242324],[85.8300924,27.4242371],[85.8301245,27.4242672],[85.8302779,27.4242593],[85.8303172,27.4242831],[85.8304617,27.4242641],[85.830599,27.4242894],[85.8306222,27.4243337],[85.8309094,27.424272],[85.8309522,27.4243005],[85.8310111,27.4242815],[85.8311092,27.4243401],[85.8312841,27.4241976],[85.8313501,27.4241596],[85.8313394,27.424139],[85.8316069,27.4238761],[85.8318139,27.4239141],[85.8322795,27.4239189],[85.8323562,27.4239284],[85.8324454,27.4239015],[85.8325114,27.4239331],[85.8327593,27.4238223],[85.8329449,27.4237898],[85.8330287,27.4237376],[85.8334836,27.4237471],[85.8337084,27.4240669],[85.8337976,27.4242063],[85.8338814,27.4242617],[85.8340009,27.424287],[85.8339831,27.424382],[85.8340384,27.4244232],[85.8340206,27.4245055],[85.8341276,27.4246639],[85.8341205,27.4247383],[85.8342186,27.4248602],[85.8341633,27.4249331],[85.8341918,27.4250233],[85.8341847,27.4250882],[85.8341133,27.4251864],[85.8341704,27.4252751],[85.8341383,27.4252988],[85.8341811,27.4253226],[85.8341365,27.4253764],[85.83419,27.4254113],[85.834199,27.4255205],[85.8343631,27.4255601],[85.8344309,27.4256757],[85.8343349,27.4257463]]}},{"type":"Feature","properties":{"kind":"road","highway":"path","motorable":false,"name":null,"ref":null,"bridge":false,"osm_id":343807415},"geometry":{"type":"LineString","coordinates":[[85.8343417,27.4265414],[85.8341642,27.4265901],[85.8339786,27.4265774],[85.8338003,27.4264935],[85.8337164,27.4265347],[85.8335487,27.4264856],[85.8334899,27.4265094],[85.8333917,27.4264777]]}},{"type":"Feature","properties":{"kind":"road","highway":"track","motorable":true,"name":null,"ref":null,"bridge":false,"osm_id":343807416},"geometry":{"type":"LineString","coordinates":[[85.8370543,27.4252899],[85.836735,27.4254593],[85.8364175,27.425719],[85.8362962,27.425776],[85.8359519,27.4259913],[85.8355772,27.4262051],[85.8353132,27.426289],[85.8350543,27.4262512]]}},{"type":"Feature","properties":{"kind":"road","highway":"track","motorable":true,"name":null,"ref":null,"bridge":false,"osm_id":343807418},"geometry":{"type":"LineString","coordinates":[[85.8313424,27.4277045],[85.831175,27.4276545],[85.8309538,27.4276134],[85.8307148,27.4276862],[85.8304793,27.4276419],[85.8302189,27.4274772],[85.8300316,27.4273616],[85.8298781,27.4273046]]}},{"type":"Feature","properties":{"kind":"road","highway":"path","motorable":false,"name":null,"ref":null,"bridge":false,"osm_id":343807419},"geometry":{"type":"LineString","coordinates":[[85.8277323,27.4273232],[85.827793,27.4272519],[85.8278733,27.4271965],[85.8280213,27.4271981],[85.8282871,27.4271997],[85.828346,27.4272408],[85.8284209,27.4271902],[85.8284816,27.4271807],[85.8286171,27.427168]]}},{"type":"Feature","properties":{"kind":"road","highway":"tertiary","motorable":true,"name":"21DR004","ref":"21DR004","bridge":false,"osm_id":345320806},"geometry":{"type":"LineString","coordinates":[[85.8398643,27.4487674],[85.8398851,27.4487305],[85.8399287,27.4486758],[85.8403723,27.4484057],[85.8406395,27.4482206],[85.8409184,27.4479897],[85.8409721,27.4478885],[85.8409627,27.4478016],[85.8409332,27.4476671],[85.8409291,27.447585],[85.8409922,27.4474672],[85.84131,27.4471006],[85.8413436,27.4470197],[85.8413382,27.4469447],[85.8412859,27.4468686],[85.8412041,27.4467829],[85.8410847,27.4466246],[85.841078,27.4464925],[85.8411089,27.446358],[85.841251,27.4461509],[85.841247,27.4461033],[85.8411933,27.4460771],[85.8411008,27.4460878],[85.8409251,27.4462009],[85.8406385,27.4465396],[85.8405646,27.4466203],[85.8402653,27.4468067],[85.8401366,27.4469174],[85.8400193,27.4469785],[85.8398862,27.4469916],[85.8397826,27.4470122],[85.8396241,27.4470554],[85.8395396,27.4470985],[85.8394097,27.4471863],[85.8392715,27.4473137],[85.8385231,27.4478937],[85.8385062,27.4479518],[85.8385219,27.4480551],[85.8385694,27.4482118],[85.8385588,27.4482736],[85.8385123,27.4483393],[85.8384616,27.4483805],[85.837968,27.4486002],[85.8375818,27.448743],[85.8372813,27.448862],[85.8367905,27.4492595],[85.8365491,27.4495047],[85.836179,27.4499843],[85.8361159,27.4500902],[85.8360837,27.450189],[85.8360556,27.4503937],[85.8360006,27.4505127],[85.835896,27.4505889],[85.8355862,27.4506782],[85.8353059,27.4507412],[85.8352026,27.4508091],[85.8348915,27.4510721],[85.8348016,27.4512744],[85.8347802,27.4515124],[85.8347833,27.4518703],[85.8347641,27.451942],[85.8347232,27.4519664],[85.8346789,27.4519676],[85.834634,27.451942],[85.8346079,27.4518706],[85.8345455,27.4511851],[85.8346099,27.450577],[85.834634,27.4504675],[85.8346756,27.4504009],[85.8347601,27.4503723],[85.8349237,27.4503306],[85.834984,27.4502866],[85.8350202,27.4502176],[85.8351557,27.4500022],[85.8352455,27.4497606],[85.8353287,27.449563],[85.8356385,27.4491679],[85.8356895,27.4490572],[85.8357404,27.4488037],[85.8358021,27.4487037],[85.8359577,27.4485145],[85.8359939,27.448436],[85.8360355,27.4482479],[85.8360435,27.4481253],[85.8360381,27.4480551],[85.8359899,27.4479599],[85.8357002,27.4476683],[85.8355969,27.447397],[85.8356043,27.4470406],[85.8355916,27.4469206],[85.8355663,27.4468606],[85.8355113,27.4468024],[85.8353148,27.4466336],[85.8352007,27.446523],[85.8351626,27.4464536],[85.8351605,27.4463711],[85.8351732,27.4462642],[85.8353323,27.4460104],[85.8354633,27.4457572],[85.8355711,27.445444],[85.8356134,27.445264],[85.8356578,27.4451983],[85.8357465,27.4451214],[85.8360235,27.4450837],[85.8361101,27.4450443],[85.8361355,27.4450124],[85.8361651,27.4449411],[85.8362031,27.4448774],[85.836256,27.4448436],[85.8363962,27.4448191],[85.8365437,27.4447763],[85.8366497,27.4446929],[85.8367154,27.4445942],[85.8367248,27.4444799],[85.836702,27.4444121],[85.8366698,27.444349],[85.8366081,27.4442966],[85.8365343,27.4442252],[85.8364405,27.4441217],[85.8364204,27.444055],[85.8364311,27.44398],[85.8364633,27.4439324],[85.8365196,27.4438991],[85.8366114,27.4438369],[85.8366557,27.4437994],[85.8366811,27.44376],[85.8366938,27.4437037],[85.8367213,27.4436568],[85.8367551,27.4436118],[85.8368502,27.4435499],[85.8369601,27.4434374],[85.836997,27.4432885],[85.8370413,27.4432088],[85.8370909,27.4431743],[85.8371834,27.4431588],[85.8373216,27.4431659],[85.8375303,27.4431815],[85.8375874,27.4431665],[85.8376212,27.4431347],[85.8376381,27.4430896],[85.8376275,27.442994],[85.8375874,27.442934],[85.8375113,27.4428796],[85.8371515,27.4427222],[85.8369918,27.4425822],[85.836865,27.4425353],[85.8367614,27.4425315],[85.8365966,27.4425653],[85.8364951,27.4426047],[85.8363261,27.4426122],[85.8359436,27.4426422],[85.8358337,27.4426834],[85.8357724,27.4427641],[85.8356425,27.4428851],[85.835157,27.4431302],[85.8346139,27.4435112],[85.8345883,27.4435125],[85.8345407,27.4434966],[85.8345315,27.4434819],[85.8345315,27.4434478],[85.834592,27.4433486],[85.8347704,27.4430773],[85.8350013,27.4427098],[85.8350551,27.4426208],[85.8350994,27.4425399],[85.8351203,27.4424667],[85.8350965,27.4424407],[85.8350488,27.4424325],[85.83498,27.4424423],[85.8349017,27.4424724],[85.8345535,27.4426268],[85.834382,27.4427131],[85.83382,27.4431862],[85.8335906,27.4433463],[85.8335028,27.443379],[85.8333727,27.4433866],[85.8333123,27.4434077],[85.8332848,27.4434581],[85.8333049,27.4435183],[85.8333836,27.4436194],[85.8334019,27.4436877],[85.8333506,27.4437413],[85.8330794,27.4438584],[85.832953,27.4438779],[85.8328339,27.44386],[85.8327533,27.4438161],[85.8327276,27.4437706],[85.8327405,27.4437186],[85.8327899,27.4436617],[85.8328229,27.443608],[85.8328376,27.4435511],[85.8328174,27.4434812],[85.832746,27.4434145],[85.8326489,27.4433608],[85.8325921,27.4433153],[85.8325792,27.4432552],[85.8325792,27.4430763],[85.832528,27.4427421],[85.8325482,27.4426738],[85.8325995,27.4426201],[85.8326801,27.4425697],[85.8329016,27.442474],[85.832995,27.442422],[85.8331343,27.442261],[85.8332552,27.4421456],[85.8333854,27.4420126],[85.8334659,27.4419365],[85.8335544,27.4418651],[85.8336364,27.4418069],[85.8336904,27.441774],[85.8337179,27.4417317],[85.8336886,27.4416927],[85.8336354,27.4416878],[85.833476,27.4417008],[85.8332727,27.4417447],[85.8330059,27.4418686],[85.8327726,27.4419281],[85.8322913,27.4420294],[85.8322669,27.4420456],[85.8322028,27.4420619],[85.8321515,27.4420505],[85.8321478,27.4420099],[85.8321588,27.4419692],[85.8322218,27.4419264],[85.8325204,27.4417794],[85.8326331,27.4416925],[85.8327135,27.4415854],[85.8327807,27.4414789],[85.8328222,27.4413176],[85.8328772,27.4412045],[85.8329621,27.4411342],[85.8330833,27.4410218],[85.8332299,27.4409688],[85.833313,27.4409498],[85.8334216,27.4409569],[85.8335946,27.4410307],[85.8336617,27.4410319],[85.8336872,27.4409903],[85.8336912,27.4409343],[85.8336443,27.4407546],[85.8336456,27.4406713],[85.8336899,27.4406082],[85.8338709,27.4404463],[85.8339071,27.4403928],[85.8339313,27.4402059],[85.8339594,27.4401571],[85.8340332,27.4401012],[85.8343014,27.4399833],[85.8343524,27.4399387],[85.8343779,27.4398572],[85.8343859,27.4397929],[85.8343591,27.4397239],[85.8343202,27.4396822],[85.8342531,27.4396406],[85.8341673,27.4396191],[85.8340305,27.4396334],[85.8338673,27.4396851]]}},{"type":"Feature","properties":{"kind":"road","highway":"path","motorable":false,"name":null,"ref":null,"bridge":false,"osm_id":896836610},"geometry":{"type":"LineString","coordinates":[[85.8385596,27.4295321],[85.8378741,27.4294732],[85.8372465,27.4294446],[85.8365223,27.4295422],[85.8357283,27.4298874],[85.8351865,27.4301826],[85.8346018,27.430504]]}},{"type":"Feature","properties":{"kind":"road","highway":"unclassified","motorable":true,"name":null,"ref":null,"bridge":false,"osm_id":896836616},"geometry":{"type":"LineString","coordinates":[[85.8317667,27.4351985],[85.8322871,27.4351557],[85.8326894,27.4349891],[85.8329362,27.4349938],[85.8333385,27.4349034],[85.8339715,27.4347081],[85.8344489,27.4345463],[85.8347386,27.4344891],[85.8349585,27.4346701],[85.8359295,27.434432],[85.8364767,27.4343035]]}},{"type":"Feature","properties":{"kind":"road","highway":"path","motorable":false,"name":null,"ref":null,"bridge":false,"osm_id":896836617},"geometry":{"type":"LineString","coordinates":[[85.8348566,27.4334226],[85.8346313,27.4338345],[85.8344516,27.4341463],[85.8344489,27.4345463]]}},{"type":"Feature","properties":{"kind":"road","highway":"unclassified","motorable":true,"name":null,"ref":null,"bridge":false,"osm_id":896836618},"geometry":{"type":"LineString","coordinates":[[85.8367929,27.4307749],[85.8365759,27.4310206],[85.8363265,27.4313634],[85.8359134,27.4315443],[85.8355674,27.4323657],[85.8352938,27.4327346],[85.8349505,27.4331132],[85.8348566,27.4334226],[85.8345026,27.4335607],[85.8342022,27.4336797],[85.8336389,27.4335179],[85.8330595,27.4333941],[85.8325124,27.4336321],[85.832212,27.4338273],[85.8317023,27.4340702]]}},{"type":"Feature","properties":{"kind":"road","highway":"path","motorable":false,"name":null,"ref":null,"bridge":false,"osm_id":903271542},"geometry":{"type":"LineString","coordinates":[[85.8424794,27.4336503],[85.8427154,27.4339075],[85.8429841,27.4340961]]}},{"type":"Feature","properties":{"kind":"road","highway":"track","motorable":true,"name":null,"ref":null,"bridge":false,"osm_id":903271543},"geometry":{"type":"LineString","coordinates":[[85.8414387,27.4342837],[85.841369,27.4344837],[85.84131,27.4346409],[85.8412468,27.4348336],[85.8412182,27.4348908],[85.8411538,27.4349527]]}},{"type":"Feature","properties":{"kind":"road","highway":"secondary","motorable":true,"name":"NH03","ref":"NH03","bridge":false,"osm_id":1064315535},"geometry":{"type":"LineString","coordinates":[[85.8338673,27.4396851],[85.8338135,27.4397811],[85.8333698,27.4399871],[85.8331785,27.439986],[85.8324804,27.4402311]]}},{"type":"Feature","properties":{"kind":"road","highway":"secondary","motorable":true,"name":"NH03","ref":"NH03","bridge":false,"osm_id":1064315536},"geometry":{"type":"LineString","coordinates":[[85.8338673,27.4396851],[85.8339517,27.4395193],[85.8339459,27.4394439],[85.8339437,27.4393635],[85.8339499,27.4392607],[85.8339872,27.4391306],[85.8340965,27.438934]]}},{"type":"Feature","properties":{"kind":"road","highway":"track","motorable":true,"name":null,"ref":null,"bridge":false,"osm_id":1064315537},"geometry":{"type":"LineString","coordinates":[[85.8339228,27.4385179],[85.8343335,27.4380058],[85.8345481,27.4377011],[85.8348218,27.4372202],[85.8352991,27.437006],[85.8355888,27.4369656],[85.8358598,27.436906],[85.8361789,27.4369227],[85.8364605,27.4369037],[85.8369112,27.4368513],[85.8372028,27.436867]]}},{"type":"Feature","properties":{"kind":"road","highway":"unclassified","motorable":true,"name":null,"ref":null,"bridge":false,"osm_id":1272656391},"geometry":{"type":"LineString","coordinates":[[85.8437563,27.4320706],[85.8437778,27.4321086],[85.8437778,27.4324133],[85.8437402,27.4326465],[85.8436945,27.4326521]]}},{"type":"Feature","properties":{"kind":"road","highway":"unclassified","motorable":true,"name":null,"ref":null,"bridge":false,"osm_id":1272656392},"geometry":{"type":"LineString","coordinates":[[85.842412,27.4329423],[85.8425764,27.4327656],[85.8426193,27.4327084],[85.8428821,27.432499],[85.8437563,27.4320706],[85.8439387,27.4319135],[85.8440567,27.4317278],[85.8442069,27.4316755]]}},{"type":"Feature","properties":{"kind":"road","highway":"secondary","motorable":true,"name":"NH03","ref":"NH03","bridge":false,"osm_id":1504606222},"geometry":{"type":"LineString","coordinates":[[85.8426333,27.4330382],[85.8431096,27.4328458],[85.8432474,27.4327426],[85.8434257,27.4326747],[85.8436945,27.4326521],[85.843791,27.4326924],[85.8438438,27.4327876],[85.8438258,27.4329061],[85.8437683,27.4330537],[85.8437871,27.4331854],[85.8439218,27.4332921]]}},{"type":"Feature","properties":{"kind":"road","highway":"secondary","motorable":true,"name":"NH03","ref":"NH03","bridge":false,"osm_id":1504606223},"geometry":{"type":"LineString","coordinates":[[85.8372028,27.436867],[85.8374291,27.4367961],[85.8376381,27.4366728],[85.83796,27.4365918],[85.8383408,27.4364251],[85.8387592,27.4362776],[85.8391401,27.4360514],[85.8396632,27.4355896],[85.8399046,27.4351754],[85.8402184,27.4349968],[85.8405509,27.4347659],[85.8409734,27.4348855],[85.8410901,27.4349414],[85.8411538,27.4349527],[85.8411887,27.4348932],[85.841188,27.4347677],[85.8411705,27.434635],[85.8410498,27.4344582],[85.8410177,27.4341636],[85.841431,27.4338648],[85.8417176,27.4335789],[85.841817,27.4334087],[85.8420782,27.4331078],[85.8422124,27.4330248],[85.842412,27.4329423],[85.8425046,27.4329654],[85.8426333,27.4330382]]}}]}