{"type":"FeatureCollection","name":"swissimage_2021_2621-1202_2m","source":"OpenStreetMap roads, paths and places","licence":"ODbL 1.0 (c) OpenStreetMap contributors","features":[{"type":"Feature","properties":{"kind":"place","place":"locality","name":"Niederhaus","population":null,"osm_id":10743531452},"geometry":{"type":"Point","coordinates":[7.7112118,46.968414]}},{"type":"Feature","properties":{"kind":"place","place":"locality","name":"Sp\u00fchli","population":null,"osm_id":10743531453},"geometry":{"type":"Point","coordinates":[7.7143553,46.9686483]}},{"type":"Feature","properties":{"kind":"place","place":"locality","name":"Vorder Ramis","population":null,"osm_id":10743531454},"geometry":{"type":"Point","coordinates":[7.7175311,46.9709399]}},{"type":"Feature","properties":{"kind":"place","place":"locality","name":"Vorder Blindenbach","population":null,"osm_id":10743531455},"geometry":{"type":"Point","coordinates":[7.7201703,46.9720819]}},{"type":"Feature","properties":{"kind":"place","place":"locality","name":"Mittler Blindenbach","population":null,"osm_id":10743531456},"geometry":{"type":"Point","coordinates":[7.7213827,46.9693951]}},{"type":"Feature","properties":{"kind":"place","place":"locality","name":"Kleematt","population":null,"osm_id":10743531457},"geometry":{"type":"Point","coordinates":[7.7239147,46.9699369]}},{"type":"Feature","properties":{"kind":"place","place":"locality","name":"Hinter Blindenbach","population":null,"osm_id":10743531458},"geometry":{"type":"Point","coordinates":[7.7267686,46.9685532]}},{"type":"Feature","properties":{"kind":"place","place":"locality","name":"Bodenweid","population":null,"osm_id":10743531459},"geometry":{"type":"Point","coordinates":[7.726833,46.9723162]}},{"type":"Feature","properties":{"kind":"place","place":"locality","name":"K\u00fcmeli","population":null,"osm_id":10743531460},"geometry":{"type":"Point","coordinates":[7.7281097,46.9731068]}},{"type":"Feature","properties":{"kind":"place","place":"locality","name":"M\u00fctzlenberg","population":null,"osm_id":10743531461},"geometry":{"type":"Point","coordinates":[7.7178207,46.9744612]}},{"type":"Feature","properties":{"kind":"place","place":"locality","name":"Obristhaus","population":null,"osm_id":10743531462},"geometry":{"type":"Point","coordinates":[7.718325,46.9733631]}},{"type":"Feature","properties":{"kind":"place","place":"locality","name":"Aulennest","population":null,"osm_id":10743531463},"geometry":{"type":"Point","coordinates":[7.7113942,46.9650571]}},{"type":"Feature","properties":{"kind":"place","place":"locality","name":"Hinter Ramis","population":null,"osm_id":10743531475},"geometry":{"type":"Point","coordinates":[7.7184698,46.9667008]}},{"type":"Feature","properties":{"kind":"place","place":"locality","name":"Schlossh\u00fcsli","population":null,"osm_id":12579268929},"geometry":{"type":"Point","coordinates":[7.7311719,46.9732014]}},{"type":"Feature","properties":{"kind":"place","place":"locality","name":"Burgweidli","population":null,"osm_id":12579268930},"geometry":{"type":"Point","coordinates":[7.7316386,46.9709246]}},{"type":"Feature","properties":{"kind":"place","place":"locality","name":"Burg","population":null,"osm_id":12579268931},"geometry":{"type":"Point","coordinates":[7.7317539,46.9673427]}},{"type":"Feature","properties":{"kind":"place","place":"locality","name":"Grossmatt","population":null,"osm_id":12579560135},"geometry":{"type":"Point","coordinates":[7.7300229,46.9811672]}},{"type":"Feature","properties":{"kind":"place","place":"locality","name":"Wangelen","population":null,"osm_id":12579560136},"geometry":{"type":"Point","coordinates":[7.7275391,46.9802156]}},{"type":"Feature","properties":{"kind":"place","place":"locality","name":"Abendhaus","population":null,"osm_id":12579560137},"geometry":{"type":"Point","coordinates":[7.7253344,46.9801022]}},{"type":"Feature","properties":{"kind":"place","place":"locality","name":"Unter Blindenbach","population":null,"osm_id":12579560138},"geometry":{"type":"Point","coordinates":[7.7309348,46.9776021]}},{"type":"Feature","properties":{"kind":"place","place":"locality","name":"Wangelenberg","population":null,"osm_id":12579560139},"geometry":{"type":"Point","coordinates":[7.7274144,46.9763089]}},{"type":"Feature","properties":{"kind":"place","place":"locality","name":"Vorder Sonnberg","population":null,"osm_id":12579560140},"geometry":{"type":"Point","coordinates":[7.7248127,46.9744239]}},{"type":"Feature","properties":{"kind":"place","place":"locality","name":"Hinter Sonnberg","population":null,"osm_id":12579560141},"geometry":{"type":"Point","coordinates":[7.721983,46.972339]}},{"type":"Feature","properties":{"kind":"place","place":"locality","name":"Bergli","population":null,"osm_id":12579560143},"geometry":{"type":"Point","coordinates":[7.7142473,46.980606]}},{"type":"Feature","properties":{"kind":"place","place":"locality","name":"Berg","population":null,"osm_id":12579560144},"geometry":{"type":"Point","coordinates":[7.7120465,46.9810398]}},{"type":"Feature","properties":{"kind":"place","place":"locality","name":"Weidli","population":null,"osm_id":12579560145},"geometry":{"type":"Point","coordinates":[7.7188335,46.9797608]}},{"type":"Feature","properties":{"kind":"place","place":"locality","name":"Glattenwasen","population":null,"osm_id":12579560146},"geometry":{"type":"Point","coordinates":[7.720154,46.979238]}},{"type":"Feature","properties":{"kind":"place","place":"locality","name":"K\u00fchberg","population":null,"osm_id":12584466878},"geometry":{"type":"Point","coordinates":[7.7275465,46.9671734]}},{"type":"Feature","properties":{"kind":"place","place":"locality","name":"Steinberg","population":null,"osm_id":12603363074},"geometry":{"type":"Point","coordinates":[7.7173912,46.9775934]}},{"type":"Feature","properties":{"kind":"place","place":"locality","name":"Fischbach","population":null,"osm_id":12603363084},"geometry":{"type":"Point","coordinates":[7.713663,46.970465]}},{"type":"Feature","properties":{"kind":"road","highway":"track","motorable":true,"name":null,"ref":null,"bridge":false,"osm_id":26242678},"geometry":{"type":"LineString","coordinates":[[7.7240493,46.9692229],[7.7241399,46.9692069],[7.7242225,46.9691837],[7.7243388,46.9691352],[7.7245422,46.969054],[7.7247456,46.9689847],[7.7250399,46.9688993],[7.7253663,46.9688219],[7.7255452,46.9687918],[7.7256934,46.9687542],[7.7257888,46.9687246],[7.7258528,46.9687012],[7.7259234,46.9686696]]}},{"type":"Feature","properties":{"kind":"road","highway":"tertiary","motorable":true,"name":"1409","ref":"1409","bridge":false,"osm_id":72140697},"geometry":{"type":"LineString","coordinates":[[7.7325042,46.9785681],[7.7324761,46.9785888],[7.7324331,46.9786227],[7.7324054,46.9786503],[7.7323739,46.9786864],[7.7323341,46.9787402],[7.7323109,46.9787768],[7.7322939,46.9788136],[7.7322836,46.9788424],[7.7322734,46.9788742],[7.7322671,46.9789034],[7.7322595,46.9789421],[7.7321611,46.9798595],[7.732145,46.9799783],[7.7321289,46.9800796],[7.7321148,46.980143],[7.7321029,46.9801865],[7.7320845,46.9802409],[7.732058,46.980306],[7.7320367,46.9803512],[7.7319986,46.9804139],[7.731854,46.9806418],[7.7316526,46.9809475],[7.7315493,46.9810908],[7.7314697,46.9811843],[7.7313931,46.9812707],[7.7312711,46.9813947],[7.7311251,46.9815269],[7.7306691,46.9819359],[7.7304842,46.9820656],[7.7302872,46.9821655],[7.7301356,46.982234],[7.7298879,46.9822926],[7.7297488,46.9823257]]}},{"type":"Feature","properties":{"kind":"road","highway":"track","motorable":true,"name":null,"ref":null,"bridge":false,"osm_id":133872864},"geometry":{"type":"LineString","coordinates":[[7.7178868,46.9634421],[7.7185011,46.9633674],[7.7186127,46.9633737],[7.7186944,46.9634058],[7.7187927,46.9634638],[7.7188955,46.9635463],[7.7189746,46.963632],[7.7190762,46.9638228],[7.7192274,46.9640882],[7.7192645,46.9641687],[7.7192854,46.9642911],[7.719278,46.9643943],[7.7192462,46.9648181],[7.7192681,46.9649235],[7.7193097,46.9650472],[7.719314,46.9651461],[7.7192996,46.9652158],[7.7192569,46.9652757],[7.7191903,46.9653215],[7.7190244,46.9654107],[7.7188581,46.9654829],[7.7187476,46.965553],[7.7186583,46.9656251],[7.7185856,46.9656972],[7.718544,46.9657737],[7.7185147,46.965885],[7.71849,46.9659641],[7.7184502,46.966032],[7.7183469,46.9661742],[7.718301,46.9662651],[7.7181955,46.9665304],[7.7181307,46.9667202],[7.7181246,46.9667593],[7.7181259,46.9667975],[7.7181333,46.9668389],[7.7181482,46.9668688],[7.718172,46.9669015],[7.7182047,46.9669353],[7.7182427,46.9669624],[7.7183416,46.9670185],[7.7184126,46.9670625],[7.7184707,46.9671028],[7.7185129,46.9671449],[7.7185343,46.9671725],[7.7185497,46.9672002],[7.7185602,46.9672283],[7.7185655,46.9672585],[7.718565,46.9672871],[7.7185608,46.9673268],[7.7185488,46.967368],[7.7185315,46.9674093],[7.7185107,46.9674477],[7.7184697,46.9675053],[7.7184377,46.9675419],[7.718408,46.9675738],[7.7183501,46.9676254],[7.7182841,46.9676762],[7.7181507,46.9677636],[7.7180616,46.9678087],[7.7179538,46.9678562],[7.7178398,46.9678972],[7.717708,46.9679391],[7.717531,46.967984],[7.7173188,46.9680409],[7.7171948,46.9680799],[7.7170969,46.9681144],[7.7170111,46.9681496],[7.7169472,46.9681788],[7.7168946,46.9682057],[7.7168416,46.9682408],[7.7168009,46.968274],[7.7167662,46.968309],[7.71674,46.9683368],[7.7167155,46.9683705],[7.7166822,46.9684221],[7.7166493,46.9684853],[7.7166232,46.9685505],[7.716605,46.9686222],[7.716578,46.9687606],[7.7165634,46.968869],[7.71656,46.9689476],[7.7165609,46.969093],[7.7165675,46.9691872],[7.7165768,46.9692754],[7.7165907,46.969355],[7.7166238,46.9694995],[7.716664,46.9696386],[7.716768,46.9699249],[7.7168708,46.9701649],[7.7169228,46.970419],[7.7168902,46.9707672],[7.7168279,46.9711297],[7.7168155,46.9713277],[7.7168708,46.9714628],[7.7169977,46.9717517],[7.7171228,46.972038]]}},{"type":"Feature","properties":{"kind":"road","highway":"track","motorable":true,"name":null,"ref":null,"bridge":false,"osm_id":133873568},"geometry":{"type":"LineString","coordinates":[[7.7178868,46.9634421],[7.7169512,46.9635506],[7.7161371,46.9637076],[7.7159727,46.963748],[7.7159149,46.9637709],[7.7158685,46.9638076],[7.7158291,46.963861],[7.715799,46.9639118],[7.7157623,46.9640331],[7.7156944,46.9641584],[7.7155634,46.9642865],[7.7153689,46.9644157],[7.7152618,46.9644708],[7.7151516,46.964497],[7.7150472,46.9645023],[7.7149478,46.9644967],[7.7148436,46.964475],[7.7142745,46.9642965],[7.7139553,46.9641757],[7.7136557,46.9640544],[7.7135991,46.9640353],[7.7135369,46.964022],[7.7134829,46.9640179],[7.7134161,46.9640216],[7.7133711,46.964027],[7.713301,46.9640476],[7.7132379,46.9640738],[7.7131933,46.964099],[7.7131493,46.9641296],[7.7130396,46.9642276],[7.7129199,46.9643826],[7.7128368,46.9644906],[7.7127961,46.9645283],[7.7127497,46.9645581],[7.7126899,46.9645867],[7.7126115,46.9646114],[7.7125402,46.9646279],[7.712462,46.9646401],[7.7123588,46.9646505],[7.7121242,46.9646635],[7.7119572,46.96468],[7.7117921,46.9646998],[7.7115844,46.9647299],[7.7114493,46.9647542],[7.7113364,46.9647814],[7.7111859,46.9648281],[7.710886,46.9649353],[7.7106586,46.9650144]]}},{"type":"Feature","properties":{"kind":"road","highway":"track","motorable":true,"name":null,"ref":null,"bridge":false,"osm_id":133873572},"geometry":{"type":"LineString","coordinates":[[7.7106586,46.9650144],[7.7106515,46.9649598],[7.710652,46.9649309],[7.710691,46.9647992],[7.710708,46.9647283],[7.710715,46.9646676],[7.7107202,46.9645817],[7.7107212,46.9645274],[7.7107156,46.9644648],[7.7106921,46.9643008],[7.7106878,46.9641799],[7.7106835,46.9641327],[7.7106737,46.964083],[7.7106395,46.9639464],[7.7106132,46.9638565],[7.7105809,46.9637656],[7.7105424,46.9636863],[7.7104746,46.9635586],[7.710368,46.9633792],[7.7102319,46.9631743],[7.7101805,46.9630892],[7.7101389,46.9630031],[7.7100934,46.9629024],[7.710075,46.9628534],[7.7100365,46.9627512],[7.7100113,46.9626745],[7.709978,46.9625427],[7.7099607,46.9624825],[7.7099443,46.9624481],[7.7099225,46.9624137],[7.7098885,46.962376],[7.7098326,46.9623226],[7.709763,46.9622738],[7.7097313,46.9622467],[7.7096988,46.9622098],[7.7096848,46.9621777],[7.7096745,46.9621121]]}},{"type":"Feature","properties":{"kind":"road","highway":"track","motorable":true,"name":null,"ref":null,"bridge":false,"osm_id":133875539},"geometry":{"type":"LineString","coordinates":[[7.7205237,46.9723574],[7.7206256,46.9723724],[7.7208212,46.9723826],[7.7208596,46.9724198],[7.7209198,46.9725191],[7.7209273,46.9726485],[7.7208735,46.9727571],[7.7207794,46.9728931],[7.7207478,46.9730364],[7.7208078,46.9731591],[7.7208974,46.9732565],[7.7211254,46.9734358],[7.7212516,46.9735179],[7.7213935,46.9735868],[7.7215992,46.9736616],[7.7217354,46.9737004],[7.7218578,46.9737222],[7.7221444,46.9737396],[7.7223374,46.9737549],[7.7223963,46.9737695],[7.7224595,46.9737955],[7.7225521,46.9738401],[7.7227073,46.9739489],[7.7236357,46.9747584],[7.7237463,46.9748295],[7.7238647,46.9748923],[7.7239748,46.9749408],[7.7247174,46.9750569],[7.7249513,46.9750976],[7.7254231,46.9751683],[7.725741,46.9752572],[7.7258974,46.9752711],[7.7261931,46.975362],[7.7263619,46.9754238],[7.7265352,46.9755039],[7.7266683,46.9755913],[7.7267971,46.9757248],[7.7270281,46.9756314],[7.7270539,46.9755858],[7.72704,46.9755203],[7.7269802,46.9754529],[7.7268551,46.9753586],[7.7266916,46.9752669],[7.7264569,46.9751155],[7.7263447,46.9750431],[7.7261177,46.9749067],[7.7260664,46.9746609],[7.7268478,46.9748219],[7.7270451,46.9748788],[7.7271949,46.9749346],[7.7274608,46.9750438],[7.7275646,46.9751164],[7.7276279,46.9751843],[7.7278459,46.9752901],[7.7280252,46.9754314],[7.7281936,46.9755986],[7.7282609,46.9756825],[7.7282813,46.9757416],[7.7282699,46.9758062],[7.7282318,46.9758809],[7.7281668,46.9760232],[7.7281533,46.9761091],[7.7281775,46.9761674],[7.7282303,46.9762302],[7.7283155,46.9762966],[7.7285962,46.9765502],[7.7287828,46.9766919],[7.7288532,46.9767377],[7.7288966,46.9767928],[7.7289967,46.9770652],[7.7291197,46.9772885],[7.7293407,46.9776262],[7.7294874,46.9777392],[7.72957,46.9778432],[7.7296788,46.9780776],[7.7296995,46.9781544],[7.7296906,46.9782135],[7.7296564,46.9782641],[7.7295669,46.9783364],[7.728382,46.9788446],[7.7275275,46.9793814],[7.7273228,46.97951],[7.7270238,46.9796899],[7.7268382,46.9797971],[7.7267368,46.9798607],[7.7266723,46.9799103],[7.7265708,46.9800055],[7.7266501,46.9801112],[7.7268319,46.980306],[7.7270219,46.9804971]]}},{"type":"Feature","properties":{"kind":"road","highway":"track","motorable":true,"name":null,"ref":null,"bridge":false,"osm_id":133876200},"geometry":{"type":"LineString","coordinates":[[7.7243527,46.9728753],[7.7243741,46.9732853],[7.7245681,46.9735501],[7.7248677,46.9739588],[7.7253397,46.9743834],[7.7260664,46.9746609]]}},{"type":"Feature","properties":{"kind":"road","highway":"residential","motorable":true,"name":"Oberdorfstrasse","ref":null,"bridge":false,"osm_id":133876201},"geometry":{"type":"LineString","coordinates":[[7.7229773,46.9834319],[7.7229324,46.9832299],[7.7229148,46.9830689],[7.7228157,46.9828172],[7.7228011,46.9827634],[7.7227872,46.9827046],[7.7227744,46.9826371],[7.7227521,46.9824418],[7.7227567,46.9823927],[7.7227688,46.9823372],[7.7228024,46.9822593],[7.7228135,46.9822276],[7.7228214,46.9821904],[7.7228272,46.9821545],[7.7228255,46.9821228],[7.7227957,46.9820151],[7.7227097,46.9817037]]}},{"type":"Feature","properties":{"kind":"road","highway":"track","motorable":true,"name":null,"ref":null,"bridge":false,"osm_id":133876205},"geometry":{"type":"LineString","coordinates":[[7.7221444,46.9737396],[7.722128,46.9739104],[7.7220996,46.9742077],[7.7219346,46.9745362],[7.7219579,46.9745651],[7.7219632,46.9746112],[7.7219532,46.9746803],[7.7219221,46.9747407],[7.7217348,46.9749983],[7.7214744,46.9754622],[7.7214633,46.9755199],[7.7214587,46.9755883],[7.721441,46.9756427],[7.7213647,46.9757262],[7.7212493,46.9758246],[7.7211722,46.9759363],[7.7211216,46.9761027],[7.721075,46.9763097],[7.7210714,46.9763222],[7.7210223,46.9764937],[7.7209852,46.9768337],[7.7209409,46.9772457],[7.7208363,46.9777874],[7.7208451,46.9778721],[7.7208627,46.9779642],[7.7208764,46.9780784],[7.7208443,46.978373],[7.7208053,46.9785822],[7.7208046,46.9786436],[7.7208119,46.978692],[7.7208267,46.9787447],[7.7208924,46.9789435],[7.7209329,46.9790649],[7.7210195,46.9792704],[7.7211769,46.9796173],[7.7212355,46.9797861],[7.7212562,46.979919],[7.7212628,46.9802688],[7.7212842,46.9803254],[7.7213252,46.9803938],[7.7216105,46.9807094]]}},{"type":"Feature","properties":{"kind":"road","highway":"track","motorable":true,"name":null,"ref":null,"bridge":false,"osm_id":133876212},"geometry":{"type":"LineString","coordinates":[[7.7172444,46.9783332],[7.7172739,46.9783791],[7.7173104,46.9784153],[7.7173583,46.9784462],[7.7174172,46.9784708],[7.7174865,46.9784888],[7.7175763,46.978506],[7.7181474,46.9786054],[7.7182614,46.9786326],[7.7183425,46.9786568],[7.7184072,46.9786813],[7.7184695,46.9787132],[7.7185399,46.9787584],[7.7186016,46.978804],[7.718661,46.9788513],[7.7188442,46.9790055],[7.7188994,46.9790642],[7.718918,46.979093],[7.7189294,46.9791219],[7.7189354,46.9791622],[7.7189324,46.9792021],[7.7189125,46.9792799],[7.7188986,46.9793917],[7.7189056,46.9794484],[7.718918,46.9794922],[7.7189388,46.9795328],[7.7189681,46.9795686],[7.7190191,46.9796106],[7.7191072,46.9796708],[7.7191675,46.9797045],[7.7192392,46.9797371],[7.7193603,46.9797804],[7.7195261,46.9798309],[7.7196231,46.9798706],[7.7197,46.9799102],[7.7197539,46.9799474],[7.7198145,46.9799969],[7.7198728,46.9800634],[7.7199166,46.9801474],[7.719953,46.9801918],[7.7199858,46.9802305],[7.7200194,46.9802641],[7.7200747,46.980312],[7.7202096,46.9804159],[7.7203445,46.9805133],[7.7204616,46.9805825],[7.7205481,46.9806251],[7.7206249,46.9806586],[7.7207008,46.9806864],[7.7207647,46.9807043]]}},{"type":"Feature","properties":{"kind":"road","highway":"track","motorable":true,"name":null,"ref":null,"bridge":false,"osm_id":133876326},"geometry":{"type":"LineString","coordinates":[[7.7239748,46.9749408],[7.7239793,46.9751738],[7.7239706,46.9752221],[7.723946,46.9752596],[7.7239088,46.9752986],[7.7234664,46.9756048],[7.723194,46.975767],[7.7229002,46.976008],[7.7228448,46.9760789],[7.7228126,46.9761377],[7.7228037,46.9761883],[7.7228127,46.9762365],[7.722831,46.9762759],[7.7228722,46.9762997],[7.722924,46.9763114],[7.7229849,46.9763076],[7.7230387,46.9762892],[7.7231048,46.9762436],[7.7233024,46.9760816],[7.7236614,46.9758854],[7.7237581,46.9758507],[7.7238051,46.9758402],[7.7238682,46.9758379],[7.723926,46.9758537],[7.7239843,46.9758903],[7.7240557,46.975983],[7.7241059,46.9760598],[7.7242492,46.9764519],[7.7242914,46.976613],[7.7242761,46.9767185],[7.7242138,46.9769042],[7.7241715,46.9771352],[7.7241411,46.9775145],[7.7242737,46.9779484],[7.7244982,46.9782723],[7.7246836,46.9784881]]}},{"type":"Feature","properties":{"kind":"road","highway":"path","motorable":false,"name":null,"ref":null,"bridge":false,"osm_id":133876433},"geometry":{"type":"LineString","coordinates":[[7.725532,46.9686535],[7.7255092,46.9686301],[7.7254892,46.9685939],[7.7254462,46.9685251],[7.7253708,46.9684498],[7.7252647,46.9683639],[7.7251623,46.9683002],[7.7248998,46.9681606],[7.7244852,46.9679404],[7.7243025,46.9678693],[7.7240523,46.9677872],[7.7240125,46.9677713],[7.7239835,46.9677444],[7.7239576,46.9677093],[7.7239284,46.9676504],[7.723902,46.9675705],[7.7238759,46.9674472],[7.7238559,46.9674056],[7.7238289,46.9673663],[7.7237196,46.9672664],[7.7236717,46.9672096],[7.7236479,46.9671666],[7.7236315,46.9671094],[7.7236083,46.9670229],[7.7235851,46.966968],[7.7235403,46.9668958],[7.7234618,46.9667883],[7.723137,46.9664075]]}},{"type":"Feature","properties":{"kind":"road","highway":"track","motorable":true,"name":null,"ref":null,"bridge":false,"osm_id":133876498},"geometry":{"type":"LineString","coordinates":[[7.7255452,46.9687918],[7.7256225,46.9688444],[7.7256573,46.9688601],[7.7256883,46.9688689],[7.7257246,46.9688719],[7.7257638,46.9688693],[7.7258019,46.9688622],[7.7258667,46.9688462],[7.7259635,46.9688188],[7.7261287,46.9687757],[7.7261527,46.9687709],[7.7262005,46.968767],[7.7262556,46.9687719],[7.7263697,46.9687893],[7.7264847,46.9687944],[7.7265362,46.9688012],[7.7265795,46.9688118],[7.7266171,46.9688254],[7.726643,46.9688392],[7.7266634,46.968856],[7.7266813,46.9688758],[7.7267084,46.9689191],[7.726725,46.9689517],[7.7267379,46.9689821],[7.7267457,46.9690095],[7.7267507,46.9690377],[7.7267544,46.9690685],[7.7267625,46.9691099],[7.7267779,46.9691661],[7.7267968,46.969223],[7.7268354,46.9693166],[7.7268828,46.9694161],[7.726936,46.9695181],[7.7269761,46.9695871],[7.7271444,46.9698549],[7.7277357,46.970729],[7.7277861,46.9708075],[7.7278122,46.9708516],[7.7278296,46.9708896],[7.7278436,46.9709313],[7.7278479,46.9709701],[7.7278411,46.9710067],[7.727826,46.9710383],[7.7278009,46.9710658],[7.7277708,46.9710864],[7.7277291,46.9711046],[7.7276853,46.971116],[7.7276459,46.9711195],[7.7276105,46.9711184],[7.7275761,46.9711123],[7.7275431,46.9711013],[7.7275151,46.9710871],[7.72748,46.9710632],[7.7273601,46.9709611],[7.7272422,46.9708687],[7.7271626,46.9708109],[7.7271048,46.9707761],[7.7270566,46.9707532],[7.7269987,46.9707386],[7.7269385,46.970729],[7.7268665,46.9707312],[7.7267947,46.9707407],[7.7267291,46.9707598],[7.7266695,46.9707838],[7.7266058,46.9708203],[7.7265025,46.9709163],[7.7261732,46.9712927],[7.7261118,46.9713911],[7.7260684,46.9714722],[7.7260339,46.9715473],[7.7260052,46.9716523],[7.7259836,46.9718215],[7.7259703,46.9719946],[7.7259665,46.9721386],[7.7259584,46.9721876],[7.725933,46.9722279],[7.7258942,46.972264],[7.7258513,46.9722943],[7.7258332,46.972319],[7.7258168,46.9723535],[7.7258172,46.9723767],[7.7258271,46.9723981],[7.7258611,46.9724192],[7.7259024,46.9724322],[7.7259386,46.9724351],[7.7259808,46.9724298],[7.7260264,46.9724156],[7.72607,46.972392],[7.7261084,46.9723613],[7.7261387,46.9723309],[7.7261772,46.9722785],[7.7262979,46.9720951],[7.7263355,46.9720457],[7.7263705,46.9720171],[7.7264148,46.9719903],[7.7264828,46.9719621],[7.7265266,46.9719529],[7.72659,46.9719502],[7.726646,46.9719567],[7.7266774,46.9719658],[7.7266931,46.9719805],[7.7267019,46.9719939]]}},{"type":"Feature","properties":{"kind":"road","highway":"track","motorable":true,"name":null,"ref":null,"bridge":false,"osm_id":133876507},"geometry":{"type":"LineString","coordinates":[[7.7208678,46.9674245],[7.720611,46.9676888],[7.7204715,46.9679103],[7.7203831,46.9680225],[7.7202932,46.9681202],[7.7200243,46.9683703],[7.7196964,46.968717],[7.7194389,46.969127],[7.7191385,46.9696834],[7.7189874,46.9699945],[7.7189696,46.9700312],[7.71866,46.9701934],[7.718368,46.9703189],[7.7181373,46.9704441],[7.7180326,46.970585],[7.7178055,46.9710618],[7.717625,46.9713186],[7.7174377,46.9715562],[7.7172173,46.9718485],[7.7171228,46.972038]]}},{"type":"Feature","properties":{"kind":"road","highway":"track","motorable":true,"name":null,"ref":null,"bridge":false,"osm_id":148530976},"geometry":{"type":"LineString","coordinates":[[7.7227097,46.9817037],[7.7228525,46.9816363],[7.7228927,46.9816219],[7.7229767,46.9815917],[7.7232221,46.981529],[7.7233355,46.9814931],[7.7234345,46.9814579],[7.7234948,46.981434],[7.7235548,46.9814065],[7.723606,46.9813799],[7.7236471,46.9813513],[7.7237037,46.9813041],[7.7239592,46.9810612],[7.7240549,46.9809823],[7.7241754,46.9808949],[7.7242744,46.9808166],[7.7243057,46.9807886],[7.7243329,46.9807606],[7.7245012,46.9805649],[7.7246651,46.9803278],[7.7247267,46.9802528],[7.7247975,46.9801874],[7.7249072,46.9801149],[7.7251529,46.9799728],[7.7252193,46.9799277],[7.7252499,46.9798993],[7.7252826,46.9798647],[7.7252999,46.9798283],[7.7253076,46.9797946],[7.7253012,46.9797576],[7.7252795,46.9797002]]}},{"type":"Feature","properties":{"kind":"road","highway":"residential","motorable":true,"name":"Oberdorfstrasse","ref":null,"bridge":false,"osm_id":148530977},"geometry":{"type":"LineString","coordinates":[[7.7216105,46.9807094],[7.7218997,46.9809601],[7.7219524,46.9809963],[7.7220712,46.9810698],[7.7224361,46.9812631],[7.7224976,46.9813013],[7.7225565,46.9813446],[7.7226132,46.981397],[7.7226408,46.981439],[7.7226641,46.9815038],[7.7227097,46.9817037]]}},{"type":"Feature","properties":{"kind":"road","highway":"track","motorable":true,"name":null,"ref":null,"bridge":false,"osm_id":148531021},"geometry":{"type":"LineString","coordinates":[[7.7267019,46.9719939],[7.726708,46.9720236],[7.7267071,46.9720617],[7.7266985,46.9720952],[7.7266738,46.9721626],[7.7266388,46.9722152],[7.7265563,46.9723378],[7.7265318,46.9723937],[7.7265198,46.9724482],[7.7265095,46.9725339],[7.726513,46.9726311],[7.7265234,46.9727293],[7.7265363,46.9728499],[7.7265355,46.9728976],[7.7265208,46.9729619],[7.7265009,46.9729875],[7.726474,46.9730041],[7.7264255,46.973016],[7.7263491,46.9730224],[7.7260592,46.9730414],[7.7259264,46.973023],[7.7258475,46.9730082],[7.7257821,46.9729821],[7.7256874,46.9729333],[7.7255942,46.9728658],[7.7253525,46.972773],[7.7252496,46.972717],[7.725131,46.9726435],[7.7250378,46.9725667],[7.7249805,46.9724949],[7.7249591,46.9724441],[7.7249524,46.97236],[7.724937,46.9718117],[7.7249013,46.9716099],[7.7248965,46.9715978],[7.7248812,46.971586],[7.7248592,46.9715845],[7.7248391,46.971594],[7.7247119,46.9716975],[7.72457,46.9717857],[7.7244349,46.9718773],[7.7243052,46.9719491],[7.7242387,46.9719779],[7.7241927,46.9719854],[7.7241587,46.9719793],[7.7241409,46.9719635],[7.7241336,46.9719387],[7.724154,46.9711724],[7.7239767,46.9710679],[7.723617,46.9708718],[7.7235345,46.9708154],[7.7234834,46.9707658],[7.7234401,46.9707065],[7.7233729,46.97056],[7.7233143,46.9703766],[7.7232723,46.9702734],[7.7232388,46.9702264],[7.7232137,46.9701966],[7.7231674,46.9701632],[7.7230085,46.9700738],[7.7229404,46.9700312],[7.7229104,46.9700029],[7.7228898,46.9699702],[7.7228768,46.9699381],[7.7228659,46.9698642],[7.722859,46.9696666],[7.722867,46.9696116],[7.7228891,46.9695426],[7.7229195,46.9694819],[7.7229334,46.9694424],[7.7229346,46.9694158],[7.7229371,46.9693887],[7.7229278,46.9693514],[7.72291,46.9693198],[7.7228798,46.9692952],[7.7228083,46.9692518],[7.7227542,46.9692097],[7.7227277,46.9691797],[7.7227117,46.9691462],[7.7227074,46.9691122],[7.7227233,46.9690478],[7.7227357,46.9690107],[7.7227375,46.9689765],[7.7227344,46.9689552],[7.7227255,46.9689359],[7.7227081,46.9689137],[7.7226544,46.9688693],[7.7226166,46.9688306],[7.722596,46.968798],[7.7225771,46.9687446],[7.7225698,46.9686882],[7.7225662,46.9685533],[7.7225685,46.9684932],[7.7225763,46.9684211],[7.7226196,46.9682187]]}},{"type":"Feature","properties":{"kind":"road","highway":"track","motorable":true,"name":null,"ref":null,"bridge":false,"osm_id":148531059},"geometry":{"type":"LineString","coordinates":[[7.7259234,46.9686696],[7.7260722,46.968547],[7.7261099,46.968512],[7.7261275,46.9684814],[7.7261362,46.9684509],[7.7261398,46.9684094],[7.7261353,46.9683756],[7.72612,46.9683331],[7.7261015,46.9682927],[7.7260683,46.9682405],[7.7259765,46.9681098],[7.725846,46.9679575],[7.7257899,46.9678797],[7.7257474,46.9678006],[7.7257166,46.9677057],[7.7256474,46.9674559],[7.725615,46.9673658],[7.7255692,46.9672835],[7.7255136,46.9672077],[7.7254181,46.9670959],[7.7252734,46.9669566],[7.7251969,46.9668737],[7.7251252,46.9667819],[7.7250942,46.9667118],[7.7250708,46.966635],[7.7250635,46.9665623],[7.7250698,46.9664566],[7.725116,46.9661924],[7.7251543,46.9660915],[7.7251971,46.9660078],[7.7252403,46.9659464],[7.7253087,46.9658885],[7.7254,46.9658447],[7.7256324,46.9657608],[7.7257939,46.9657241],[7.7259705,46.9657082],[7.7260658,46.9657088],[7.7261813,46.9657291],[7.7263141,46.9657687],[7.7267507,46.9659414],[7.7268887,46.9659836],[7.7270134,46.9660063],[7.7271672,46.9660184],[7.7273099,46.9660137],[7.727442,46.9659855],[7.7276039,46.9659333],[7.7278943,46.9657827],[7.7280555,46.9657084],[7.728168,46.9656735],[7.7282705,46.9656467],[7.7283986,46.9656295],[7.728582,46.9656152],[7.7287359,46.9656273],[7.7288661,46.9656556],[7.7290069,46.9657071],[7.7291401,46.9657842],[7.7292733,46.9658915],[7.7294449,46.9661321],[7.7295751,46.9662908],[7.7296846,46.9664044],[7.7298088,46.9665241],[7.7300619,46.966763],[7.7301521,46.9668431],[7.7302234,46.9668901],[7.7302891,46.9669257],[7.7303775,46.9669607],[7.730502,46.9669979],[7.7306031,46.9670199],[7.7312041,46.9671022],[7.7316808,46.9671845],[7.7318365,46.9672107],[7.7319867,46.9672293]]}},{"type":"Feature","properties":{"kind":"road","highway":"track","motorable":true,"name":null,"ref":null,"bridge":false,"osm_id":148531067},"geometry":{"type":"LineString","coordinates":[[7.7176411,46.9729634],[7.7177845,46.9729678],[7.7179999,46.9729736],[7.7182194,46.9729849],[7.718419,46.9729656],[7.7187033,46.9728925],[7.7190095,46.9727933],[7.7192124,46.9727246],[7.7194622,46.9726495],[7.7195594,46.9726256],[7.7196507,46.9726107],[7.719749,46.9726032],[7.7199195,46.9726026],[7.720009,46.9725969],[7.7200955,46.9725832],[7.7201668,46.9725616],[7.7202572,46.9725279],[7.7203543,46.9724729],[7.720472,46.9723928],[7.7205237,46.9723574],[7.7206541,46.9722056],[7.7207361,46.9720299],[7.7207772,46.971806],[7.720788,46.9717087],[7.720789,46.9716349],[7.7207836,46.9715698],[7.7207679,46.9715068],[7.7207399,46.9714157],[7.7207032,46.9713125],[7.7206039,46.971082],[7.7205325,46.9709505],[7.7204493,46.970809],[7.7204089,46.9707262],[7.7203711,46.9706285],[7.7203465,46.9705378],[7.7203354,46.9704545],[7.7203409,46.9703761],[7.7203655,46.9702374],[7.7204342,46.9700143],[7.7204926,46.9698505],[7.7205626,46.9697026],[7.7206543,46.9695451],[7.7207583,46.9693859],[7.7207915,46.9693385],[7.7208301,46.9692874],[7.720887,46.9692234],[7.7209311,46.9691808],[7.721085,46.9690551],[7.7214029,46.9688022],[7.7214421,46.9687664],[7.7214688,46.9687365],[7.7214956,46.968703],[7.7215189,46.9686678],[7.7215877,46.9685441],[7.7217058,46.9683208],[7.7217454,46.9682585],[7.7217921,46.9681979],[7.7218205,46.9681711],[7.7218623,46.9681414],[7.7219272,46.9681033],[7.7219537,46.9680913],[7.7219898,46.968078],[7.7220784,46.9680529],[7.7221913,46.9680257],[7.7222873,46.9680053],[7.7223305,46.9680004],[7.7223724,46.9679994],[7.7224114,46.9680024],[7.7224494,46.9680098],[7.7224831,46.9680206],[7.7225153,46.9680354],[7.7225492,46.9680552],[7.7225709,46.9680737],[7.7225847,46.9680958],[7.7225959,46.968121],[7.7226028,46.9681457],[7.7226196,46.9682187],[7.7226758,46.9684132],[7.7226926,46.9684502],[7.7227137,46.968483],[7.7227415,46.9685355],[7.7227754,46.9685751],[7.7228307,46.9686319],[7.7229349,46.9687221],[7.723111,46.9688555],[7.7232756,46.9689497],[7.7235735,46.9691201],[7.7236516,46.9691549],[7.7237353,46.9691857],[7.723812,46.9692039],[7.7239105,46.9692202],[7.7239715,46.9692248],[7.7240114,46.9692249],[7.7240493,46.9692229]]}},{"type":"Feature","properties":{"kind":"road","highway":"track","motorable":true,"name":null,"ref":null,"bridge":false,"osm_id":148560765},"geometry":{"type":"LineString","coordinates":[[7.7275497,46.9611006],[7.7272113,46.9613723],[7.7270682,46.9615061],[7.7270256,46.961558],[7.727003,46.9615956],[7.7269817,46.9616453],[7.7270368,46.9617174],[7.7271603,46.9618632],[7.7271981,46.9619132],[7.7272365,46.9619762],[7.7272533,46.9620164],[7.7272592,46.9620504],[7.7272583,46.9620816],[7.7272497,46.9621217],[7.7272332,46.9621543],[7.7272076,46.9621873],[7.7271664,46.962226],[7.7271058,46.9622698],[7.7267391,46.9624812],[7.726513,46.9625895],[7.7263487,46.9626666],[7.7262706,46.962714],[7.7262225,46.9627561],[7.7261905,46.9627982],[7.7261604,46.9628552],[7.7261463,46.9629123],[7.7261423,46.9629585],[7.7261468,46.9629994],[7.7261623,46.9630383],[7.7261837,46.9630676],[7.7262173,46.9630985],[7.726259,46.9631214],[7.7263067,46.9631403],[7.7263887,46.9631621],[7.7267593,46.9632387],[7.7273416,46.9633582],[7.7275586,46.9634074],[7.7277837,46.9634648],[7.7281729,46.9636044],[7.7283218,46.9636338],[7.7284788,46.9636549],[7.7286232,46.963677],[7.7286944,46.9636911],[7.7287465,46.9637062],[7.7288056,46.9637279],[7.7288793,46.9637633],[7.7289227,46.9637904],[7.7289699,46.9638284],[7.7290296,46.9638902],[7.7290842,46.9639473],[7.7291826,46.964056],[7.7292379,46.9641044],[7.7293019,46.964154],[7.729378,46.9642048],[7.7294629,46.9642555],[7.7295734,46.9643182],[7.7296507,46.9643549],[7.7297161,46.9643783],[7.7297816,46.9643977],[7.7298378,46.9644087],[7.7298934,46.9644138],[7.7299497,46.9644144],[7.7300072,46.9644103],[7.730071,46.9644025],[7.7301469,46.9643857],[7.7302137,46.9643689],[7.7303972,46.9643117],[7.7305009,46.9642896],[7.7305882,46.9642744],[7.7306511,46.9642716],[7.7307155,46.9642767],[7.7307748,46.964289],[7.7308314,46.9643074],[7.7308711,46.9643286],[7.7309051,46.9643594],[7.7309416,46.9644025],[7.7309558,46.9644378],[7.7309611,46.9644768],[7.7309647,46.964522],[7.73095,46.9647189],[7.730958,46.9647713],[7.7309717,46.9647987],[7.7309926,46.9648418]]}},{"type":"Feature","properties":{"kind":"road","highway":"track","motorable":true,"name":null,"ref":null,"bridge":false,"osm_id":182191701},"geometry":{"type":"LineString","coordinates":[[7.7305329,46.980562],[7.7312835,46.9800346],[7.7316054,46.9797271],[7.7316608,46.9796224],[7.7317037,46.979488],[7.7317435,46.9792113],[7.7317437,46.9791253]]}},{"type":"Feature","properties":{"kind":"road","highway":"track","motorable":true,"name":null,"ref":null,"bridge":false,"osm_id":182191702},"geometry":{"type":"LineString","coordinates":[[7.7286085,46.9817541],[7.7288243,46.9816389],[7.7290573,46.9815226],[7.729468,46.9813022],[7.7295987,46.9812237],[7.7298221,46.9810589],[7.7300758,46.9808816],[7.7305329,46.980562]]}},{"type":"Feature","properties":{"kind":"road","highway":"path","motorable":false,"name":null,"ref":null,"bridge":false,"osm_id":182191706},"geometry":{"type":"LineString","coordinates":[[7.7317437,46.9791253],[7.7319487,46.9784828],[7.7319656,46.9784433],[7.7320682,46.9784113]]}},{"type":"Feature","properties":{"kind":"road","highway":"track","motorable":true,"name":null,"ref":null,"bridge":false,"osm_id":182191707},"geometry":{"type":"LineString","coordinates":[[7.7315231,46.9771834],[7.7317663,46.9776117],[7.7318223,46.9778545],[7.7319259,46.9780873]]}},{"type":"Feature","properties":{"kind":"road","highway":"track","motorable":true,"name":null,"ref":null,"bridge":true,"osm_id":182191709},"geometry":{"type":"LineString","coordinates":[[7.7315231,46.9771834],[7.7314343,46.9772055]]}},{"type":"Feature","properties":{"kind":"road","highway":"track","motorable":true,"name":null,"ref":null,"bridge":false,"osm_id":182191711},"geometry":{"type":"LineString","coordinates":[[7.7270219,46.9804971],[7.7271721,46.9806124],[7.7273544,46.9806636],[7.7275502,46.9808777],[7.7280089,46.9813974],[7.7281672,46.9815474],[7.7283335,46.9816719],[7.7284123,46.981716],[7.7286085,46.9817541]]}},{"type":"Feature","properties":{"kind":"road","highway":"track","motorable":true,"name":null,"ref":null,"bridge":false,"osm_id":263195239},"geometry":{"type":"LineString","coordinates":[[7.7252795,46.9797002],[7.725238,46.9796319],[7.7250038,46.9793441],[7.7248613,46.979097],[7.7247149,46.978713],[7.7246836,46.9784881],[7.7247462,46.978357],[7.7247905,46.9782024],[7.7248448,46.9779927],[7.72488,46.9779416],[7.7249622,46.9779271],[7.7250322,46.9779333],[7.7250691,46.977961],[7.7251379,46.9780812],[7.7252592,46.978356],[7.7254612,46.9786515],[7.7258976,46.9793172],[7.7262628,46.9796933],[7.72636,46.9797793],[7.7265708,46.9800055]]}},{"type":"Feature","properties":{"kind":"road","highway":"track","motorable":true,"name":null,"ref":null,"bridge":false,"osm_id":263196244},"geometry":{"type":"LineString","coordinates":[[7.7221896,46.9823276],[7.7222099,46.9822604],[7.7222119,46.9822194],[7.7222102,46.9821805],[7.7222023,46.9821294],[7.7221609,46.9819288],[7.7221596,46.9818977],[7.7221645,46.9818642],[7.7221788,46.9818218],[7.7221976,46.9817669],[7.7222002,46.9817341],[7.7221976,46.9817104],[7.7221882,46.9816915],[7.7221719,46.9816704],[7.7221503,46.9816556],[7.7221251,46.981642],[7.7220268,46.9816207],[7.7219754,46.9816158],[7.7219212,46.9816158],[7.7218757,46.9816237],[7.7218216,46.9816398],[7.7217648,46.9816682],[7.7217095,46.9817043],[7.7214626,46.981922],[7.7212318,46.9821204],[7.7211818,46.9821484],[7.7211509,46.9821557],[7.7211125,46.9821503],[7.7210721,46.9821348],[7.7204997,46.9818122]]}},{"type":"Feature","properties":{"kind":"road","highway":"residential","motorable":true,"name":null,"ref":null,"bridge":false,"osm_id":263613028},"geometry":{"type":"LineString","coordinates":[[7.7106586,46.9650144],[7.7106277,46.9650307],[7.7106011,46.965047],[7.7105824,46.9650616],[7.7105665,46.9650801],[7.7105491,46.9651081],[7.7105372,46.9651454],[7.7105317,46.9651851],[7.7105301,46.9652272],[7.710534,46.965263],[7.7105411,46.9652938],[7.7105533,46.9653227],[7.7105943,46.9654059],[7.7106099,46.965443],[7.7106136,46.9654554],[7.7106157,46.9654745],[7.7106177,46.9655093],[7.7106087,46.9656597],[7.7106095,46.9657062],[7.7106131,46.9657354],[7.7106225,46.9657753],[7.7106613,46.9658998],[7.7106836,46.9659801],[7.7106934,46.9660191],[7.7106988,46.966057],[7.7107316,46.9663362],[7.7107378,46.966471],[7.7107286,46.9665075],[7.7107087,46.9665482],[7.7106874,46.9665817],[7.71066,46.9666079],[7.7106297,46.9666271],[7.7105841,46.9666474],[7.7104893,46.9666822],[7.7103304,46.9667317],[7.7102683,46.9667559],[7.7102104,46.9667882],[7.7101464,46.966831],[7.7100904,46.9668821],[7.7100419,46.9669405],[7.7099565,46.967072],[7.7099297,46.96718],[7.709927,46.9672972],[7.7099511,46.9674088],[7.7100316,46.9675241],[7.7101308,46.9676303],[7.7102623,46.9677273],[7.7104499,46.9678142],[7.7104876,46.9678316],[7.7107665,46.9679433],[7.7108684,46.9679945],[7.710906,46.9680476],[7.7109104,46.9681054],[7.7109114,46.968119],[7.7108818,46.9681703],[7.7108228,46.9682124],[7.7107075,46.9682416],[7.7106056,46.9682471],[7.710501,46.9682362],[7.7103722,46.9682197],[7.7102596,46.9682252],[7.7102126,46.9682267],[7.7101469,46.9682288],[7.7100074,46.9682563],[7.7098519,46.9682947],[7.7097178,46.968346],[7.7096319,46.9683753],[7.7095622,46.9683936],[7.709471,46.9683972],[7.7093932,46.9683844],[7.7093288,46.9683478],[7.7092725,46.9683075],[7.7092108,46.9682508],[7.7090901,46.968119],[7.708948,46.9679964],[7.7088031,46.9678994],[7.7086717,46.9678554],[7.7085591,46.9678262],[7.7084464,46.9678243],[7.7083418,46.9678609],[7.7082855,46.9679104],[7.7082533,46.9679744],[7.7082586,46.9680476],[7.7083016,46.9681446],[7.7083498,46.9682837],[7.7083445,46.9683661],[7.7083016,46.9684521],[7.7082238,46.968507],[7.7081379,46.96854],[7.7080253,46.9685601],[7.7078563,46.9685656],[7.7076471,46.9685803],[7.7074813,46.9686105],[7.7072872,46.9686569],[7.7071023,46.9686992],[7.7069646,46.9687154],[7.7068223,46.9687167],[7.7067031,46.9687062],[7.7065435,46.9686788],[7.7064445,46.9686718],[7.7063545,46.9686775],[7.706296,46.9686924],[7.7062487,46.9687137],[7.7062157,46.9687515],[7.7061973,46.9688273],[7.706188,46.9688676],[7.7062041,46.9689536],[7.7062336,46.9690452],[7.7062309,46.9691275],[7.7061853,46.9691989],[7.7061048,46.9692611],[7.7059654,46.9693435],[7.7057696,46.9694606],[7.7056596,46.9695613],[7.7055925,46.969662],[7.7055738,46.9697517],[7.7055845,46.9698505],[7.7056194,46.9699493],[7.7056918,46.9700372],[7.7057374,46.9701141],[7.7057374,46.9701653],[7.7057052,46.9702147],[7.7056489,46.9702367],[7.7055684,46.9702404],[7.705496,46.970222],[7.7054236,46.970169],[7.7052868,46.9700463],[7.7050373,46.9698889],[7.704863,46.9698102],[7.7047369,46.9697645],[7.7046511,46.9697517],[7.7045733,46.9697626],[7.7044714,46.9697846]]}},{"type":"Feature","properties":{"kind":"road","highway":"track","motorable":true,"name":null,"ref":null,"bridge":false,"osm_id":266854635},"geometry":{"type":"LineString","coordinates":[[7.7311461,46.9655619],[7.7311002,46.965575],[7.7310822,46.9655844],[7.7310712,46.9655975],[7.7310688,46.9656031],[7.7310634,46.9656157],[7.7310635,46.9656388],[7.7310678,46.9656648],[7.7311036,46.9657913],[7.7311824,46.9660534],[7.7311998,46.9661236],[7.7312136,46.9661975],[7.7312132,46.9662296],[7.7312128,46.9662648],[7.7312104,46.9663204],[7.7312172,46.9663597],[7.7312302,46.9663977],[7.7312563,46.9664371],[7.7313454,46.9665453],[7.7313635,46.9665797],[7.7313757,46.9666275],[7.7313726,46.9666592],[7.7313584,46.9666852],[7.7313377,46.9667049],[7.7313131,46.9667217]]}},{"type":"Feature","properties":{"kind":"road","highway":"track","motorable":true,"name":null,"ref":null,"bridge":false,"osm_id":266854636},"geometry":{"type":"LineString","coordinates":[[7.7296508,46.9650817],[7.7290074,46.9647994],[7.7288208,46.9647303],[7.7287176,46.964692],[7.728496,46.9646423],[7.7282632,46.9646111],[7.7275649,46.9645731],[7.7271794,46.9645164],[7.7270175,46.9644717],[7.7267857,46.964389],[7.7259457,46.9641298],[7.7257517,46.9640531],[7.7255774,46.9640064],[7.7254721,46.964001],[7.7253342,46.9639833],[7.7251093,46.9639799],[7.7248876,46.9639888]]}},{"type":"Feature","properties":{"kind":"road","highway":"track","motorable":true,"name":null,"ref":null,"bridge":false,"osm_id":267436189},"geometry":{"type":"LineString","coordinates":[[7.7150461,46.9773302],[7.7149819,46.9773173],[7.7142949,46.9772921],[7.7142085,46.9772833],[7.714142,46.9772734],[7.7139632,46.9772308],[7.713471,46.9770925],[7.713294,46.9770495],[7.7130957,46.9770065],[7.7126763,46.9769308],[7.7125029,46.9768904],[7.7124033,46.9768608],[7.7123874,46.9768527],[7.7122938,46.976805],[7.7121516,46.9767171],[7.7119853,46.9765909],[7.7117827,46.9764021],[7.7114447,46.9760342],[7.7112804,46.9761078],[7.7110798,46.9761092],[7.7107739,46.9760953],[7.7104639,46.9760649],[7.7102431,46.9760178],[7.7097844,46.9761239],[7.7096101,46.9761624],[7.7094962,46.976187]]}},{"type":"Feature","properties":{"kind":"road","highway":"track","motorable":true,"name":null,"ref":null,"bridge":false,"osm_id":267436201},"geometry":{"type":"LineString","coordinates":[[7.7134923,46.9809399],[7.7134175,46.981188],[7.7133981,46.9812598],[7.7133777,46.9813022],[7.7133457,46.9813451],[7.7133119,46.9813809],[7.713029,46.9815811],[7.7128046,46.9817559],[7.7127777,46.9817687],[7.7127473,46.9817783],[7.7127056,46.9817842],[7.7126691,46.9817853],[7.7126166,46.9817803],[7.7119121,46.9815919]]}},{"type":"Feature","properties":{"kind":"road","highway":"track","motorable":true,"name":null,"ref":null,"bridge":false,"osm_id":268150639},"geometry":{"type":"LineString","coordinates":[[7.7284123,46.981716],[7.7284447,46.9817566],[7.7284557,46.9818034],[7.7284465,46.9818482]]}},{"type":"Feature","properties":{"kind":"road","highway":"track","motorable":true,"name":null,"ref":null,"bridge":false,"osm_id":283854512},"geometry":{"type":"LineString","coordinates":[[7.7314343,46.9772055],[7.7313821,46.9772392],[7.7313586,46.9772762],[7.7313474,46.9773322],[7.7313514,46.9776449],[7.7313939,46.9778566],[7.731425,46.9779505],[7.7314299,46.9780201],[7.73144,46.9784332],[7.731469,46.9785295],[7.731524,46.9786085],[7.7315993,46.9787082],[7.7316631,46.9788281],[7.7317141,46.9789726],[7.7317437,46.9791253]]}},{"type":"Feature","properties":{"kind":"road","highway":"track","motorable":true,"name":null,"ref":null,"bridge":false,"osm_id":295691068},"geometry":{"type":"LineString","coordinates":[[7.7208678,46.9674245],[7.7208166,46.9671749],[7.7208033,46.9670943],[7.7207925,46.9666976],[7.7208049,46.9664505],[7.7208262,46.9663586],[7.7208658,46.9662793],[7.721164,46.96572],[7.7211916,46.9656329],[7.7212069,46.9655567],[7.7212107,46.9654884],[7.721199,46.9653513],[7.7212027,46.96527],[7.7212178,46.9651867],[7.7213293,46.9646873],[7.7213352,46.9646126],[7.7213301,46.9645489],[7.7212575,46.9642102],[7.721247,46.9641589],[7.7212452,46.9641218],[7.7212505,46.9640822],[7.7212646,46.9640411],[7.7212852,46.9639805],[7.7213349,46.9638685],[7.7213595,46.9638008],[7.721386,46.9636905],[7.7214336,46.9635175],[7.7214446,46.9633922],[7.7214254,46.963273],[7.7213785,46.9631477],[7.7212847,46.9630094],[7.721182,46.9629069],[7.7208996,46.9626607],[7.7207905,46.962562],[7.7205384,46.9621382],[7.7202948,46.9616113]]}},{"type":"Feature","properties":{"kind":"road","highway":"path","motorable":false,"name":null,"ref":null,"bridge":false,"osm_id":295691075},"geometry":{"type":"LineString","coordinates":[[7.7313131,46.9667217],[7.7314196,46.966755],[7.7315326,46.9667684],[7.7318498,46.9667619],[7.7321386,46.9668533]]}},{"type":"Feature","properties":{"kind":"road","highway":"track","motorable":true,"name":null,"ref":null,"bridge":false,"osm_id":295691080},"geometry":{"type":"LineString","coordinates":[[7.7317361,46.975047],[7.7317282,46.9750477],[7.7317062,46.9750497],[7.7316672,46.9750357],[7.7313749,46.9748829],[7.7312852,46.9748072],[7.7312173,46.9747569],[7.7307452,46.9744617],[7.7305317,46.9743456],[7.7304809,46.9743216],[7.7304566,46.9743152],[7.7304295,46.9743156],[7.7304093,46.9743202],[7.7303908,46.9743348],[7.7303822,46.97436],[7.730383,46.9743912],[7.7304145,46.9745005],[7.7304498,46.9746475],[7.7304875,46.9747542],[7.7305412,46.9748827],[7.7305478,46.9749342],[7.730494,46.9750467],[7.7303947,46.9750485],[7.7302955,46.9749021],[7.7301248,46.9746543],[7.7299429,46.9743545],[7.7298797,46.9743696],[7.7298958,46.9744885],[7.7298985,46.9747996],[7.7300729,46.975065],[7.7303116,46.9755957],[7.7306505,46.9761257],[7.731262,46.9767772],[7.7314337,46.9770261],[7.7315231,46.9771834]]}},{"type":"Feature","properties":{"kind":"road","highway":"track","motorable":true,"name":null,"ref":null,"bridge":false,"osm_id":295691090},"geometry":{"type":"LineString","coordinates":[[7.7321386,46.9668533],[7.7321413,46.966835],[7.7321475,46.9667861],[7.7321415,46.966753],[7.7321273,46.9667217],[7.7321071,46.9666825],[7.7320701,46.9666408],[7.7317775,46.9663724],[7.7314819,46.9660973],[7.7313938,46.9660054],[7.7313553,46.9659583],[7.7313173,46.9659015],[7.7312872,46.9658496],[7.7312408,46.965756],[7.7311461,46.9655619],[7.7309182,46.9650655],[7.7309036,46.9650245],[7.7309023,46.9649985],[7.7309071,46.9649677],[7.7309351,46.96492],[7.7309926,46.9648418],[7.731096,46.9648346],[7.7311307,46.9648295],[7.7311591,46.9648215],[7.7312064,46.9647983],[7.731237,46.9647745],[7.7312597,46.9647358],[7.7312803,46.9646568],[7.7313405,46.9643655],[7.7314104,46.9640804],[7.7314239,46.9640135],[7.7314251,46.9639508],[7.7314218,46.9639023],[7.7314104,46.9638558],[7.7313867,46.9638153],[7.7313069,46.9637228],[7.7312571,46.9636855],[7.7311953,46.9636544],[7.73114,46.9636319],[7.7310487,46.9636097],[7.7309814,46.9636012],[7.7309111,46.9635964],[7.7308555,46.9635976],[7.7308029,46.9636036],[7.7307378,46.9636197],[7.7305274,46.9636958],[7.7303315,46.9637708],[7.7301447,46.9638538],[7.7300904,46.9638724],[7.7300409,46.963884],[7.7299764,46.9638907],[7.7299055,46.9638865],[7.7298216,46.9638733],[7.7297553,46.9638524],[7.7296723,46.9638118],[7.7295892,46.9637481],[7.7295385,46.9636947],[7.7295111,46.96365],[7.7294943,46.9635837],[7.7294739,46.9634305],[7.7294697,46.9633175],[7.7294591,46.9632696],[7.7294379,46.9632377],[7.7294008,46.9632059],[7.7293489,46.9631786],[7.7282763,46.9628736],[7.7282357,46.9628602],[7.7281991,46.9628439],[7.7281655,46.9628239],[7.7281414,46.9628031],[7.7281208,46.9627755],[7.7281033,46.9627437],[7.7280979,46.962713],[7.7281017,46.9626884],[7.7281102,46.9626672],[7.7281254,46.9626454],[7.728152,46.9626196],[7.7281874,46.9625964],[7.7282296,46.9625736],[7.7286087,46.9623862],[7.7287042,46.9623452],[7.7288614,46.9622864],[7.7289685,46.9622467],[7.7290651,46.9622132],[7.7292246,46.9621629],[7.7292762,46.9621494],[7.7293316,46.9621395],[7.7294437,46.9621305],[7.7295518,46.9621221],[7.7295892,46.9621142],[7.7296221,46.9621023],[7.7296524,46.9620846],[7.7296739,46.9620629],[7.7296863,46.9620423],[7.7296914,46.9620162],[7.7296892,46.9619891],[7.729681,46.9619614],[7.7296603,46.9619346],[7.7296351,46.9619078],[7.7295815,46.961861],[7.7293662,46.9617239],[7.7292721,46.9616547],[7.7292537,46.9616362],[7.7292407,46.9616143],[7.7292346,46.961591],[7.7292365,46.96157],[7.7292463,46.9615357],[7.72926,46.9615098],[7.7292797,46.9614872],[7.7293034,46.9614689],[7.7293275,46.9614561],[7.7293586,46.9614433],[7.7294124,46.9614253],[7.7294614,46.9614099],[7.730062,46.9612908],[7.730392,46.9612399],[7.7304999,46.9612289],[7.7306151,46.9612306],[7.7307045,46.9612242],[7.7308193,46.9611948],[7.731655,46.9609396],[7.732386,46.9607181],[7.7325013,46.9606771],[7.7326138,46.9606296],[7.7327032,46.9605807],[7.7328564,46.9604452],[7.7330032,46.9602842],[7.7331019,46.9601885],[7.7331496,46.9601574],[7.7331851,46.9601458],[7.733241,46.9601422],[7.7332857,46.960156],[7.7333246,46.9601818],[7.7333558,46.9602149],[7.7333666,46.960252],[7.733365,46.9602824],[7.7333441,46.9603204],[7.7332564,46.9604379],[7.7330436,46.9606634],[7.732841,46.9608458],[7.7326891,46.9609473],[7.7325426,46.9610299],[7.7324695,46.9610698],[7.7323735,46.9611078],[7.732227,46.961162],[7.7321499,46.9611944],[7.7320661,46.9612406],[7.7318598,46.9613609],[7.7316452,46.9614804],[7.7314605,46.9615673],[7.7311201,46.9616984],[7.7310809,46.9617227],[7.7310553,46.9617517],[7.7310451,46.9617879],[7.7310481,46.9618131],[7.7310621,46.9618437],[7.7310873,46.961872],[7.7311213,46.9618954],[7.7311645,46.9619074],[7.7312185,46.9619081],[7.731264,46.9619012],[7.7317524,46.9617576],[7.7325718,46.9615589],[7.733127,46.961439],[7.7332472,46.9614195],[7.7333762,46.9614012],[7.7338063,46.9613816],[7.7340829,46.9613772],[7.7342647,46.9613665],[7.7343897,46.9613552],[7.7346318,46.9613296],[7.7347906,46.9613137],[7.7349049,46.9613103],[7.7350117,46.9613122],[7.7351876,46.9613274],[7.7353297,46.9613459],[7.7354212,46.961365],[7.7355128,46.9613878],[7.735592,46.9614149],[7.735651,46.9614419],[7.7357268,46.9614882],[7.7359042,46.9615984],[7.7363799,46.9618637],[7.7368343,46.9621176],[7.7370278,46.962201],[7.737192,46.9622696],[7.7373011,46.9623057],[7.7373879,46.962329],[7.7375158,46.9623549],[7.7380842,46.9624329],[7.7381699,46.9624503],[7.7382633,46.9624754],[7.7383531,46.9625065],[7.7384288,46.9625408],[7.7385162,46.9625877],[7.7388891,46.9628065],[7.7390585,46.9629093],[7.7391252,46.962937],[7.7392088,46.9629618],[7.7392764,46.9629722],[7.7393723,46.9629781],[7.7394664,46.9629791],[7.739834,46.9629615]]}},{"type":"Feature","properties":{"kind":"road","highway":"track","motorable":true,"name":null,"ref":null,"bridge":false,"osm_id":295691095},"geometry":{"type":"LineString","coordinates":[[7.7312653,46.9667365],[7.7312399,46.9667412],[7.7312042,46.9667426],[7.731174,46.9667403],[7.7311436,46.9667325],[7.7310668,46.9666989],[7.7309705,46.9666524],[7.7307908,46.9665469],[7.7307311,46.9664984],[7.7305987,46.9663318],[7.7303965,46.9660314],[7.730087,46.9654477],[7.7299077,46.9652559],[7.7296508,46.9650817]]}},{"type":"Feature","properties":{"kind":"road","highway":"track","motorable":true,"name":null,"ref":null,"bridge":false,"osm_id":385832370},"geometry":{"type":"LineString","coordinates":[[7.7240493,46.9692229],[7.7241416,46.9693363],[7.7241705,46.9693813],[7.7241847,46.9694135],[7.7241896,46.9694445],[7.7241901,46.9694785],[7.7241734,46.969546],[7.7241482,46.9696193],[7.724142,46.9696588],[7.7241421,46.969708],[7.7241507,46.9697703],[7.7241548,46.9698477],[7.7241484,46.9698992],[7.7241228,46.9699805],[7.7240654,46.9701258],[7.7240533,46.9701674],[7.7238902,46.9701692],[7.7238501,46.970188],[7.7238227,46.9702162],[7.7237935,46.9702656],[7.7237643,46.9703569],[7.7237524,46.9704975],[7.7237582,46.9705526],[7.7237704,46.9705948],[7.7237991,46.9706438],[7.7238528,46.9707009],[7.7239197,46.9707547],[7.7239669,46.970778],[7.7240289,46.9708035],[7.724154,46.9711724]]}},{"type":"Feature","properties":{"kind":"road","highway":"track","motorable":true,"name":null,"ref":null,"bridge":false,"osm_id":385832383},"geometry":{"type":"LineString","coordinates":[[7.7260592,46.9730414],[7.7262827,46.9732137],[7.7264403,46.9733211],[7.726562,46.9733758],[7.7266811,46.9733996],[7.7267971,46.9734062],[7.7269029,46.9734058],[7.7271105,46.973377],[7.7274481,46.9736257],[7.7276292,46.9736759],[7.7278679,46.9736873],[7.7280536,46.9737393],[7.7283734,46.9738852],[7.728597,46.973956],[7.7287431,46.9740129],[7.7290003,46.9741367],[7.7290522,46.9741544],[7.7290955,46.9741584],[7.7291246,46.9741502],[7.7291648,46.9741358],[7.729183,46.9741219],[7.7292626,46.9740488],[7.7293807,46.9738897],[7.729437,46.9738045],[7.7294729,46.9736827],[7.7295753,46.9735502],[7.7296097,46.9735169],[7.7296995,46.9734432],[7.7297463,46.973418],[7.7297689,46.9734092],[7.7297968,46.973404],[7.7298179,46.9734028],[7.7298379,46.9734071],[7.7298557,46.9734155],[7.7298651,46.9734271],[7.729868,46.9734397],[7.7298666,46.9734685],[7.7298536,46.9735074],[7.7298438,46.9735698],[7.7298356,46.9736426],[7.729832,46.9737631],[7.7298797,46.9743696]]}},{"type":"Feature","properties":{"kind":"road","highway":"track","motorable":true,"name":null,"ref":null,"bridge":false,"osm_id":396777987},"geometry":{"type":"LineString","coordinates":[[7.7192124,46.9727246],[7.7193262,46.9727372],[7.7195074,46.9727352],[7.719665,46.9727371],[7.7197925,46.9727473],[7.7198993,46.9727595],[7.7200087,46.9727841],[7.7202372,46.9728198],[7.7203533,46.9728366],[7.7204488,46.9728584],[7.7205272,46.9728828],[7.7205981,46.9729143],[7.7206624,46.9729535],[7.7207001,46.9729837],[7.7207478,46.9730364]]}},{"type":"Feature","properties":{"kind":"road","highway":"track","motorable":true,"name":null,"ref":null,"bridge":false,"osm_id":396777991},"geometry":{"type":"LineString","coordinates":[[7.7109104,46.9681054],[7.7110269,46.9681648],[7.7111287,46.9682112],[7.7111685,46.968213],[7.7112148,46.9682093],[7.7113044,46.9681842],[7.7113863,46.968152],[7.7114908,46.9680981],[7.7116002,46.9680397],[7.7116493,46.968022],[7.7117098,46.9680155],[7.7119721,46.968032],[7.7120977,46.9680295],[7.71231,46.9680139],[7.7123945,46.9680121],[7.7124529,46.9680147],[7.712519,46.968028],[7.7125754,46.9680479],[7.7126024,46.9680692],[7.7126197,46.9680882]]}},{"type":"Feature","properties":{"kind":"road","highway":"track","motorable":true,"name":null,"ref":null,"bridge":false,"osm_id":396777992},"geometry":{"type":"LineString","coordinates":[[7.7133699,46.9725324],[7.7136312,46.972462],[7.7139777,46.9723102],[7.7141286,46.9722358],[7.714266,46.9722134],[7.7144153,46.9722195],[7.7147066,46.9723031],[7.7153294,46.9724386],[7.7157028,46.9724987],[7.7163824,46.9726506],[7.7167632,46.9727382],[7.7170067,46.9727678],[7.7171038,46.9727708]]}},{"type":"Feature","properties":{"kind":"road","highway":"track","motorable":true,"name":null,"ref":null,"bridge":false,"osm_id":396777994},"geometry":{"type":"LineString","coordinates":[[7.7208212,46.9723826],[7.7208762,46.9723596],[7.7209281,46.9723354],[7.7210021,46.9722886],[7.7210506,46.9722624],[7.7211002,46.9722379],[7.7211377,46.9722168],[7.7211709,46.9721936],[7.7211945,46.9721744],[7.7212121,46.9721559],[7.7212398,46.9721178],[7.721275,46.9720572],[7.7212912,46.9720368],[7.7213076,46.9720223],[7.7213289,46.9720086],[7.7213518,46.9719996],[7.7213746,46.9719947],[7.7213947,46.9719934],[7.7214114,46.9719951],[7.7214271,46.9720002],[7.7214397,46.9720083],[7.7214496,46.9720223],[7.7214581,46.9720414],[7.7214592,46.9720552],[7.721457,46.9720696],[7.7214396,46.9721155],[7.7214255,46.9721558],[7.7214239,46.9721747],[7.7214293,46.9722005],[7.7214396,46.9722225],[7.7214637,46.9722509],[7.7214959,46.9722858],[7.7215417,46.9723206],[7.7216038,46.9723611]]}},{"type":"Feature","properties":{"kind":"road","highway":"track","motorable":true,"name":null,"ref":null,"bridge":false,"osm_id":396777995},"geometry":{"type":"LineString","coordinates":[[7.7105301,46.9652272],[7.7103614,46.9652081],[7.7102734,46.9651938],[7.710204,46.9651739],[7.7101445,46.9651471],[7.7101022,46.9651145],[7.7100836,46.9650929],[7.7100741,46.9650669],[7.7100772,46.9650409],[7.7101074,46.9649696],[7.7101359,46.9649054],[7.7101673,46.9648509],[7.7101912,46.9648289],[7.7102188,46.9648157],[7.7102526,46.9648084],[7.7102861,46.9648101],[7.710342,46.9648238],[7.7103826,46.9648398],[7.7104182,46.9648626],[7.7104432,46.9648825],[7.7104785,46.9648988],[7.710535,46.9649138],[7.7105989,46.9649288],[7.710652,46.9649309]]}},{"type":"Feature","properties":{"kind":"road","highway":"track","motorable":true,"name":null,"ref":null,"bridge":false,"osm_id":396777998},"geometry":{"type":"LineString","coordinates":[[7.7137663,46.9687053],[7.7136971,46.9687257]]}},{"type":"Feature","properties":{"kind":"road","highway":"track","motorable":true,"name":null,"ref":null,"bridge":false,"osm_id":396778000},"geometry":{"type":"LineString","coordinates":[[7.7106613,46.9658998],[7.7109409,46.965837],[7.7110442,46.9658045],[7.7111291,46.9657595],[7.7111609,46.9657355],[7.7112202,46.9656719],[7.7113203,46.9655179],[7.7113965,46.9653824],[7.7114242,46.9653501],[7.7114428,46.9653284],[7.7115085,46.9653029],[7.7115877,46.9653141],[7.7116281,46.9653322],[7.7116638,46.9653582],[7.711684,46.9653875],[7.7117206,46.965468],[7.7117667,46.9655889],[7.7118149,46.9656696],[7.7118819,46.9657503],[7.7119654,46.9658106],[7.7120548,46.9658549],[7.7122782,46.9659629],[7.7127281,46.9662007],[7.7131419,46.9664442],[7.7133195,46.9665145],[7.7134637,46.9665598],[7.7136121,46.9666006],[7.7136738,46.9666159],[7.7137503,46.9666299],[7.7138526,46.9666391],[7.7139954,46.9666426],[7.7140914,46.9666381],[7.7141688,46.9666288],[7.7142564,46.9666162],[7.7144432,46.9665726]]}},{"type":"Feature","properties":{"kind":"road","highway":"track","motorable":true,"name":null,"ref":null,"bridge":false,"osm_id":396778006},"geometry":{"type":"LineString","coordinates":[[7.7168155,46.9713277],[7.7168752,46.9713634],[7.7169753,46.9713767]]}},{"type":"Feature","properties":{"kind":"road","highway":"track","motorable":true,"name":null,"ref":null,"bridge":false,"osm_id":396778013},"geometry":{"type":"LineString","coordinates":[[7.7106136,46.9654554],[7.7106885,46.9654701],[7.7107259,46.9654864],[7.7107431,46.9655001],[7.7107557,46.9655169],[7.7107632,46.9656036]]}},{"type":"Feature","properties":{"kind":"road","highway":"track","motorable":true,"name":null,"ref":null,"bridge":false,"osm_id":396778015},"geometry":{"type":"LineString","coordinates":[[7.7170655,46.9739946],[7.7168827,46.9740121],[7.7167244,46.9740111],[7.7166497,46.9740519]]}},{"type":"Feature","properties":{"kind":"road","highway":"track","motorable":true,"name":null,"ref":null,"bridge":false,"osm_id":396778018},"geometry":{"type":"LineString","coordinates":[[7.7169666,46.9744452],[7.7172441,46.9744615],[7.7173412,46.9744656],[7.7173502,46.974542]]}},{"type":"Feature","properties":{"kind":"road","highway":"track","motorable":true,"name":null,"ref":null,"bridge":false,"osm_id":396778020},"geometry":{"type":"LineString","coordinates":[[7.716768,46.9699249],[7.7166914,46.9698578],[7.716608,46.9697829],[7.7165002,46.9697238],[7.7163556,46.9696676],[7.7161211,46.9695862],[7.7158909,46.9694824],[7.7157071,46.9693656],[7.715536,46.9692374],[7.7154008,46.9691148],[7.7153311,46.9690197],[7.7152783,46.9689231],[7.7152355,46.9688541],[7.7151459,46.9687685],[7.715004,46.9687002],[7.7148217,46.9686329],[7.714532,46.968532],[7.7141871,46.9684337],[7.7140822,46.9683886],[7.7140341,46.9683586],[7.7139803,46.968313],[7.7139491,46.9683008],[7.7139194,46.9683023],[7.7138924,46.9683123],[7.7138799,46.9683317],[7.7138794,46.9683527],[7.7138991,46.968381],[7.7140063,46.9684607],[7.7141348,46.9685794],[7.7141646,46.9686148],[7.7141771,46.9686398],[7.7141757,46.9686659],[7.714161,46.9686939],[7.7141377,46.9687155],[7.714108,46.9687334],[7.714066,46.9687491],[7.7140254,46.9687568],[7.713957,46.9687613],[7.7138718,46.968746],[7.7137837,46.9687185],[7.7137663,46.9687053],[7.7137195,46.9686696],[7.7136672,46.968637],[7.7135821,46.9686156],[7.7135358,46.9686268],[7.7134641,46.9686706],[7.7134178,46.9687236],[7.7134133,46.9687766]]}},{"type":"Feature","properties":{"kind":"road","highway":"track","motorable":true,"name":null,"ref":null,"bridge":false,"osm_id":396778021},"geometry":{"type":"LineString","coordinates":[[7.7171076,46.9739147],[7.7173114,46.9739469],[7.7175589,46.9739818],[7.7175833,46.9739894],[7.7175961,46.9740081],[7.7175888,46.974059],[7.7175566,46.9741431],[7.7175187,46.9742214]]}},{"type":"Feature","properties":{"kind":"road","highway":"track","motorable":true,"name":null,"ref":null,"bridge":false,"osm_id":396778023},"geometry":{"type":"LineString","coordinates":[[7.7169827,46.9745916],[7.7171097,46.9746168],[7.7172368,46.9746403],[7.7173004,46.9746471],[7.7173582,46.9746521],[7.7175085,46.9746521],[7.7176265,46.9746399]]}},{"type":"Feature","properties":{"kind":"road","highway":"track","motorable":true,"name":null,"ref":null,"bridge":false,"osm_id":396778026},"geometry":{"type":"LineString","coordinates":[[7.7168708,46.9714628],[7.7169036,46.9714103],[7.7169753,46.9713767],[7.7171023,46.9713583],[7.7172606,46.9713206],[7.7173338,46.9712972]]}},{"type":"Feature","properties":{"kind":"road","highway":"track","motorable":true,"name":null,"ref":null,"bridge":false,"osm_id":396778027},"geometry":{"type":"LineString","coordinates":[[7.7171038,46.9727708],[7.7172307,46.972779],[7.7172979,46.9728045],[7.7174682,46.9728992],[7.7175697,46.9729441],[7.7176411,46.9729634]]}},{"type":"Feature","properties":{"kind":"road","highway":"track","motorable":true,"name":null,"ref":null,"bridge":false,"osm_id":396778028},"geometry":{"type":"LineString","coordinates":[[7.7173253,46.9736014],[7.717322,46.973568],[7.7173244,46.9735325],[7.717335,46.9734773],[7.7173476,46.9734055],[7.7173517,46.9732702],[7.7173502,46.9730745],[7.7173084,46.9728391],[7.7172979,46.9728045]]}},{"type":"Feature","properties":{"kind":"road","highway":"track","motorable":true,"name":null,"ref":null,"bridge":false,"osm_id":396778031},"geometry":{"type":"LineString","coordinates":[[7.7170096,46.974846],[7.7168558,46.974915],[7.716578,46.9749741],[7.7164774,46.9750243],[7.7164027,46.9750689],[7.7161938,46.9752126],[7.7161215,46.9752762],[7.7160949,46.9753066]]}},{"type":"Feature","properties":{"kind":"road","highway":"track","motorable":true,"name":null,"ref":null,"bridge":false,"osm_id":396778033},"geometry":{"type":"LineString","coordinates":[[7.7160949,46.9753066],[7.7160598,46.9753677],[7.7159418,46.9757384],[7.7157267,46.9762928],[7.7156102,46.976625],[7.7155475,46.9766719],[7.715428,46.9766801]]}},{"type":"Feature","properties":{"kind":"road","highway":"track","motorable":true,"name":null,"ref":null,"bridge":false,"osm_id":396778035},"geometry":{"type":"LineString","coordinates":[[7.717625,46.9713186],[7.7175623,46.971342],[7.7174757,46.971342],[7.7173995,46.9713267],[7.7173338,46.9712972],[7.7173218,46.9712187],[7.7172875,46.9710373]]}},{"type":"Feature","properties":{"kind":"road","highway":"track","motorable":true,"name":null,"ref":null,"bridge":false,"osm_id":396778036},"geometry":{"type":"LineString","coordinates":[[7.7181941,46.9729339],[7.7182194,46.9729849],[7.7182433,46.9730399],[7.7183524,46.9731224],[7.7184465,46.9731591],[7.7185137,46.9731683],[7.7185734,46.9731907]]}},{"type":"Feature","properties":{"kind":"road","highway":"track","motorable":true,"name":null,"ref":null,"bridge":false,"osm_id":396778037},"geometry":{"type":"LineString","coordinates":[[7.713957,46.9687613],[7.7139391,46.9687929],[7.7137972,46.9688357],[7.7136926,46.9688541],[7.7135866,46.9688551],[7.7135089,46.9688449],[7.7134507,46.9688204],[7.7134133,46.9687766]]}},{"type":"Feature","properties":{"kind":"road","highway":"track","motorable":true,"name":null,"ref":null,"bridge":false,"osm_id":396778038},"geometry":{"type":"LineString","coordinates":[[7.7148931,46.9675427],[7.7149206,46.9672797],[7.714925,46.9672081],[7.71492,46.9671285],[7.7149051,46.9670427],[7.7148868,46.9669696],[7.7147961,46.9667533],[7.7147421,46.9666491],[7.7147172,46.9666098],[7.7146872,46.9665791],[7.7146581,46.9665608],[7.7146246,46.9665498],[7.7145993,46.9665462],[7.714574,46.9665456],[7.7145469,46.9665484],[7.7144432,46.9665726]]}},{"type":"Feature","properties":{"kind":"road","highway":"track","motorable":true,"name":null,"ref":null,"bridge":false,"osm_id":396778039},"geometry":{"type":"LineString","coordinates":[[7.7105943,46.9654059],[7.7107901,46.9653834],[7.710847,46.9653727],[7.7109027,46.965358],[7.7109542,46.9653414],[7.7109916,46.9653211],[7.7110126,46.9653008],[7.7110316,46.9652725],[7.7110412,46.965233],[7.7110395,46.9652038],[7.7110296,46.9651858],[7.7110158,46.9651759],[7.7109948,46.9651685],[7.7109305,46.9651643]]}},{"type":"Feature","properties":{"kind":"road","highway":"track","motorable":true,"name":null,"ref":null,"bridge":false,"osm_id":396778040},"geometry":{"type":"LineString","coordinates":[[7.7115085,46.9653029],[7.7115891,46.9652833],[7.7116685,46.9652732],[7.7118111,46.9652622],[7.7119888,46.9652623],[7.7120967,46.9652697],[7.7122596,46.9652907],[7.712859,46.9654108],[7.7130676,46.9654351],[7.7132441,46.9654466],[7.7133452,46.9654424],[7.7134476,46.9654336],[7.7135723,46.9654069],[7.7136659,46.9653704],[7.7137422,46.9653384],[7.7137858,46.9653087],[7.7138159,46.9652681]]}},{"type":"Feature","properties":{"kind":"road","highway":"track","motorable":true,"name":null,"ref":null,"bridge":false,"osm_id":396778042},"geometry":{"type":"LineString","coordinates":[[7.7138159,46.9652681],[7.7138351,46.9652428],[7.7138414,46.9652192],[7.7138417,46.9651945],[7.7138373,46.9651419],[7.7138325,46.965103],[7.7138412,46.9650687],[7.7138669,46.9650452],[7.7138982,46.9650311],[7.7139278,46.9650274],[7.7139868,46.9650313],[7.7140348,46.9650425],[7.7140727,46.9650542],[7.7141154,46.9650764],[7.7141749,46.9651239],[7.7142848,46.9652321],[7.7144601,46.9654079],[7.7146967,46.9655838],[7.7149565,46.9657749],[7.715038,46.9658067],[7.7151274,46.9658306],[7.7152361,46.9658306],[7.7153449,46.9658147],[7.7154808,46.9657722]]}},{"type":"Feature","properties":{"kind":"road","highway":"track","motorable":true,"name":null,"ref":null,"bridge":false,"osm_id":396990643},"geometry":{"type":"LineString","coordinates":[[7.7267971,46.9757248],[7.7268576,46.9758282],[7.7270035,46.9760522],[7.7271262,46.9762943],[7.7271624,46.9763748],[7.7271892,46.9764346],[7.7272173,46.9765885],[7.7272837,46.9766778],[7.7274777,46.9768158],[7.7275523,46.976869],[7.7276501,46.9769527],[7.727728,46.9770998],[7.727791,46.9772344]]}},{"type":"Feature","properties":{"kind":"road","highway":"track","motorable":true,"name":null,"ref":null,"bridge":false,"osm_id":396990676},"geometry":{"type":"LineString","coordinates":[[7.7311601,46.9773023],[7.7312231,46.9774754],[7.7312894,46.977602],[7.7313514,46.9776449]]}},{"type":"Feature","properties":{"kind":"road","highway":"track","motorable":true,"name":null,"ref":null,"bridge":false,"osm_id":396990706},"geometry":{"type":"LineString","coordinates":[[7.7284241,46.9733771],[7.7283174,46.9733915],[7.7282388,46.9733691],[7.7280102,46.9733619],[7.7277077,46.9733507],[7.7274123,46.9733459],[7.7272118,46.9733531],[7.7271105,46.973377]]}},{"type":"Feature","properties":{"kind":"road","highway":"track","motorable":true,"name":null,"ref":null,"bridge":false,"osm_id":397036071},"geometry":{"type":"LineString","coordinates":[[7.7183833,46.9794315],[7.7182698,46.9795397],[7.7182518,46.9795676],[7.7182399,46.9795988],[7.7182353,46.9796415],[7.7182414,46.9796826],[7.7182572,46.9797237],[7.7183041,46.9797859],[7.7183771,46.9798211],[7.718484,46.9798494],[7.7185406,46.9798572],[7.7185708,46.9798469],[7.7185733,46.9798203],[7.7185595,46.9797876],[7.7185431,46.9797576]]}},{"type":"Feature","properties":{"kind":"road","highway":"track","motorable":true,"name":null,"ref":null,"bridge":false,"osm_id":397036074},"geometry":{"type":"LineString","coordinates":[[7.7184551,46.9798048],[7.7185406,46.9798572]]}},{"type":"Feature","properties":{"kind":"road","highway":"service","motorable":true,"name":null,"ref":null,"bridge":false,"osm_id":397036076},"geometry":{"type":"LineString","coordinates":[[7.7140427,46.9800891],[7.7140539,46.9800467],[7.7140551,46.9800248],[7.7140441,46.9800044],[7.7139556,46.979894],[7.7139434,46.9798682],[7.713907,46.9796717],[7.7138932,46.9796546],[7.7138702,46.9796449],[7.7138421,46.9796404],[7.7137758,46.9796377],[7.7137182,46.9796426],[7.7136956,46.9796513],[7.7136818,46.9796641],[7.713677,46.9796892],[7.7136786,46.9797749],[7.7136962,46.9798722],[7.713705,46.9798969],[7.7137227,46.979919],[7.7137954,46.9799872],[7.7138351,46.9800351],[7.7138587,46.9800727],[7.7138648,46.9800915],[7.7138634,46.9801107],[7.7138571,46.9801281],[7.7138458,46.9801455],[7.7138232,46.9801684],[7.7137851,46.980194],[7.7137057,46.9802289],[7.7135885,46.9802695],[7.7134263,46.9803169],[7.7132777,46.9803513],[7.7131927,46.9803641],[7.7131326,46.9803668],[7.7130744,46.9803643],[7.7129948,46.9803525],[7.7128596,46.9803258],[7.7127285,46.9803008]]}},{"type":"Feature","properties":{"kind":"road","highway":"track","motorable":true,"name":null,"ref":null,"bridge":false,"osm_id":397036077},"geometry":{"type":"LineString","coordinates":[[7.7183532,46.9803404],[7.7182538,46.9802477],[7.7181107,46.9801398],[7.7180437,46.9801009],[7.7179456,46.9799902],[7.7178839,46.9798829],[7.7177644,46.9795216],[7.717665,46.9792358],[7.7175845,46.9790178],[7.7174575,46.9788058],[7.7173229,46.9785646],[7.7172574,46.978435],[7.7172446,46.9783941],[7.7172385,46.978361],[7.7172444,46.9783332]]}},{"type":"Feature","properties":{"kind":"road","highway":"track","motorable":true,"name":null,"ref":null,"bridge":false,"osm_id":397036080},"geometry":{"type":"LineString","coordinates":[[7.7207647,46.9807043],[7.7208362,46.9807137],[7.7216105,46.9807094]]}},{"type":"Feature","properties":{"kind":"road","highway":"track","motorable":true,"name":null,"ref":null,"bridge":false,"osm_id":397036086},"geometry":{"type":"LineString","coordinates":[[7.7122841,46.9809736],[7.7124366,46.9810386],[7.7125291,46.981109],[7.7125718,46.9812121]]}},{"type":"Feature","properties":{"kind":"road","highway":"track","motorable":true,"name":null,"ref":null,"bridge":false,"osm_id":397036092},"geometry":{"type":"LineString","coordinates":[[7.717118,46.9772225],[7.7171307,46.9772921],[7.7171452,46.9773299],[7.7171651,46.9773635],[7.7171893,46.9773892],[7.7172205,46.9774165],[7.7172504,46.9774512]]}},{"type":"Feature","properties":{"kind":"road","highway":"track","motorable":true,"name":null,"ref":null,"bridge":false,"osm_id":397036096},"geometry":{"type":"LineString","coordinates":[[7.7174021,46.9770136],[7.7173543,46.9770677],[7.7172902,46.9770909],[7.7171933,46.9771209],[7.7171455,46.9771604],[7.7171417,46.9771793]]}},{"type":"Feature","properties":{"kind":"road","highway":"track","motorable":true,"name":null,"ref":null,"bridge":false,"osm_id":397036111},"geometry":{"type":"LineString","coordinates":[[7.7169654,46.9776291],[7.7170211,46.977618],[7.7170428,46.9776059],[7.7170568,46.9775886],[7.7170635,46.97757],[7.7170611,46.9775459],[7.7170484,46.9774848],[7.7170457,46.9774247],[7.7170511,46.9773647],[7.7170608,46.977313],[7.7170745,46.9772717],[7.7170891,46.9772464],[7.717118,46.9772225],[7.7171417,46.9771793]]}},{"type":"Feature","properties":{"kind":"road","highway":"track","motorable":true,"name":null,"ref":null,"bridge":false,"osm_id":397036112},"geometry":{"type":"LineString","coordinates":[[7.718661,46.9788513],[7.7186991,46.9789328],[7.7187119,46.9789766],[7.7187175,46.9790155],[7.7187117,46.9790521],[7.7187005,46.9790869],[7.7186821,46.9791218],[7.71865,46.9791585],[7.7185544,46.9792306],[7.7184676,46.9793225],[7.7183833,46.9794315],[7.7184324,46.9795465]]}},{"type":"Feature","properties":{"kind":"road","highway":"track","motorable":true,"name":null,"ref":null,"bridge":false,"osm_id":397036114},"geometry":{"type":"LineString","coordinates":[[7.7200665,46.9794709],[7.7200575,46.9795359],[7.7200373,46.9795755],[7.7199925,46.9796099],[7.7199408,46.9796403],[7.7199078,46.9796758],[7.71989,46.9797087],[7.7198829,46.9797576],[7.719901,46.9798969],[7.7199277,46.9800246],[7.7199526,46.9801244],[7.7199858,46.9802305]]}},{"type":"Feature","properties":{"kind":"road","highway":"track","motorable":true,"name":null,"ref":null,"bridge":false,"osm_id":397036116},"geometry":{"type":"LineString","coordinates":[[7.7188986,46.9793917],[7.7188538,46.9793714],[7.7187846,46.9793662],[7.7187041,46.9793774],[7.7186161,46.9794203],[7.7185494,46.9794735],[7.7184928,46.9795319],[7.7184324,46.9795465]]}},{"type":"Feature","properties":{"kind":"road","highway":"track","motorable":true,"name":null,"ref":null,"bridge":false,"osm_id":397153140},"geometry":{"type":"LineString","coordinates":[[7.7263697,46.9687893],[7.7264308,46.9688561]]}},{"type":"Feature","properties":{"kind":"road","highway":"track","motorable":true,"name":null,"ref":null,"bridge":false,"osm_id":397153149},"geometry":{"type":"LineString","coordinates":[[7.7259234,46.9686696],[7.7260328,46.9687103],[7.7260687,46.968731],[7.7261287,46.9687757]]}},{"type":"Feature","properties":{"kind":"road","highway":"track","motorable":true,"name":null,"ref":null,"bridge":false,"osm_id":397153156},"geometry":{"type":"LineString","coordinates":[[7.7240533,46.9701674],[7.7240964,46.9702674],[7.7241054,46.9703154],[7.7241038,46.970359],[7.7240739,46.9704576]]}},{"type":"Feature","properties":{"kind":"road","highway":"track","motorable":true,"name":null,"ref":null,"bridge":false,"osm_id":397153179},"geometry":{"type":"LineString","coordinates":[[7.7267544,46.9690685],[7.7266241,46.9690961],[7.7265772,46.9691035],[7.726539,46.9691079],[7.7264895,46.9691109],[7.7264502,46.9691105],[7.7264166,46.9691067],[7.7263922,46.9691012],[7.7263668,46.9690927],[7.7263495,46.9690837],[7.7263338,46.9690694],[7.726321,46.9690525],[7.726315,46.9690377],[7.7262966,46.9689513]]}},{"type":"Feature","properties":{"kind":"road","highway":"path","motorable":false,"name":null,"ref":null,"bridge":false,"osm_id":817012826},"geometry":{"type":"LineString","coordinates":[[7.7204997,46.9818122],[7.7200912,46.9815829],[7.7197707,46.9813802],[7.7195859,46.9812634],[7.7189943,46.9809229],[7.7189351,46.9808933],[7.7188095,46.9808304],[7.7186616,46.9806917],[7.7184397,46.9804352],[7.7183532,46.9803404]]}},{"type":"Feature","properties":{"kind":"road","highway":"track","motorable":true,"name":null,"ref":null,"bridge":false,"osm_id":817012827},"geometry":{"type":"LineString","coordinates":[[7.7159391,46.9839145],[7.7157834,46.9836341],[7.7156084,46.9831854],[7.7154324,46.9828009],[7.7153865,46.9826893],[7.7153386,46.9825581],[7.7152059,46.982282],[7.7151018,46.9820296],[7.7150432,46.9819303],[7.7149927,46.981849],[7.7149798,46.981828],[7.7149669,46.9818026],[7.7149623,46.981772],[7.7150092,46.9807826],[7.7153128,46.9800721],[7.7157331,46.9795241],[7.7163962,46.9786829],[7.7167558,46.978205],[7.7170249,46.9778213]]}},{"type":"Feature","properties":{"kind":"road","highway":"track","motorable":true,"name":null,"ref":null,"bridge":false,"osm_id":819044248},"geometry":{"type":"LineString","coordinates":[[7.7261177,46.9749067],[7.7258888,46.9748263],[7.7257132,46.9747397],[7.7255728,46.974701],[7.725427,46.974607]]}},{"type":"Feature","properties":{"kind":"road","highway":"path","motorable":false,"name":null,"ref":null,"bridge":false,"osm_id":819044249},"geometry":{"type":"LineString","coordinates":[[7.7271624,46.9763748],[7.7272985,46.9764387],[7.7276415,46.9766561],[7.7281195,46.9768901],[7.7282195,46.9769122],[7.728341,46.9769307],[7.7284274,46.9769638],[7.7285895,46.9770818],[7.7292349,46.9775737],[7.7293407,46.9776262]]}},{"type":"Feature","properties":{"kind":"road","highway":"path","motorable":false,"name":null,"ref":null,"bridge":false,"osm_id":819044250},"geometry":{"type":"LineString","coordinates":[[7.7268382,46.9797971],[7.7271144,46.9797049],[7.72733,46.9796808],[7.727628,46.9796728],[7.727824,46.9796648],[7.7279769,46.9796354],[7.728271,46.9795043],[7.7286121,46.9793277],[7.7289218,46.979194],[7.7293257,46.9790629],[7.7295531,46.978972],[7.7298001,46.9788302],[7.7300667,46.9787125],[7.7302706,46.9786322],[7.7303804,46.9785573],[7.7304008,46.9785309],[7.7304,46.9784904],[7.730349,46.9783834],[7.730107,46.9780208],[7.7300681,46.9779717],[7.7300562,46.9779249],[7.7300595,46.9777851],[7.7300403,46.9777068],[7.7300099,46.977637],[7.7299448,46.9775477],[7.7297674,46.9773763],[7.7297053,46.97731],[7.7296001,46.9771208]]}},{"type":"Feature","properties":{"kind":"road","highway":"path","motorable":false,"name":null,"ref":null,"bridge":false,"osm_id":819044251},"geometry":{"type":"LineString","coordinates":[[7.7296906,46.9782135],[7.7304008,46.9785309],[7.7305215,46.9785466],[7.730945,46.9785841],[7.7311332,46.9787178],[7.7314233,46.9789292],[7.7315684,46.9790897],[7.7317435,46.9792113]]}},{"type":"Feature","properties":{"kind":"road","highway":"path","motorable":false,"name":null,"ref":null,"bridge":false,"osm_id":886520013},"geometry":{"type":"LineString","coordinates":[[7.7323161,46.9779302],[7.7322811,46.9777464],[7.7322191,46.9775],[7.7322151,46.9772859],[7.7322137,46.9770359],[7.7321989,46.976864],[7.732149,46.9766158],[7.7320871,46.9764843],[7.7320062,46.9762886],[7.7319443,46.9761323],[7.7319106,46.975999],[7.7318298,46.975897],[7.7318432,46.9756911],[7.7318203,46.9755606],[7.7317301,46.9753795],[7.7317247,46.975203],[7.7317361,46.975047]]}},{"type":"Feature","properties":{"kind":"road","highway":"track","motorable":true,"name":null,"ref":null,"bridge":false,"osm_id":886520016},"geometry":{"type":"LineString","coordinates":[[7.7288208,46.9647303],[7.7284234,46.9644604],[7.7280062,46.9643216],[7.7271503,46.964059],[7.7263728,46.9637742],[7.7259446,46.963634],[7.7255357,46.9634771]]}},{"type":"Feature","properties":{"kind":"road","highway":"track","motorable":true,"name":null,"ref":null,"bridge":false,"osm_id":919161734},"geometry":{"type":"LineString","coordinates":[[7.7312132,46.9662296],[7.7313165,46.9662483],[7.7313829,46.9662695],[7.7314379,46.9662949],[7.7314787,46.9663209],[7.7315186,46.9663493],[7.731554,46.9663796],[7.7316962,46.9664907],[7.7317909,46.9665496],[7.7319131,46.9666346],[7.7320101,46.966709],[7.7320628,46.9667597],[7.7321413,46.966835]]}},{"type":"Feature","properties":{"kind":"road","highway":"track","motorable":true,"name":null,"ref":null,"bridge":false,"osm_id":919161735},"geometry":{"type":"LineString","coordinates":[[7.7307063,46.9654839],[7.7307465,46.9655483],[7.7307773,46.9655821],[7.7308072,46.9656025],[7.7308427,46.9656166],[7.7308745,46.9656204],[7.7309427,46.9656153],[7.7310688,46.9656031]]}},{"type":"Feature","properties":{"kind":"road","highway":"track","motorable":true,"name":null,"ref":null,"bridge":false,"osm_id":943626436},"geometry":{"type":"LineString","coordinates":[[7.7231332,46.9818549],[7.7232039,46.9818262],[7.7232152,46.9818122],[7.7232193,46.981794],[7.723208,46.9817325],[7.7232014,46.9817185],[7.7231865,46.9817045],[7.7231465,46.9816864],[7.7230451,46.9816563],[7.7229672,46.9816367],[7.7228927,46.9816219]]}},{"type":"Feature","properties":{"kind":"road","highway":"track","motorable":true,"name":null,"ref":null,"bridge":false,"osm_id":943626437},"geometry":{"type":"LineString","coordinates":[[7.7245012,46.9805649],[7.7245486,46.9805285],[7.7246818,46.9804446],[7.7247607,46.9803886],[7.7247935,46.9803649],[7.7248263,46.9803516],[7.7248806,46.9803404],[7.7249154,46.9803355]]}},{"type":"Feature","properties":{"kind":"road","highway":"path","motorable":false,"name":null,"ref":null,"bridge":false,"osm_id":943626438},"geometry":{"type":"LineString","coordinates":[[7.7210714,46.9763222],[7.7209993,46.9761823],[7.7209673,46.9761406],[7.7208542,46.976028],[7.7207717,46.9759498],[7.7207305,46.9758685],[7.7206739,46.9757935],[7.7205212,46.9756882],[7.7204539,46.9756184],[7.7203317,46.9754255],[7.7202691,46.9752077],[7.7201382,46.9748902],[7.7200288,46.9747276],[7.7199439,46.9745426],[7.7199292,46.9744256],[7.7199292,46.9740914],[7.7199506,46.9740917],[7.7208323,46.9748746],[7.7208769,46.9749041],[7.7209289,46.9749301],[7.7209775,46.9749451],[7.7210671,46.9749532],[7.7211048,46.9749462],[7.7211343,46.9749308],[7.7212078,46.9748664],[7.7213054,46.9747417],[7.7214577,46.9745135],[7.7215529,46.9743604],[7.7216642,46.9742217],[7.7217687,46.9741095],[7.7218956,46.9740045],[7.7219476,46.9739707],[7.7219997,46.9739493],[7.722128,46.9739104]]}},{"type":"Feature","properties":{"kind":"road","highway":"track","motorable":true,"name":null,"ref":null,"bridge":false,"osm_id":943626439},"geometry":{"type":"LineString","coordinates":[[7.72567,46.9760245],[7.7255479,46.9758715],[7.7253935,46.9756977],[7.7252746,46.9756198],[7.7250628,46.9755001],[7.7247986,46.9753556],[7.7247007,46.9753167],[7.7246233,46.9752981],[7.7243773,46.9752608],[7.7239706,46.9752221]]}},{"type":"Feature","properties":{"kind":"road","highway":"path","motorable":false,"name":null,"ref":null,"bridge":false,"osm_id":943626440},"geometry":{"type":"LineString","coordinates":[[7.7191307,46.9768803],[7.7185773,46.9766024],[7.7183397,46.9765074],[7.7182208,46.9764773],[7.7181597,46.9764796],[7.7181122,46.9764935],[7.7180986,46.9765282],[7.7181461,46.9766139],[7.7185468,46.9771815],[7.7187199,46.9773853],[7.718815,46.9775451],[7.71891,46.9776702],[7.7189881,46.9778416],[7.7191137,46.9780246],[7.7194057,46.9783373],[7.7197282,46.9786547],[7.7199014,46.9788006],[7.7200372,46.9788678],[7.7202477,46.9789396],[7.7204208,46.978972],[7.7205396,46.9789766],[7.7206123,46.9789673],[7.7207667,46.9789451],[7.7207916,46.9789483],[7.7208194,46.9789595],[7.7208836,46.9790111],[7.7209329,46.9790649]]}},{"type":"Feature","properties":{"kind":"road","highway":"track","motorable":true,"name":null,"ref":null,"bridge":false,"osm_id":943626443},"geometry":{"type":"LineString","coordinates":[[7.7170249,46.9778213],[7.7169153,46.9778041],[7.7167215,46.9777672],[7.7164523,46.9777003],[7.7163089,46.9776491],[7.7162157,46.9776063],[7.7160969,46.9775326],[7.7160175,46.9774943],[7.7159454,46.9774663],[7.7158529,46.977443],[7.7157389,46.9774217],[7.7155252,46.9773918],[7.7154181,46.9773831],[7.7151911,46.9773212]]}},{"type":"Feature","properties":{"kind":"road","highway":"track","motorable":true,"name":null,"ref":null,"bridge":false,"osm_id":943626444},"geometry":{"type":"LineString","coordinates":[[7.7122665,46.9773738],[7.7123702,46.9772133],[7.7124001,46.9771562],[7.7124101,46.9771167],[7.7124101,46.9770583],[7.7123941,46.9769141],[7.7123874,46.9768527]]}},{"type":"Feature","properties":{"kind":"road","highway":"track","motorable":true,"name":null,"ref":null,"bridge":false,"osm_id":943626445},"geometry":{"type":"LineString","coordinates":[[7.7148242,46.9741275],[7.7149371,46.9741558],[7.7149714,46.9741694],[7.7149929,46.974187],[7.7150086,46.9742201],[7.7150215,46.9742777],[7.7150186,46.9743947],[7.7150329,46.974501],[7.7150658,46.974582],[7.7151101,46.9746483],[7.7151673,46.9747029],[7.7152359,46.9747429],[7.7153102,46.9747751],[7.7153888,46.9748014],[7.7155589,46.9748414],[7.7160035,46.9749389],[7.7161736,46.9749809],[7.7163451,46.9750111],[7.7164774,46.9750243]]}},{"type":"Feature","properties":{"kind":"road","highway":"track","motorable":true,"name":null,"ref":null,"bridge":false,"osm_id":943626446},"geometry":{"type":"LineString","coordinates":[[7.7132799,46.9705561],[7.7133594,46.9705543],[7.7134016,46.9705614],[7.7134555,46.9705741],[7.7135571,46.9706063],[7.713665,46.9706487],[7.7137198,46.970663],[7.7137774,46.9706679],[7.7138339,46.9706715],[7.7138887,46.9706774],[7.7140631,46.9706979],[7.7145983,46.9707471],[7.7146835,46.9707499],[7.7147765,46.9707451],[7.7149808,46.970722],[7.7151825,46.9706938],[7.7153749,46.970665],[7.7154328,46.9706646],[7.7154761,46.9706719],[7.7154957,46.9706794],[7.7155153,46.9706927],[7.7155277,46.9707077],[7.7155654,46.970782],[7.7155804,46.9708316],[7.7155903,46.9709113],[7.715591,46.9709933],[7.7155849,46.9710799],[7.7155644,46.9711695],[7.7155282,46.9712824],[7.7155208,46.9713104],[7.7155184,46.9713349],[7.7155232,46.9713517],[7.7155322,46.9713599],[7.7155486,46.9713655],[7.7156195,46.9713695],[7.7157386,46.9713638],[7.7160699,46.9713333],[7.71632,46.9713171],[7.7165818,46.9713184],[7.7167267,46.9713198],[7.7168155,46.9713277]]}},{"type":"Feature","properties":{"kind":"road","highway":"path","motorable":false,"name":null,"ref":null,"bridge":false,"osm_id":943626447},"geometry":{"type":"LineString","coordinates":[[7.7106099,46.965443],[7.710756,46.9654306],[7.7108508,46.9654178],[7.7109457,46.965413],[7.7110346,46.9654154],[7.7111049,46.9654138],[7.7112032,46.9654002],[7.7113332,46.9653754],[7.7114242,46.9653501]]}},{"type":"Feature","properties":{"kind":"road","highway":"service","motorable":true,"name":null,"ref":null,"bridge":false,"osm_id":943793754},"geometry":{"type":"LineString","coordinates":[[7.7216105,46.9807094],[7.7219591,46.9808518]]}},{"type":"Feature","properties":{"kind":"road","highway":"service","motorable":true,"name":null,"ref":null,"bridge":false,"osm_id":1357777406},"geometry":{"type":"LineString","coordinates":[[7.7317688,46.9816278],[7.7319357,46.9816716],[7.7319929,46.9816551],[7.7322886,46.9817341]]}},{"type":"Feature","properties":{"kind":"road","highway":"unclassified","motorable":true,"name":null,"ref":null,"bridge":false,"osm_id":1376927923},"geometry":{"type":"LineString","coordinates":[[7.7092577,46.9847739],[7.709248,46.98469],[7.7092275,46.9846154],[7.7092022,46.9845666],[7.7090375,46.9843596],[7.7090052,46.9843117],[7.7089795,46.9842496],[7.7089696,46.9842154],[7.7089688,46.9841707],[7.7090097,46.9838849],[7.7090177,46.983829],[7.7090281,46.9837329],[7.7090428,46.9836382],[7.7090911,46.9834975],[7.7091167,46.9834456],[7.7091531,46.983397],[7.709227,46.9833118],[7.709301,46.9832272],[7.7093728,46.9831591],[7.7094742,46.9830816],[7.7095904,46.983007],[7.7104894,46.9824764],[7.7113142,46.9820664],[7.7114338,46.982007],[7.711523,46.9819573],[7.7115877,46.9819145],[7.7116523,46.9818673],[7.7117272,46.9818023],[7.7117873,46.9817453],[7.711855,46.9816671],[7.7119121,46.9815919],[7.7121128,46.9812559],[7.7122841,46.9809736],[7.7124172,46.9807543],[7.7127027,46.9803374],[7.7127285,46.9803008],[7.7127451,46.9802553],[7.713231,46.9787532],[7.713266,46.9786469],[7.7133078,46.9785497],[7.7133637,46.9784672],[7.7134213,46.9783989],[7.7135047,46.9783292],[7.7138219,46.9780714],[7.7142013,46.9777854],[7.7143805,46.9776405],[7.7147627,46.9774082],[7.7148198,46.9773814],[7.7149101,46.9773552],[7.7149873,46.9773383],[7.7150461,46.9773302],[7.7150644,46.9773277],[7.7151616,46.9773218],[7.7151911,46.9773212],[7.715297,46.977319],[7.7154003,46.9773131],[7.7154871,46.9773018],[7.7155656,46.9772847],[7.7156655,46.9772572],[7.7161936,46.977101],[7.7162941,46.977067],[7.7163761,46.9770297],[7.7164172,46.9770096],[7.7164531,46.9769896],[7.7164862,46.9769661]]}},{"type":"Feature","properties":{"kind":"road","highway":"path","motorable":false,"name":null,"ref":null,"bridge":false,"osm_id":1416325578},"geometry":{"type":"LineString","coordinates":[[7.722831,46.9762759],[7.7227525,46.9765736],[7.7226256,46.976839],[7.7226338,46.9769647],[7.7226522,46.9770807],[7.7227054,46.9772274],[7.7227239,46.977395],[7.7226829,46.9776387],[7.7225928,46.97812],[7.7225028,46.9783393],[7.7223574,46.9786145]]}},{"type":"Feature","properties":{"kind":"road","highway":"track","motorable":true,"name":null,"ref":null,"bridge":false,"osm_id":1421363021},"geometry":{"type":"LineString","coordinates":[[7.7207925,46.9666976],[7.7209067,46.9668227],[7.7209513,46.9668562],[7.7210092,46.966882],[7.7210672,46.9668988],[7.7211761,46.9669098]]}},{"type":"Feature","properties":{"kind":"road","highway":"track","motorable":true,"name":null,"ref":null,"bridge":false,"osm_id":1421363024},"geometry":{"type":"LineString","coordinates":[[7.7259234,46.9686696],[7.7257406,46.9686864],[7.7256424,46.9686889],[7.72559,46.9686804],[7.7255561,46.9686694],[7.725532,46.9686535]]}},{"type":"Feature","properties":{"kind":"road","highway":"track","motorable":true,"name":null,"ref":null,"bridge":false,"osm_id":1421743105},"geometry":{"type":"LineString","coordinates":[[7.7181333,46.9668389],[7.7182628,46.9669102],[7.7183467,46.9669461],[7.7184171,46.9669691],[7.7185452,46.9670105],[7.7186514,46.9670506],[7.7187181,46.9670745],[7.7187681,46.9670877],[7.7188076,46.9670919],[7.7188884,46.9670913],[7.7189972,46.9670817],[7.719214,46.9670626]]}},{"type":"Feature","properties":{"kind":"road","highway":"track","motorable":true,"name":null,"ref":null,"bridge":false,"osm_id":1510379743},"geometry":{"type":"LineString","coordinates":[[7.7330157,46.9707914],[7.7329402,46.9708295],[7.7328586,46.9708615],[7.7328074,46.9708691],[7.7327592,46.9708663],[7.7326275,46.970844],[7.7325137,46.9708409],[7.7324359,46.9708611],[7.7323259,46.9709379],[7.7321864,46.9711393],[7.7320908,46.971269],[7.7320642,46.9713202],[7.732053,46.9713584],[7.7320451,46.9715111],[7.7320584,46.9716992],[7.7320067,46.9719704],[7.7319343,46.9724131],[7.7318646,46.9726712],[7.7318308,46.9727261],[7.7316653,46.9728909],[7.7315976,46.9730385],[7.7315576,46.9732784],[7.7315706,46.9733634],[7.7316396,46.9735745],[7.7316768,46.9736631],[7.7317287,46.9737828],[7.7317663,46.9740101],[7.7317575,46.9742161],[7.7316801,46.9743956],[7.7316332,46.9746362],[7.7316457,46.9748347],[7.7316625,46.9749001],[7.7317032,46.9749595],[7.7317284,46.9749928],[7.7317396,46.9750084],[7.7317427,46.9750317],[7.7317361,46.975047]]}},{"type":"Feature","properties":{"kind":"road","highway":"track","motorable":true,"name":null,"ref":null,"bridge":false,"osm_id":1511112400},"geometry":{"type":"LineString","coordinates":[[7.7183041,46.9797859],[7.7183481,46.979876],[7.7185167,46.9800503],[7.7186198,46.9801387],[7.7186714,46.9802245],[7.7186274,46.9803077],[7.7185406,46.9803653],[7.7184412,46.9803764],[7.7183532,46.9803404]]}},{"type":"Feature","properties":{"kind":"road","highway":"track","motorable":true,"name":null,"ref":null,"bridge":false,"osm_id":1511112401},"geometry":{"type":"LineString","coordinates":[[7.7164862,46.9769661],[7.7168539,46.9773507],[7.716904,46.9774124],[7.7169244,46.9774425],[7.7169325,46.9774669],[7.7169427,46.9774997],[7.7169654,46.9776291],[7.7170249,46.9778213],[7.7171633,46.9780133],[7.7171952,46.97809],[7.7172191,46.9781875],[7.7172444,46.9783332]]}},{"type":"Feature","properties":{"kind":"road","highway":"unclassified","motorable":true,"name":null,"ref":null,"bridge":false,"osm_id":1511112402},"geometry":{"type":"LineString","coordinates":[[7.7164862,46.9769661],[7.7165111,46.9769409],[7.7165373,46.9769083],[7.7165718,46.9768534],[7.7165928,46.9768091],[7.7166119,46.9767593],[7.7169872,46.9754518],[7.7170131,46.9753577],[7.7170319,46.9752647],[7.7170413,46.9751958],[7.7170407,46.975124],[7.7170096,46.974846],[7.7169827,46.9745916],[7.7169666,46.9744452],[7.7169654,46.9743936],[7.71697,46.9743421],[7.7169828,46.9742718],[7.7170386,46.974067],[7.7170655,46.9739946],[7.7171076,46.9739147],[7.7171831,46.9738238],[7.7172471,46.9737329],[7.7172948,46.9736559],[7.7173253,46.9736014],[7.7174249,46.9734271],[7.7175952,46.9730811],[7.7176411,46.9729634]]}},{"type":"Feature","properties":{"kind":"road","highway":"track","motorable":true,"name":null,"ref":null,"bridge":false,"osm_id":1511112407},"geometry":{"type":"LineString","coordinates":[[7.7171228,46.972038],[7.7171664,46.9721414],[7.7172615,46.9724145],[7.7173028,46.9725322],[7.7173508,46.9726353],[7.7173869,46.9726978],[7.7174264,46.9727505],[7.7174662,46.9727925],[7.7175275,46.9728428],[7.7176146,46.9729125],[7.7176336,46.972936],[7.7176411,46.9729634]]}},{"type":"Feature","properties":{"kind":"road","highway":"track","motorable":true,"name":null,"ref":null,"bridge":false,"osm_id":1511112408},"geometry":{"type":"LineString","coordinates":[[7.7248876,46.9639888],[7.7248666,46.9641199],[7.7247012,46.9643275],[7.7244008,46.9644666],[7.7240205,46.964495],[7.7237857,46.9644587],[7.7236848,46.9644674],[7.7236497,46.9644812],[7.7231925,46.9647443],[7.7231548,46.9647939],[7.7231327,46.9648409],[7.7231227,46.9648968],[7.7231262,46.9651547],[7.7231352,46.9652019],[7.7231481,46.9652385],[7.7232048,46.9653422],[7.7232959,46.9654499],[7.7233473,46.9655315],[7.723374,46.9656033],[7.7233796,46.9656644],[7.723361,46.9657319],[7.7233208,46.9658105],[7.7232341,46.9659433],[7.7231902,46.9660253],[7.7231586,46.9661145],[7.7231453,46.9661702],[7.7231424,46.9662206],[7.723137,46.9664075],[7.7230718,46.9664807],[7.7230066,46.966531],[7.7229336,46.9665712],[7.722864,46.9665966],[7.7225702,46.9666771],[7.7223193,46.9667517],[7.7221727,46.9667988],[7.7220793,46.9668185],[7.7219448,46.9668269],[7.7216857,46.9668254],[7.7215493,46.9668329],[7.7214533,46.9668426],[7.721315,46.9668736],[7.7211761,46.9669098],[7.7211392,46.9669194],[7.7210793,46.9669407],[7.7210315,46.9669802],[7.7210076,46.9670258],[7.7209957,46.9670806],[7.7209724,46.9672472],[7.7209448,46.9673195],[7.7209206,46.9673636],[7.7208678,46.9674245]]}},{"type":"Feature","properties":{"kind":"road","highway":"path","motorable":false,"name":null,"ref":null,"bridge":false,"osm_id":1558363084},"geometry":{"type":"LineString","coordinates":[[7.7319867,46.9672293],[7.7318378,46.9671292],[7.7315625,46.9669729],[7.7314828,46.9669202],[7.731421,46.966864]]}},{"type":"Feature","properties":{"kind":"road","highway":"steps","motorable":false,"name":null,"ref":null,"bridge":false,"osm_id":1558363085},"geometry":{"type":"LineString","coordinates":[[7.731421,46.966864],[7.7312898,46.9667868],[7.7312653,46.9667365]]}},{"type":"Feature","properties":{"kind":"road","highway":"track","motorable":true,"name":null,"ref":null,"bridge":false,"osm_id":1558363086},"geometry":{"type":"LineString","coordinates":[[7.7313131,46.9667217],[7.7312805,46.9667337],[7.7312653,46.9667365]]}}]}