{"type":"FeatureCollection","name":"teesta_east_rgb_0.5m","source":"OpenStreetMap roads, paths and places","licence":"ODbL 1.0 (c) OpenStreetMap contributors","features":[{"type":"Feature","properties":{"kind":"road","highway":"secondary","motorable":true,"name":"MDR","ref":"MDR","bridge":false,"osm_id":478555227},"geometry":{"type":"LineString","coordinates":[[88.3624111,27.1661297],[88.362626,27.1661752],[88.3628601,27.1662233],[88.3633496,27.166361],[88.3643041,27.1665908],[88.3645305,27.1666269],[88.3647112,27.1666596],[88.3651501,27.1666806],[88.3656167,27.1667095],[88.3659418,27.1667625],[88.3661098,27.166792],[88.3662198,27.1668539],[88.3663518,27.1669172],[88.3664563,27.1670483],[88.3666878,27.1672127],[88.3668395,27.1672733],[88.3670018,27.167321],[88.3671835,27.1673893],[88.3673668,27.1674329],[88.367566,27.1674436],[88.367862,27.1674763],[88.3681872,27.1675978],[88.3683015,27.1676757],[88.3685273,27.1678083],[88.368656,27.1678679],[88.3687608,27.1679431],[88.3688907,27.1681899],[88.3689769,27.1683525],[88.3690992,27.1683223],[88.3693344,27.1682855],[88.3695678,27.1683092],[88.369773,27.1684391],[88.3698864,27.1684814],[88.3703652,27.1682624],[88.370708,27.1682276],[88.3711262,27.168232],[88.371686,27.1680858],[88.3719997,27.1680197],[88.3720339,27.1680232],[88.3720654,27.168031],[88.3721033,27.1680506],[88.3721371,27.1680776],[88.3721633,27.1681133],[88.3721847,27.1681622],[88.3722062,27.1682159],[88.3722237,27.1682708],[88.3721975,27.1683174],[88.3722646,27.1683478],[88.3723559,27.168362],[88.3724176,27.1683559],[88.3724722,27.1683463],[88.3726262,27.1683364],[88.3728194,27.1683961],[88.3730215,27.1684797],[88.3731642,27.1685403],[88.3733631,27.1686591],[88.3734889,27.1687367],[88.3735655,27.1688221],[88.3737865,27.1688789],[88.373961,27.168967],[88.3741295,27.1690352],[88.3742735,27.1691099],[88.3743741,27.1691892],[88.3744909,27.1692912],[88.3745904,27.1693805],[88.374761,27.1694757],[88.3748842,27.1695223],[88.3750031,27.1695332],[88.3751615,27.1695515],[88.3753678,27.1695579],[88.3755457,27.1695513],[88.3757968,27.1695596],[88.3760757,27.1696148],[88.3763705,27.1696415],[88.3765292,27.1696908],[88.3766506,27.1697205],[88.3768052,27.1698297],[88.3768842,27.1699094],[88.3769731,27.1699625],[88.3770459,27.170006],[88.377161,27.169996],[88.3772551,27.1699633],[88.3773717,27.1698988],[88.3774869,27.1698638],[88.3775732,27.1698268],[88.3777107,27.1697775],[88.3778654,27.1697611],[88.3780257,27.169765],[88.3781687,27.1697896],[88.378337,27.1698331],[88.378466,27.1698569],[88.3787279,27.1698202],[88.3788781,27.1698016],[88.3793874,27.1698123],[88.3795713,27.1698084],[88.3797933,27.1698476],[88.3798914,27.1698504],[88.3802222,27.1698012],[88.3803578,27.1697838],[88.3804548,27.169737],[88.380595,27.1697278],[88.3807143,27.1697351],[88.3807938,27.1697553],[88.3808722,27.1697814],[88.3809545,27.1698333],[88.3809961,27.1698621],[88.3810774,27.1699489],[88.381101,27.1700147],[88.3811351,27.1700729],[88.3812278,27.1701578],[88.3812841,27.1702103],[88.381323,27.1702437],[88.3814421,27.1704093],[88.3814952,27.1705212],[88.3816303,27.1705926],[88.3816908,27.1706383],[88.3817535,27.170706],[88.3818262,27.1708093],[88.381925,27.1709344],[88.3820122,27.1710304],[88.3820683,27.1710756],[88.3821364,27.1711093],[88.3822189,27.1711212],[88.3823392,27.1711364],[88.3823978,27.17119],[88.3825718,27.1712594],[88.3827542,27.1713184],[88.3828617,27.1713712],[88.3832315,27.171502],[88.3833158,27.1715098],[88.3834047,27.1714642],[88.3834591,27.1714186],[88.3834926,27.1713956],[88.3835171,27.1713654],[88.3835581,27.1713017],[88.3835675,27.1711816],[88.3835623,27.1711214],[88.3835766,27.1710383],[88.3835812,27.170948],[88.3835689,27.1708642],[88.3835492,27.170694],[88.3835623,27.1704355],[88.3835705,27.170373],[88.3835942,27.1703355],[88.383632,27.1702925],[88.3837159,27.1702409],[88.3840398,27.1699913],[88.3841206,27.1699211],[88.3841821,27.1698078],[88.3842073,27.1696987],[88.384182,27.1695942],[88.3841299,27.1694514],[88.3841054,27.1693649],[88.3841072,27.1692641],[88.3841257,27.1691964],[88.3841476,27.1691301],[88.3841867,27.1689569],[88.3842327,27.1687591],[88.3842622,27.1686315],[88.3842741,27.1685504],[88.3842854,27.1684719],[88.3843085,27.1684121],[88.3843185,27.1683836],[88.3843378,27.1683549],[88.3843688,27.1683138],[88.3844483,27.1682715],[88.3845962,27.1681913],[88.3848408,27.1680848],[88.3849466,27.1679892],[88.3850738,27.1677458],[88.3851653,27.167591],[88.3851767,27.167558],[88.385208,27.1674488],[88.3852117,27.1673658],[88.3851928,27.1673056],[88.3851664,27.1672815],[88.3851399,27.167276],[88.3850933,27.1672786],[88.3850309,27.167289],[88.3849528,27.1672876],[88.3848711,27.167276],[88.3848039,27.1672524],[88.3847124,27.1672086],[88.3846514,27.1671679],[88.3846062,27.1671186],[88.3845913,27.1670667],[88.3846022,27.1669884],[88.384639,27.1668489],[88.3847141,27.1666742],[88.3847785,27.1664496],[88.3847754,27.1662601],[88.3847702,27.166153],[88.3847344,27.1659757],[88.3847039,27.1659091],[88.3846255,27.1656871],[88.3845941,27.1655837],[88.3845481,27.1655006],[88.3845101,27.1654086],[88.3842963,27.1649353],[88.3842494,27.1648076],[88.3841729,27.1642898],[88.3842105,27.1642087],[88.384307,27.1641371],[88.3844398,27.1640977],[88.3845444,27.1640309],[88.384594,27.1639533],[88.3846718,27.1638746],[88.3847643,27.1637683],[88.3849521,27.1636192],[88.3850688,27.1635094],[88.3851144,27.1634307],[88.385105,27.1633495],[88.3850406,27.1632481],[88.3848555,27.1631503],[88.3847576,27.1631062],[88.3845618,27.1630548],[88.3844425,27.1630262],[88.3843526,27.1629797],[88.3842751,27.1627058],[88.384143,27.1625873],[88.3840156,27.1625232],[88.3838856,27.1625318],[88.3837653,27.1625621],[88.3836844,27.1626071],[88.3836351,27.1626623],[88.3835439,27.1627351],[88.3834729,27.1627876],[88.3833669,27.1628592],[88.383198,27.162852],[88.383088,27.1627482],[88.3831013,27.1625394],[88.3831617,27.1623676],[88.3831563,27.1622232],[88.3831054,27.1620752],[88.3830638,27.1619344],[88.3829659,27.1618354],[88.3829103,27.1617615],[88.3828881,27.1616994],[88.3829124,27.1615855],[88.3829517,27.1614962],[88.3830357,27.1614536],[88.3831617,27.1613653],[88.3833167,27.161281],[88.3835037,27.1611465],[88.3836397,27.161003],[88.3837004,27.1608104],[88.3837032,27.1606019],[88.3836595,27.1604588],[88.3836325,27.1602616],[88.3836539,27.1600789],[88.3836633,27.1599728],[88.3836848,27.159795],[88.383737,27.1596124],[88.3837357,27.1594764],[88.3836888,27.1593869],[88.3836231,27.1593308],[88.3835466,27.1592067],[88.3835426,27.1591829],[88.3835413,27.159116],[88.3835333,27.1590194],[88.3835332,27.1589407],[88.3835493,27.1588655],[88.3836224,27.1588216],[88.3837277,27.1587655],[88.3838391,27.1587076],[88.3839926,27.1586657],[88.3841993,27.1586442],[88.3844149,27.1585482],[88.3846576,27.1584273],[88.3850334,27.1582201],[88.3851909,27.1581761],[88.3852647,27.1581575],[88.3853566,27.1581546],[88.3854246,27.1581902],[88.3855444,27.1582338],[88.3856618,27.1582832],[88.3857609,27.1583069],[88.3858068,27.1582834],[88.3858607,27.1582512],[88.3859606,27.1582534],[88.3860934,27.1583165],[88.3862168,27.1584096],[88.3863294,27.1585051],[88.3865775,27.1588738],[88.3866271,27.1589597],[88.3866486,27.15906],[88.3867183,27.1593117],[88.3868014,27.1594263],[88.3868816,27.1595311],[88.3870188,27.1596744],[88.3872494,27.1598785],[88.3874492,27.1600408],[88.387495,27.1601597],[88.3875553,27.1603066],[88.3877032,27.1604802],[88.3878568,27.1605618],[88.3879843,27.1606436],[88.3880648,27.1606876],[88.3881869,27.160777],[88.3883585,27.1609011],[88.3885368,27.1610085],[88.3886026,27.1610407],[88.3887166,27.1610754],[88.3887957,27.1610837],[88.3888825,27.1610878],[88.388997,27.1610709],[88.3891139,27.1610402],[88.3892778,27.1610106],[88.3895272,27.1610146],[88.3897754,27.1610194],[88.3900158,27.1610008],[88.3901962,27.1609667],[88.3902703,27.1609666],[88.3903578,27.1609873],[88.3904419,27.1610327],[88.3905026,27.1610752],[88.3905448,27.161114],[88.3905951,27.1611634],[88.3906774,27.161248],[88.3907375,27.1613436],[88.3907858,27.1614333],[88.3908814,27.1616352],[88.3908982,27.1617005],[88.3909134,27.161767],[88.3909207,27.1618354],[88.3909253,27.1618827],[88.3909154,27.162004],[88.3908901,27.1621576],[88.3908854,27.1622783],[88.3908888,27.1623288],[88.3909031,27.1623884],[88.3909395,27.1624853],[88.3909982,27.1626263],[88.3910562,27.1627431],[88.3911583,27.1629951],[88.3911663,27.1631189],[88.3911636,27.1631714],[88.3911608,27.1632242],[88.3911449,27.1633133],[88.3911153,27.163401],[88.3910952,27.1634515],[88.3910655,27.1635131],[88.3910335,27.163563],[88.3910116,27.1635891],[88.3909653,27.1636391],[88.3908705,27.1636833],[88.3907239,27.1636839],[88.3905456,27.1636527],[88.3903563,27.1636249],[88.3900319,27.1635998],[88.3898941,27.1636216],[88.3898051,27.1636796],[88.3897699,27.1637324],[88.3897479,27.1637827],[88.3897224,27.1638534],[88.3897273,27.1639155],[88.3896873,27.1640391],[88.389696,27.1641281],[88.389698,27.1642576],[88.3896931,27.1643131],[88.389702,27.1643884],[88.3896725,27.1644686],[88.3896278,27.1645272],[88.3895573,27.1645996],[88.3894116,27.1646753],[88.3893058,27.1647391],[88.3892136,27.1648056],[88.3892159,27.1648531],[88.389255,27.1649254],[88.3893516,27.1649876],[88.3894227,27.1650253],[88.3894944,27.1650701],[88.3896202,27.1651247],[88.389724,27.1651721],[88.3898199,27.1652261],[88.389948,27.1652799],[88.3900825,27.1653318],[88.3901281,27.1653457],[88.3902682,27.1653897],[88.3904167,27.165424],[88.3904894,27.1654367],[88.3906349,27.1654726],[88.3907209,27.1655086],[88.3908476,27.1655783],[88.3909204,27.1656113],[88.3909897,27.1656321],[88.3910672,27.1656474],[88.3915161,27.1657023],[88.3917048,27.1657103],[88.3917467,27.1657098],[88.3920059,27.1657255],[88.3921134,27.1657565],[88.3921863,27.1657947],[88.3922343,27.1658355],[88.3922693,27.1658826],[88.3922877,27.1659299],[88.3922914,27.1659612],[88.3922949,27.165991],[88.3922918,27.1660785],[88.3922569,27.1661349],[88.3921455,27.1663762],[88.3921412,27.1665536],[88.3921319,27.1666531],[88.3921536,27.1667592],[88.3922213,27.1668909],[88.3922147,27.1670842],[88.3922421,27.1672675],[88.3922536,27.1673742],[88.392256,27.1674513],[88.3922481,27.1675523],[88.3923002,27.1676603],[88.3924166,27.1677256],[88.3924996,27.1677684],[88.3925825,27.1678017],[88.3926402,27.1678271],[88.3927551,27.1678774],[88.3928991,27.1679516],[88.3929944,27.1680404],[88.3930456,27.1681156],[88.3931375,27.168232],[88.3932007,27.1683296],[88.3933431,27.168534],[88.3934288,27.1686824],[88.393631,27.1689609],[88.3937258,27.1690683],[88.3938665,27.1691916],[88.3939966,27.1693081],[88.3941188,27.1694375],[88.3941691,27.1695637],[88.3942227,27.169671],[88.3942535,27.1697975],[88.3942887,27.1699186],[88.3943508,27.1700625],[88.3944098,27.1701333],[88.3945228,27.1702984],[88.3946433,27.1704383],[88.3947335,27.1705663],[88.3947814,27.1706945],[88.3948112,27.1708196],[88.3948862,27.1708917],[88.394955,27.1709259],[88.3950006,27.170946],[88.3950437,27.1709532],[88.3951211,27.1709611],[88.3951915,27.17097],[88.395297,27.1709621],[88.3954628,27.1709169],[88.3956486,27.1706875],[88.395846,27.1704063],[88.3959574,27.1702446],[88.3960982,27.1700474],[88.396181,27.1698925],[88.3962486,27.1697317],[88.3963084,27.1695935],[88.3963461,27.1694682],[88.3963826,27.1693088],[88.3963746,27.1691392],[88.3964,27.1688536],[88.3964304,27.1686988],[88.3964794,27.168556],[88.3965436,27.1684267],[88.3968004,27.1680058],[88.3969453,27.1677848],[88.3970302,27.1676533],[88.3973267,27.1673349],[88.3974839,27.1671831],[88.3975988,27.1670343],[88.3979273,27.1665783],[88.3979932,27.1665197],[88.3980508,27.1664794],[88.3980878,27.1664535],[88.3981841,27.1664129],[88.3982821,27.1663844],[88.3983919,27.1663558],[88.3985204,27.1663363],[88.3986403,27.1663378],[88.3987569,27.1663483],[88.3988549,27.1663663],[88.398958,27.1663964],[88.3992245,27.1664712],[88.3992918,27.1664945],[88.3993736,27.1665199],[88.3994446,27.1665335],[88.399497,27.1665275],[88.39968,27.1664883],[88.3998174,27.1664455],[88.3998918,27.166444],[88.3999796,27.1664575],[88.4000388,27.1664756],[88.4006817,27.1666861],[88.4008034,27.1667403],[88.4009031,27.1667688],[88.4010681,27.1667577]]}},{"type":"Feature","properties":{"kind":"road","highway":"unclassified","motorable":true,"name":null,"ref":null,"bridge":false,"osm_id":593370453},"geometry":{"type":"LineString","coordinates":[[88.3933431,27.168534],[88.3932992,27.1686134],[88.3933704,27.168755],[88.3933952,27.1688074],[88.3935268,27.169015],[88.3936869,27.1692132],[88.3938682,27.169519],[88.3939073,27.1697481],[88.3938961,27.169876],[88.3938467,27.1699613],[88.3938324,27.1700255],[88.3938693,27.1701036],[88.3939215,27.1701605],[88.3939943,27.1702313],[88.3940621,27.170333],[88.3941344,27.1705428],[88.3942106,27.1707648],[88.3942935,27.1709503],[88.3943202,27.1711461],[88.3943161,27.1712357],[88.3942729,27.1713662],[88.3942256,27.1714858],[88.3941648,27.1716227],[88.3941173,27.1717786],[88.3940523,27.1718698],[88.3939492,27.1720522],[88.3938545,27.1721905],[88.3938418,27.1723126],[88.3938617,27.1723951],[88.3939153,27.1724763],[88.3939911,27.1725583],[88.3942765,27.1727779],[88.394557,27.1729974],[88.3946719,27.1730756],[88.3947496,27.1730846],[88.3948578,27.1730726],[88.3949355,27.1730696],[88.3950741,27.1731177],[88.3951822,27.1731507],[88.3952685,27.173167],[88.3953207,27.1731898],[88.3953516,27.1732295],[88.3954027,27.1733166],[88.3954452,27.1733782],[88.3954761,27.1734208],[88.3955176,27.1734454],[88.395606,27.1734928],[88.3956443,27.1735146],[88.3956581,27.173543],[88.3956624,27.1735761],[88.3956517,27.1736036],[88.3956283,27.1736197],[88.39559,27.1736272],[88.3955474,27.1736272],[88.3953952,27.1735657],[88.3953643,27.1735382],[88.3953122,27.173489],[88.3952792,27.1734606],[88.395226,27.1734473],[88.3951876,27.1734511],[88.3951227,27.1734682],[88.3950706,27.1734701],[88.3950014,27.1734596],[88.3948885,27.1734454],[88.3944372,27.1734492],[88.3942935,27.1734454],[88.3942297,27.173435],[88.3941732,27.1734142],[88.3941062,27.1733716],[88.3940593,27.1733403],[88.3939987,27.1733252],[88.3939433,27.1733299],[88.3939231,27.1733536],[88.393921,27.1733735],[88.3939263,27.1734057],[88.3940083,27.1734634],[88.3941307,27.1735221],[88.3943585,27.1736291],[88.3945618,27.1737002],[88.3947704,27.1737456],[88.3948194,27.1737617],[88.3949226,27.1738441],[88.3949769,27.173863],[88.395127,27.1739132],[88.395193,27.1739454],[88.395226,27.1739795],[88.3952441,27.1740127],[88.3952494,27.1740477],[88.3952451,27.174077],[88.3951823,27.1742071],[88.3951813,27.174227],[88.3951962,27.1742611],[88.395227,27.1742734],[88.3952675,27.1742886],[88.3953069,27.1742999],[88.3953335,27.1743283],[88.3953377,27.1743615],[88.3953292,27.1744079],[88.3953239,27.1744505],[88.3953367,27.1744751],[88.3953665,27.1744921],[88.3954123,27.174494],[88.3954623,27.1744846],[88.3955176,27.1744685],[88.3955858,27.1744363],[88.3956539,27.1743993],[88.3957614,27.1743264],[88.3958295,27.1742876],[88.3959407,27.1742411],[88.3961023,27.1741837],[88.3965312,27.1740893],[88.3965663,27.1740941],[88.3965866,27.1741092],[88.3965898,27.1741348],[88.3965876,27.1741537],[88.3965514,27.1741963],[88.3965157,27.1742403],[88.3964325,27.1743034],[88.3962683,27.1744027],[88.3962216,27.1744222],[88.3961738,27.1744413],[88.3960674,27.1744735],[88.3960088,27.174482],[88.3959242,27.1745139],[88.395887,27.1745291],[88.3958348,27.1745622],[88.3957731,27.1746342],[88.3956422,27.1747677],[88.3955389,27.1748681],[88.3954463,27.1749391],[88.3953558,27.1750518],[88.3953542,27.1751222],[88.3953212,27.1751875],[88.3952861,27.1752614],[88.3952669,27.175304],[88.3952606,27.1753267],[88.3952425,27.1753504],[88.3952276,27.1753674],[88.3951988,27.1753826],[88.3951605,27.1753864],[88.3951179,27.1753835],[88.3950913,27.1753731],[88.3950583,27.1753551],[88.3950242,27.175321],[88.3949998,27.1752784],[88.39497,27.1752491],[88.3949242,27.1752301],[88.3948444,27.175214],[88.3947422,27.175196],[88.3947039,27.1751762],[88.3946687,27.1751468],[88.3946315,27.1751042],[88.3945995,27.1750483],[88.3945697,27.1749953],[88.3945325,27.1749413],[88.3944803,27.1748835],[88.3944111,27.1748163],[88.3942557,27.1746781],[88.3941184,27.1745777],[88.3939609,27.1744839],[88.3938055,27.1744101],[88.3936745,27.1743675],[88.3935724,27.1743476],[88.3934819,27.17434],[88.3933659,27.1743438],[88.3932147,27.1743703],[88.3931147,27.1743949],[88.3930646,27.1744082],[88.3930189,27.1744167],[88.392972,27.1744158],[88.3929199,27.1744016],[88.392873,27.1743608],[88.3928528,27.1743088],[88.3928464,27.17425],[88.3928475,27.1741875],[88.3928634,27.1741269],[88.3928911,27.1740379],[88.3929028,27.1739612],[88.3928964,27.1739158],[88.3928698,27.1737955],[88.3928443,27.1737235],[88.3928155,27.1736734],[88.3927815,27.1736146],[88.3927084,27.1734994],[88.3926568,27.1734436],[88.3925955,27.1734293],[88.3925678,27.1734388],[88.3925497,27.1734672],[88.3924992,27.173593],[88.3925497,27.1737932],[88.3925986,27.173948],[88.392623,27.1740916],[88.3926202,27.1741764],[88.3926303,27.1742149],[88.3926308,27.1742545],[88.3926361,27.1743122],[88.3925952,27.1744603],[88.3925697,27.1745086],[88.392558,27.1745663],[88.3925558,27.1746279],[88.392576,27.1746979],[88.3926027,27.1747538],[88.3926378,27.1747746],[88.3926793,27.1747813],[88.3927474,27.1747794],[88.3929816,27.1747377],[88.3931029,27.1747273],[88.3931562,27.1747339],[88.3932126,27.174751],[88.3932477,27.1747775],[88.3933009,27.1748419],[88.3933648,27.1748921],[88.393451,27.1749318],[88.3935138,27.174964],[88.3935936,27.1749839],[88.3937224,27.1750085],[88.3938289,27.1750436],[88.3939162,27.1750947],[88.3939886,27.1751487],[88.3940311,27.1751941],[88.3940769,27.1752642],[88.3941205,27.1753627],[88.3941567,27.1754858],[88.3941865,27.1755682],[88.3941951,27.1755975],[88.3941887,27.1756193],[88.3941642,27.1756392],[88.3941237,27.1756392],[88.3940812,27.1756174],[88.3940226,27.1755758],[88.393914,27.1754953],[88.3938587,27.1754697],[88.3936618,27.1753864],[88.3934702,27.1753132],[88.3932713,27.1752676],[88.3931893,27.1752572]]}},{"type":"Feature","properties":{"kind":"road","highway":"tertiary","motorable":true,"name":null,"ref":null,"bridge":false,"osm_id":593370454},"geometry":{"type":"LineString","coordinates":[[88.3820265,27.1743072],[88.3820931,27.1744533],[88.3821694,27.1745698],[88.3822958,27.1747326],[88.3825623,27.1747896],[88.3827644,27.1748199],[88.3829192,27.1747903],[88.3830821,27.1747618],[88.3832479,27.1745921],[88.3834042,27.1745682],[88.3835273,27.1745735],[88.3836268,27.1746045],[88.3836898,27.1746353],[88.3837419,27.1746865],[88.383819,27.1747309],[88.3839003,27.1747891],[88.3839616,27.1748408],[88.384048,27.17488],[88.3841013,27.1749127],[88.3842284,27.1749647],[88.3843104,27.1749795],[88.3843634,27.1749678],[88.3844047,27.1749623],[88.3844379,27.1749664],[88.3844539,27.1749758],[88.3845205,27.174918],[88.3845657,27.1749079],[88.3846624,27.1748369],[88.3847652,27.1748149],[88.3849237,27.174822],[88.3850917,27.1749056],[88.385183,27.1749891],[88.3853121,27.1751353],[88.3853821,27.1752186],[88.3853974,27.1752543],[88.3854272,27.1753009],[88.385489,27.1753753],[88.3855309,27.1754113],[88.3855565,27.1754263],[88.3856148,27.1754349],[88.3856994,27.1754023],[88.3857526,27.175359],[88.3858038,27.1753],[88.3858248,27.1752641],[88.3858338,27.1751241],[88.3858545,27.1749548],[88.38587,27.1747591],[88.3857928,27.1745277],[88.3856691,27.1744282],[88.3855896,27.1743668],[88.3855212,27.1743109],[88.3854123,27.1742576],[88.3853247,27.17421],[88.3853506,27.1741465],[88.385367,27.1739832],[88.3853772,27.1738432],[88.3854321,27.1737355],[88.3855191,27.1736756],[88.3856075,27.1736202],[88.3857173,27.1735828],[88.3858114,27.1735453],[88.3858749,27.1735158],[88.3859601,27.1734969],[88.3860729,27.1734552],[88.3861593,27.1734499],[88.3862541,27.1734032],[88.3863855,27.1733333],[88.3865347,27.1731253],[88.386655,27.1729935],[88.3868567,27.172753],[88.3869739,27.1726172],[88.3870147,27.1725332],[88.3870295,27.1724384],[88.3870521,27.1722755],[88.3870339,27.1720068],[88.3870689,27.1718363],[88.3871042,27.171745],[88.3871952,27.1715575],[88.3872386,27.1714513],[88.3872663,27.1713342],[88.3872568,27.1711784],[88.3871033,27.1709041],[88.3870799,27.1707678],[88.3871054,27.170709],[88.3871544,27.1706522],[88.3873374,27.17055],[88.3874609,27.1705083],[88.3877143,27.1704287],[88.3879073,27.1704081],[88.3879818,27.1704517],[88.3880691,27.1705331],[88.3881478,27.1707017],[88.3881819,27.1708835],[88.3882747,27.1712895],[88.388411,27.1717096],[88.3885923,27.17215],[88.3886507,27.1724418],[88.388667,27.1725982],[88.3887539,27.1728563],[88.3888283,27.1732082],[88.3889041,27.1735135],[88.3889226,27.1736248],[88.3890119,27.1738268],[88.3890707,27.1740199],[88.3891061,27.174353],[88.3890431,27.1745231],[88.3889975,27.1746605],[88.3890142,27.1748058],[88.3890461,27.1749688],[88.3890499,27.1751329],[88.3890952,27.175301],[88.3893377,27.1757787],[88.389667,27.1763128],[88.3898416,27.1765856],[88.3899377,27.1766934],[88.3900316,27.1768182],[88.390073,27.1769071],[88.3901306,27.1770266],[88.3901614,27.1771214],[88.390254,27.1771843],[88.3903217,27.1772792],[88.3904006,27.1773791],[88.3904698,27.1774425],[88.3905323,27.1774993],[88.3906462,27.1775879],[88.3907467,27.1776797],[88.3908654,27.1777593],[88.3909815,27.1778469],[88.3911792,27.1779801],[88.3912344,27.1780234],[88.3912908,27.178094],[88.3913016,27.1781738],[88.3913121,27.1782637],[88.3913712,27.178336],[88.3914064,27.1783916],[88.3915248,27.1785529],[88.3916004,27.1787008],[88.3916183,27.1788107],[88.3916717,27.1788937],[88.391702,27.1789465],[88.3917307,27.1789877],[88.39182,27.1790681],[88.3918632,27.1791242],[88.3919143,27.179205],[88.3919577,27.1792912],[88.3919679,27.1793856],[88.3919924,27.1795695],[88.392009,27.1796471],[88.3920374,27.1796992],[88.392101,27.1797262],[88.3921772,27.1797608],[88.3923377,27.1798022],[88.3925486,27.1798331],[88.3927464,27.1798621],[88.392905,27.1798901],[88.3929667,27.179917],[88.3930263,27.1799801],[88.3932752,27.180267],[88.393405,27.1803311],[88.3934747,27.1803609],[88.3936534,27.180437],[88.3937538,27.1804785],[88.3939354,27.1805311],[88.394026,27.1805677],[88.3941263,27.1806012],[88.3943782,27.1807238],[88.3946007,27.1808042],[88.3948953,27.180958],[88.394945,27.1810111],[88.3949782,27.1810388],[88.3950487,27.1811411],[88.3952799,27.1813677],[88.3954551,27.181562],[88.3955074,27.1815795],[88.3955661,27.1815838],[88.3955902,27.18157],[88.3957947,27.1815698],[88.3959086,27.1815293],[88.3960062,27.1814529],[88.3961637,27.1813696],[88.3962399,27.1813402],[88.3963286,27.1813033],[88.3964302,27.181169],[88.3964895,27.1811139],[88.3966108,27.1810931],[88.3967534,27.1809984],[88.3969889,27.1808825],[88.3971841,27.1807768],[88.3972845,27.1807257],[88.397486,27.1805838],[88.397652,27.1804229],[88.3978798,27.1802562],[88.3980761,27.1800866],[88.3981299,27.1800231],[88.3982342,27.1800099],[88.3983534,27.1800155],[88.3984583,27.1800152],[88.3985556,27.1800236],[88.3986545,27.180036],[88.3989769,27.1800052],[88.3990909,27.1799839],[88.3991931,27.1799436],[88.3993187,27.1798659],[88.399521,27.1797826],[88.3996125,27.1797258],[88.3997871,27.1795629],[88.3999063,27.1794285],[88.4000149,27.1792012],[88.4001596,27.1789777],[88.4002885,27.1788205],[88.4003981,27.1787074],[88.4004727,27.1786488],[88.4005002,27.1786271],[88.4005868,27.1785292],[88.4006481,27.1783641],[88.4007775,27.1780876],[88.4008899,27.1779039],[88.4009996,27.1777314],[88.4011898,27.1774611],[88.401396,27.1771952],[88.4015164,27.1768455],[88.401576,27.1766],[88.4015696,27.1765412],[88.4014668,27.1764078],[88.4013773,27.1761995],[88.4013348,27.1760821],[88.4013241,27.1760404],[88.4013412,27.1759911],[88.4014135,27.1758794],[88.4014966,27.1757866],[88.4015583,27.1757563],[88.4016328,27.1757658],[88.4016647,27.1758737],[88.4017612,27.1761301],[88.4019571,27.1765204],[88.4019676,27.1766475],[88.4019381,27.1767589],[88.4018484,27.1770111],[88.4018633,27.1770527],[88.4019016,27.1770717],[88.4019506,27.1770622],[88.4020038,27.1769846],[88.4021145,27.1767289],[88.4021337,27.1766588],[88.4021464,27.1765474],[88.4021208,27.1764414],[88.4020572,27.1763345],[88.4019984,27.1762248],[88.4019729,27.1760552],[88.4019942,27.1759605],[88.4020826,27.1758956],[88.4022002,27.1758407],[88.4023223,27.1757919],[88.402512,27.1757308],[88.4026662,27.1756694],[88.4028224,27.1755909],[88.4029417,27.1754696],[88.4030198,27.1752976],[88.4030451,27.1751024],[88.4030807,27.1748779],[88.403067,27.174697],[88.4030614,27.1745402],[88.4030571,27.1743664],[88.4030906,27.1742882],[88.4031672,27.1742693],[88.4031843,27.1743147],[88.4031885,27.1743867],[88.403198,27.1745309],[88.4032308,27.1746487],[88.4032756,27.1748279],[88.4032777,27.1750003],[88.4032789,27.1751423],[88.4032665,27.1752894],[88.4031311,27.175553],[88.4030524,27.1756628],[88.4029651,27.1757613],[88.4028185,27.1758594],[88.4027042,27.175923],[88.4025786,27.1759779],[88.4025467,27.1760461],[88.4025318,27.1761427],[88.4026087,27.1763012],[88.4026226,27.1764722],[88.4025665,27.1767191],[88.402524,27.176899],[88.402524,27.176971],[88.4025495,27.1769785],[88.4026101,27.1769596],[88.4026459,27.1768876],[88.4026899,27.1767296],[88.4027303,27.1765651],[88.4027884,27.1763644],[88.4028059,27.1762351],[88.4028337,27.1761117],[88.4028697,27.1760535],[88.4029868,27.1759663],[88.4031252,27.1758565],[88.4032614,27.1757675],[88.4033083,27.1757088],[88.4034317,27.1755251],[88.4035478,27.1752576],[88.4036176,27.1751066],[88.4036484,27.1749797],[88.4036552,27.1748188],[88.4036361,27.1746749],[88.4035892,27.1745689],[88.4035594,27.1744666],[88.4035445,27.1743151],[88.403519,27.1741427],[88.4034594,27.1740253],[88.4034126,27.1739192],[88.4033913,27.1738264],[88.4033913,27.1737374],[88.4034254,27.1735994],[88.4034424,27.1734365],[88.4034637,27.1732358],[88.4034758,27.1731118],[88.4034332,27.1728967],[88.403429,27.1727282],[88.4034618,27.1725563],[88.4034727,27.1724826],[88.4034929,27.1724135],[88.4035356,27.1723405],[88.4036187,27.1722953],[88.4036876,27.1723762],[88.4037834,27.1724814],[88.4039088,27.1724908],[88.4039825,27.1724725],[88.4040951,27.1724312],[88.4042262,27.1725079],[88.4042983,27.1726187],[88.4043972,27.1727035],[88.4044475,27.1727322],[88.4045425,27.1727705],[88.4046393,27.1727767],[88.4047628,27.1727331],[88.4048522,27.1726896],[88.4049944,27.172555],[88.4050902,27.1725341],[88.4051839,27.1725322],[88.405301,27.1725531],[88.4054415,27.1726421],[88.4056926,27.1729852],[88.4058459,27.173078],[88.4059247,27.1730894],[88.4060987,27.1730924],[88.4061819,27.1730489],[88.4062556,27.1729971],[88.406369,27.1729625],[88.4064179,27.1729701],[88.4064877,27.1730274],[88.4066473,27.1731069],[88.4067767,27.1731456],[88.4069216,27.1731489],[88.4070303,27.1731265],[88.4071102,27.1730835],[88.4071354,27.1730516],[88.4071657,27.1730196],[88.4072382,27.1729664],[88.4072905,27.1729382],[88.4073636,27.1729248],[88.4074059,27.1729308],[88.407492,27.1729549],[88.4075506,27.1729878],[88.4075826,27.1730324],[88.4076,27.1730783],[88.4076213,27.1731617],[88.4076383,27.1732923],[88.4076439,27.1734182],[88.4076493,27.1735096],[88.407649,27.1736086],[88.4076469,27.1738189],[88.4075788,27.1739003],[88.4074201,27.1740401],[88.4074052,27.174131],[88.4074286,27.1743375],[88.4074669,27.1745988],[88.407501,27.1747333],[88.4075566,27.1748232],[88.407588,27.1748924],[88.4075547,27.1750351],[88.4075274,27.1751568],[88.4074887,27.1754461],[88.4074675,27.1755711],[88.4074845,27.1757014],[88.4075207,27.1757847],[88.4075442,27.1759003],[88.4075463,27.1759779],[88.4075288,27.1760736],[88.4074794,27.1761907],[88.4074586,27.1762403],[88.4073251,27.1765323],[88.4071962,27.1767922],[88.4070763,27.177046],[88.4067808,27.1775222],[88.4066186,27.1779058],[88.4064787,27.1781842],[88.4064703,27.1782039],[88.4063738,27.1784304],[88.4063138,27.1785642],[88.406291,27.1787169],[88.4062622,27.1789226],[88.4062111,27.1790793],[88.4060947,27.1792733],[88.4060499,27.1793339],[88.4059861,27.1793661],[88.4058039,27.1794393],[88.4056741,27.1795135],[88.4055529,27.1795853],[88.4054668,27.1796788],[88.4053863,27.1798211],[88.4053647,27.1799985],[88.4053349,27.1802314],[88.4052647,27.1804495],[88.4051966,27.1806825],[88.4051668,27.180798],[88.4051029,27.1809325],[88.4050348,27.1810726],[88.4049922,27.1811613],[88.4049773,27.1812389],[88.4049794,27.1813885],[88.4049879,27.1816233],[88.4050198,27.1817862],[88.4050667,27.1819832],[88.4050603,27.1821384],[88.4050688,27.1822464],[88.405062,27.182342],[88.4050576,27.182388],[88.4050238,27.1824343],[88.4049377,27.1824943],[88.4048162,27.1825518],[88.404709,27.1825816],[88.4045558,27.1825929],[88.40446,27.1825948],[88.4043897,27.1826214],[88.4043258,27.1826384],[88.4041768,27.1826592],[88.4040874,27.1826725],[88.4040065,27.1827217],[88.4039661,27.1827766],[88.4039341,27.1828751],[88.4039022,27.1829944],[88.4038575,27.1830853],[88.4037702,27.1831535],[88.4037148,27.1832292],[88.4036638,27.1832842],[88.4036084,27.1833997],[88.4036127,27.1835417],[88.4035887,27.1836521],[88.4035338,27.1837194],[88.4034168,27.1837667],[88.4032676,27.1838836],[88.4032231,27.1840208],[88.4031805,27.1841307],[88.4031279,27.184189],[88.4030762,27.1842425],[88.4030224,27.1843016],[88.402908,27.1843901],[88.4028466,27.1844559],[88.4028013,27.1845293],[88.4027568,27.1846237],[88.4027262,27.1847058],[88.4026791,27.1847988],[88.4026458,27.1848808],[88.402605,27.1849236],[88.4025713,27.1849496],[88.402513,27.1850069],[88.4024266,27.1850858],[88.4023655,27.1852001],[88.4022966,27.1853558],[88.4022291,27.1854475],[88.4021281,27.1855793],[88.4020661,27.1856346],[88.4019773,27.185732],[88.4019146,27.1859005],[88.4018814,27.1859678],[88.4018391,27.1860779],[88.4018354,27.1861613],[88.4018718,27.1862129],[88.4019237,27.1862242],[88.4019881,27.1861644],[88.4020277,27.1860989],[88.4021591,27.1858525],[88.4022465,27.185729],[88.402363,27.1855389],[88.4025541,27.1853518],[88.4027031,27.1852306],[88.4028161,27.1851866],[88.4029472,27.1851239],[88.403043,27.1850425],[88.4031707,27.1849819],[88.4032968,27.1849288],[88.4034016,27.1848875],[88.4034867,27.1848686],[88.4036017,27.1848137],[88.4037337,27.1847493],[88.4038295,27.1846849],[88.4039785,27.1846338],[88.4040743,27.1846129],[88.4042212,27.1845675],[88.4043361,27.1845201],[88.4044508,27.1844336],[88.4045729,27.184397],[88.4046749,27.1843707],[88.4047987,27.1843234],[88.404837,27.1843006],[88.4048711,27.1842798],[88.4049116,27.1842419],[88.4049626,27.1841946],[88.4049839,27.1841453],[88.4050145,27.1840978],[88.4050727,27.1840297],[88.405112,27.1840023],[88.4051542,27.1839649],[88.4052348,27.1839106],[88.4053176,27.1838756],[88.4053985,27.1838017],[88.4054538,27.1837468],[88.4055475,27.1836786],[88.4056114,27.1835882],[88.4056798,27.1835398],[88.4057586,27.1834773],[88.4058139,27.1834451],[88.4058757,27.183411],[88.4059459,27.1833978],[88.4061631,27.183394],[88.4062461,27.1834035],[88.40633,27.183383],[88.4063918,27.1833819],[88.4064642,27.183348],[88.406577,27.1833518],[88.4066919,27.1833215],[88.4068048,27.183295],[88.4069474,27.183278],[88.4070606,27.1832818],[88.4071862,27.1832761],[88.4072828,27.1832637],[88.4074638,27.1832599],[88.4075574,27.1832599],[88.4076596,27.1832599],[88.4077171,27.1832485],[88.40768,27.1831113],[88.4076516,27.1830367],[88.4076416,27.1829538],[88.4076381,27.1828923],[88.407614,27.1827759],[88.4076482,27.1827022],[88.4076763,27.1826823],[88.4077526,27.1826596],[88.4078319,27.182635],[88.4078725,27.1826264],[88.4079148,27.1825919],[88.4079551,27.1825422],[88.4079801,27.182485],[88.4080161,27.1823655],[88.4080764,27.1822203],[88.4080913,27.1821483],[88.4080871,27.1820858],[88.4080254,27.1820072],[88.4078852,27.1819272],[88.4078266,27.1818289],[88.4078392,27.1817569],[88.4079023,27.1817313],[88.4079768,27.1816764],[88.4081025,27.1815915],[88.4082141,27.1814996],[88.4083171,27.1814381],[88.4084404,27.1813327],[88.4085702,27.1812456],[88.4086618,27.1811907],[88.4087047,27.1811115],[88.408743,27.181032],[88.4087771,27.180943],[88.4088299,27.1808233],[88.4088619,27.1806453],[88.4089072,27.1805063],[88.4089743,27.1803754],[88.4090192,27.1802991],[88.4091214,27.1801892],[88.4092065,27.180087],[88.4092725,27.17996],[88.4093279,27.1798337],[88.4093906,27.1796917],[88.4094417,27.1796046],[88.4097092,27.1789977],[88.4097433,27.178922],[88.4097944,27.1788197],[88.4099051,27.1787178],[88.4099817,27.1786459],[88.410037,27.178572],[88.4100384,27.1785143],[88.4100236,27.1784506],[88.4100177,27.1783834],[88.4099895,27.1782827],[88.4099534,27.1781429],[88.4099342,27.1780671],[88.4099172,27.1779951],[88.4099129,27.1779061],[88.4099368,27.1778187],[88.4099869,27.1776592],[88.4100439,27.177535],[88.410129,27.1773911],[88.4101424,27.1773077],[88.410166,27.1772133],[88.4101852,27.1771129],[88.4101852,27.1770031],[88.4101575,27.1768688],[88.4101256,27.1766018],[88.4101235,27.1765374],[88.4101426,27.1764673],[88.410166,27.1763954],[88.4102299,27.1762988],[88.4102848,27.1761795],[88.4103295,27.1761056],[88.410355,27.1760317],[88.4103742,27.1759692],[88.4103827,27.1757855],[88.4103784,27.1756113],[88.4103742,27.1754787],[88.410503,27.1752401],[88.4105674,27.1751674],[88.4106793,27.1750616],[88.4107939,27.1749814],[88.4109169,27.1748917],[88.411017,27.1748306],[88.4111714,27.1747479],[88.4112505,27.1746854],[88.4113087,27.174645],[88.4113575,27.174601],[88.4113985,27.1744736],[88.4114207,27.1743779],[88.4114153,27.1742524],[88.4113857,27.1741312],[88.4113389,27.1740405],[88.4112496,27.1739272],[88.4111474,27.1738325],[88.4110857,27.1737643],[88.4110197,27.1736677],[88.411044,27.1735834],[88.4111169,27.173495],[88.4111744,27.1734496],[88.4112152,27.1734129],[88.4112367,27.1733689],[88.4112499,27.1733175],[88.4112362,27.1732261],[88.4111937,27.1730235],[88.4112064,27.1729375],[88.4112192,27.1728618],[88.4112849,27.1727752],[88.4113551,27.1726918],[88.4113998,27.1726596],[88.4115148,27.1726142],[88.4116896,27.1725765],[88.4118867,27.1725396],[88.4120315,27.1725093],[88.4121443,27.1724544],[88.4122042,27.1723822],[88.4122274,27.1723218],[88.4122403,27.172265],[88.4122341,27.1721732],[88.4122274,27.1721121],[88.412186,27.1720002],[88.4121765,27.1719226],[88.4122027,27.1718655],[88.4122431,27.1718416],[88.4123155,27.1718019],[88.4124092,27.1717829],[88.4125039,27.1717198],[88.4125699,27.1716611],[88.4126252,27.1715872],[88.4126761,27.171454],[88.4127084,27.1713861],[88.4127538,27.1713438],[88.4127843,27.1713155],[88.4128913,27.1712415],[88.4129744,27.171176],[88.4130714,27.1711186],[88.4131893,27.1710711],[88.4133088,27.1710125],[88.4133771,27.170989],[88.4134601,27.1709417],[88.4134984,27.1708848],[88.4135261,27.1708053],[88.4135868,27.17063],[88.4136372,27.1705853],[88.4137291,27.1705102],[88.4138078,27.1704553],[88.4139462,27.1704041],[88.4140122,27.1703378],[88.4140931,27.1702109],[88.4142102,27.1701768],[88.4143613,27.1701901],[88.4145338,27.170228],[88.414719,27.1702621],[88.414912,27.1703234],[88.4149787,27.170327],[88.4151022,27.1703232],[88.4152114,27.1702743],[88.4153108,27.1702304],[88.4153619,27.1701338],[88.4154514,27.1700178],[88.4156472,27.169764],[88.4156986,27.1696856],[88.4157499,27.1696455],[88.4158827,27.1695798],[88.4160187,27.1694795],[88.4161319,27.169393],[88.416193,27.1693407],[88.4162742,27.1692516],[88.4162948,27.1691598],[88.4163114,27.1690583],[88.4163625,27.169011],[88.4164199,27.1690091]]}},{"type":"Feature","properties":{"kind":"road","highway":"unclassified","motorable":true,"name":null,"ref":null,"bridge":false,"osm_id":593405415},"geometry":{"type":"LineString","coordinates":[[88.4164199,27.1690091],[88.4164131,27.1690505],[88.4164041,27.1690827],[88.4163889,27.169137],[88.4163835,27.1692372],[88.4163507,27.1693392],[88.4163218,27.1693947],[88.4162682,27.1694806],[88.4162122,27.169557],[88.41616,27.1696242],[88.4160126,27.1697591],[88.4158632,27.1698976],[88.4157747,27.1700289],[88.415713,27.1701458],[88.4156566,27.170252],[88.4156259,27.1703856],[88.4156231,27.1704978],[88.4156191,27.1705681],[88.4155722,27.1706206],[88.415481,27.1706624],[88.4153563,27.1707006],[88.4152356,27.1707483],[88.4150894,27.1708259],[88.414962,27.1708545],[88.4148654,27.1708593],[88.4147233,27.170802],[88.4146348,27.1707734],[88.414506,27.1707447],[88.41438,27.170728],[88.4142432,27.170771],[88.4141949,27.170833],[88.4141064,27.1709427],[88.4141305,27.1711098],[88.4141654,27.1713365],[88.4142079,27.1714698],[88.4141977,27.1715661],[88.4141949,27.1716373],[88.4141493,27.1717208],[88.4140983,27.1717732],[88.4139991,27.1718137],[88.4139132,27.1718639],[88.4138114,27.1719589],[88.4137484,27.1720329],[88.4136695,27.1720963],[88.4135899,27.1721942],[88.4135484,27.172236],[88.4135042,27.1722935],[88.4134398,27.172353],[88.4133996,27.1723746],[88.4133575,27.1724032],[88.4133086,27.1724727],[88.4133261,27.172518],[88.4133636,27.1725848],[88.413381,27.1726421],[88.4133864,27.1727029],[88.4133743,27.1728342],[88.4133582,27.1729416],[88.4133421,27.1729881],[88.4133086,27.1730251],[88.4131917,27.1731488],[88.4130684,27.1732407],[88.4130214,27.1733111],[88.4129876,27.1733638],[88.4129757,27.173425],[88.4129906,27.1735008],[88.4129731,27.17357],[88.4129275,27.1736607],[88.4128725,27.1737442],[88.4128296,27.1737967],[88.4127879,27.1738309],[88.4127022,27.1738897],[88.4125076,27.1740082],[88.4124418,27.1740353],[88.4123929,27.1740699],[88.4123667,27.1741248],[88.412368,27.1742012],[88.4123721,27.1743277],[88.4124003,27.1745399],[88.4124284,27.1746712],[88.4124405,27.1748048],[88.4124538,27.174866],[88.4124858,27.1749371],[88.4125376,27.1750731],[88.412551,27.175128],[88.412547,27.175184],[88.4125201,27.1752353],[88.4124665,27.1753021],[88.4123591,27.1754004],[88.4122653,27.1754522],[88.4122093,27.1754935],[88.4121365,27.1755423],[88.4120047,27.1756121],[88.411899,27.1756958],[88.4118272,27.1757543],[88.4117464,27.1758113],[88.411694,27.1758504],[88.4116416,27.1759225],[88.4116134,27.1760025],[88.4116008,27.1761862],[88.4116396,27.1762915],[88.4117092,27.1764148],[88.4117527,27.1764857],[88.4118159,27.1765952],[88.4118645,27.1767076],[88.4119342,27.1768614],[88.4119765,27.1770342],[88.4120061,27.1771161],[88.4120365,27.1772604],[88.412077,27.1773732],[88.4121531,27.1775084],[88.4122445,27.1776159],[88.4122717,27.1776715],[88.4123144,27.1777144],[88.4123262,27.177776],[88.4123178,27.1778391],[88.4122772,27.1779203],[88.4122316,27.178024],[88.4121877,27.1781367],[88.412164,27.1782525],[88.4121382,27.1783634],[88.4121179,27.1784545],[88.4119774,27.1786834],[88.4119233,27.1787691],[88.4118608,27.1788442],[88.4118118,27.1789058],[88.4117712,27.178972],[88.4117628,27.1790186],[88.4117814,27.1790501],[88.4118557,27.1790667],[88.411898,27.1790532],[88.4120733,27.1787898],[88.41224,27.178618],[88.4123245,27.1784993],[88.4124326,27.178382],[88.4124952,27.1783144],[88.4125729,27.1782483],[88.4126269,27.1782197],[88.4126878,27.1782122],[88.4127418,27.1782377],[88.4127571,27.1782828],[88.4127571,27.1783249],[88.4127418,27.178376],[88.4127097,27.1784196],[88.4126472,27.1785098],[88.4125475,27.178615],[88.412463,27.1787052],[88.4123769,27.1788255],[88.4123093,27.1789126],[88.4122468,27.1790284],[88.4121657,27.1791411],[88.4120947,27.1792599],[88.4120592,27.1793606],[88.4120406,27.1794478],[88.4119863,27.1795337],[88.4119311,27.1796638],[88.4119435,27.1799116],[88.4119615,27.1801388],[88.4119363,27.1804066],[88.4119076,27.1805614],[88.4118941,27.1806621],[88.4118873,27.1807207],[88.4118958,27.1807643],[88.4119194,27.1807914],[88.4119549,27.1808034],[88.4119955,27.1807989],[88.4120259,27.1807763],[88.4120529,27.1807237],[88.4120884,27.1806095],[88.4121171,27.1804411],[88.4122485,27.1800385],[88.412267,27.1798055],[88.4122687,27.1796943],[88.4122738,27.1796086],[88.4122907,27.179553],[88.4123363,27.1795184],[88.4123735,27.1795259],[88.4124005,27.1795875],[88.4124219,27.1796903],[88.412387,27.1798912],[88.412365,27.1801226],[88.4123532,27.1803256],[88.4123414,27.1805225],[88.4123191,27.1808115],[88.4123377,27.1810715],[88.4123428,27.1812985],[88.4123757,27.1816708],[88.4123892,27.1818873],[88.4123795,27.1819696],[88.4123757,27.1820015],[88.4123554,27.1821383],[88.4123166,27.1822826],[88.412276,27.1823923],[88.4122084,27.1825095],[88.4121104,27.182714],[88.4120445,27.1828492],[88.4119702,27.1829499],[88.4119077,27.1830326],[88.4118367,27.1830987],[88.4117618,27.1831679],[88.4116858,27.1832521],[88.4116452,27.1833888],[88.4116452,27.1835437],[88.4116723,27.183694],[88.4116469,27.1838052],[88.4115608,27.183936],[88.4114999,27.1840126],[88.4114357,27.1840607],[88.4113191,27.1841374],[88.4112572,27.1841944],[88.4112142,27.1842534],[88.411179,27.1843552],[88.4112429,27.1844831],[88.4113091,27.1845775],[88.4113209,27.1846542],[88.4113209,27.1847158],[88.4113006,27.1847774],[88.4112415,27.1849107],[88.4112077,27.1850235],[88.4111585,27.1850971],[88.4110856,27.1851581],[88.4110143,27.1852167],[88.4109248,27.1852693],[88.4108606,27.1853159],[88.410744,27.1853866],[88.4107017,27.1854091],[88.4106162,27.1854841],[88.4105081,27.1855292],[88.4104135,27.1855487],[88.4102935,27.1855397],[88.4101921,27.1855322],[88.4100789,27.1855217],[88.4099066,27.1855187],[88.4097207,27.1855262],[88.4095737,27.1856103],[88.4094554,27.185699],[88.409361,27.1857536],[88.4093006,27.1858178],[88.4092437,27.185885],[88.4091997,27.1859662],[88.4091524,27.1860714],[88.4091068,27.186142],[88.4090477,27.1861841],[88.4089057,27.1862653],[88.4087621,27.1864081],[88.408659,27.1865622],[88.4085452,27.1867556],[88.4084354,27.1869149],[88.4083205,27.1870697],[88.4082681,27.1871719],[88.408263,27.187223],[88.4083019,27.1872516],[88.408405,27.1872035],[88.4084895,27.1870862],[88.4085706,27.1869931],[88.4088336,27.1868458],[88.4089536,27.1868173],[88.4090424,27.1867649],[88.4091201,27.1867318],[88.4092097,27.1866732],[88.4093719,27.1865289],[88.4095382,27.1864641],[88.4096012,27.1863919],[88.4096535,27.1863318],[88.4096873,27.1862777],[88.4097008,27.1862206],[88.4097076,27.18618],[88.4097389,27.1861186],[88.4098069,27.1860627],[88.4098863,27.1859666],[88.4099927,27.1859109],[88.4101178,27.1859004],[88.4102952,27.1859019],[88.410454,27.185929],[88.4105993,27.1859831],[88.4107244,27.1860131],[88.4109068,27.1860131],[88.4110454,27.1859831],[88.4111164,27.1858779],[88.4111893,27.185763],[88.4114107,27.185657],[88.4116602,27.1855097],[88.4119365,27.1853856],[88.4121349,27.1852926],[88.4123978,27.1851995],[88.4126365,27.1850612],[88.4128323,27.1849681],[88.4130281,27.1847988],[88.4131743,27.1847128],[88.413299,27.1846293],[88.4133535,27.1845769],[88.4133943,27.1845147],[88.4134466,27.1843108],[88.4134532,27.184213],[88.4134545,27.1841151],[88.4135163,27.1840519],[88.4135967,27.184009],[88.413645,27.1840674],[88.4136424,27.1841628],[88.4136088,27.184309],[88.4136035,27.1844372],[88.4136182,27.1845858],[88.4136168,27.1847445],[88.4136203,27.1848303],[88.4135639,27.1849066],[88.4134996,27.1849544],[88.4133802,27.1850308],[88.4132541,27.1851095],[88.4131643,27.1851721],[88.4130717,27.1852574],[88.4130268,27.185357],[88.4130348,27.1854047],[88.413059,27.1854405],[88.413118,27.1854429],[88.4131743,27.1853999],[88.4131958,27.1853236],[88.4132394,27.1852771],[88.4134707,27.1851256],[88.4136316,27.1850516],[88.4137456,27.1849711],[88.4138783,27.1848488]]}},{"type":"Feature","properties":{"kind":"road","highway":"tertiary","motorable":true,"name":null,"ref":null,"bridge":false,"osm_id":593428649},"geometry":{"type":"LineString","coordinates":[[88.434612,27.1804073],[88.43456,27.1804416],[88.434493,27.1804851],[88.4343596,27.1805371],[88.4342206,27.1805818],[88.4341047,27.180616],[88.4339543,27.1806493],[88.4338128,27.1806563],[88.4336967,27.1806468],[88.4335379,27.1806213],[88.4333611,27.1806163],[88.4332078,27.1806374],[88.433051,27.1806708],[88.4329684,27.1807107],[88.4328724,27.1807884],[88.4327665,27.1808104],[88.4326301,27.180845],[88.432489,27.180878],[88.4323505,27.1808833],[88.4321744,27.180879],[88.4319559,27.1808857],[88.4318315,27.180923],[88.4317325,27.1809605],[88.4315459,27.1810327],[88.4313459,27.1810891],[88.4311694,27.1811356],[88.4310628,27.1812229],[88.4308584,27.1812854],[88.4307371,27.1813081],[88.4306568,27.1813055],[88.430545,27.1812806],[88.4304896,27.1812124],[88.4304407,27.1811291],[88.4304109,27.1810344],[88.4303747,27.1809435],[88.4303065,27.1808772],[88.430198,27.1808412],[88.4301298,27.1808526],[88.4300744,27.1808784],[88.4300377,27.180923],[88.429961,27.1810631],[88.4298972,27.1811919],[88.429829,27.1812942],[88.4297256,27.1813337],[88.4296139,27.1813837],[88.4294971,27.181412],[88.4293927,27.181439],[88.4285211,27.1815659],[88.4283239,27.1815693],[88.4280028,27.1815543],[88.4275037,27.1816819],[88.4272718,27.1816029],[88.4270493,27.1812825],[88.4266747,27.1809321],[88.4265086,27.1805969],[88.4263788,27.1802731],[88.4263311,27.1799534],[88.4263232,27.1798811],[88.4262979,27.1798337],[88.4262574,27.179758],[88.4261853,27.1796195],[88.4261397,27.1795074],[88.4261134,27.1793282],[88.4261106,27.1789302],[88.426104,27.178425],[88.4262042,27.1783411],[88.4262748,27.1781981],[88.4262149,27.1779825],[88.4260117,27.1778295],[88.4258157,27.177575],[88.4257332,27.1774208],[88.4257059,27.1773448],[88.4257117,27.1772726],[88.4257661,27.1772092],[88.4258873,27.1771821],[88.4260111,27.1771252],[88.4260143,27.1769511],[88.4256802,27.1767485],[88.4255124,27.1766395],[88.4253609,27.1766269],[88.4252494,27.1765939],[88.4250365,27.1765638],[88.4248675,27.1765127],[88.4246817,27.1764466],[88.4245195,27.1763443],[88.4243816,27.1761419],[88.4242073,27.1760907],[88.4239669,27.1761374],[88.4238716,27.1761685],[88.4237379,27.1760829],[88.4235643,27.1759915],[88.4234564,27.1758747],[88.4234029,27.1757648],[88.42338,27.1756667],[88.4233984,27.1755464],[88.423424,27.1754061],[88.4235612,27.1752594],[88.4236737,27.1751732],[88.4237762,27.175088],[88.4238841,27.1749704],[88.4239297,27.1747896],[88.4237883,27.1746744],[88.4234346,27.1746323],[88.4232162,27.1746022],[88.4231023,27.1745785],[88.4229308,27.174537],[88.4228112,27.1744054],[88.422662,27.1743022],[88.4225456,27.1743337],[88.4224718,27.1744153],[88.42244,27.17446],[88.4223471,27.1744748],[88.4222299,27.1744948],[88.4220592,27.1744899],[88.4217275,27.1745457],[88.4215302,27.1745998],[88.4214185,27.1746819],[88.421343,27.1747273],[88.4212437,27.1748203],[88.4211284,27.1749205],[88.4209272,27.1750923],[88.4207154,27.175226],[88.4202987,27.1753889],[88.4201943,27.1753553],[88.420066,27.1753229],[88.4199041,27.1752289],[88.4197719,27.1751753],[88.4196066,27.1751432],[88.4194221,27.1751528],[88.4192157,27.1751541],[88.4190797,27.1751272],[88.4189236,27.1751982],[88.4188111,27.1752614],[88.4187198,27.1753524],[88.41868,27.1754337],[88.4186894,27.1756076],[88.4186164,27.1757166],[88.4184998,27.1757867],[88.4183818,27.1757951],[88.4181981,27.1758435],[88.4180616,27.1758409],[88.4179318,27.175926],[88.4178993,27.1760481],[88.4179088,27.176203],[88.4179445,27.176349],[88.4180313,27.1764189],[88.4183117,27.1765737],[88.4184777,27.1766709],[88.418674,27.1767896],[88.4188436,27.1768593],[88.4188968,27.1771157],[88.4189639,27.1771754],[88.4190229,27.177259],[88.419039,27.1774666],[88.4191194,27.1776526],[88.4191517,27.1777934],[88.4191597,27.1778937],[88.4193176,27.1781227],[88.4192865,27.1782731],[88.4192854,27.1783606],[88.4192713,27.178497],[88.4192287,27.1786028],[88.4192027,27.1787305],[88.4192899,27.1788657],[88.4193569,27.1790707],[88.4193299,27.1793703],[88.4192937,27.1796606],[88.4192803,27.1799116],[88.4190336,27.1801317],[88.4189799,27.1802224],[88.4189102,27.1802892],[88.4188727,27.1803608],[88.4188566,27.1804563],[88.4188378,27.1805231],[88.4188137,27.1805851],[88.4187439,27.1807354],[88.4186634,27.1808261],[88.4185696,27.1809382],[88.4184998,27.181005],[88.418473,27.1811124],[88.4184408,27.181246],[88.4184113,27.1813987],[88.4184033,27.1816373],[88.418355,27.1818091],[88.4183094,27.1818974],[88.4182262,27.1820024],[88.418111,27.1820597],[88.4179661,27.1821623],[88.4178479,27.1822147],[88.4176199,27.1823459],[88.4174536,27.1824723],[88.4173087,27.1825702],[88.4171912,27.1826442],[88.4170383,27.1827396],[88.4168318,27.1828422],[88.4166706,27.1829227],[88.4165726,27.1830172],[88.4164948,27.1830745],[88.4164252,27.1831267],[88.4163616,27.183206],[88.4163225,27.1832748],[88.4162522,27.1833479],[88.4161748,27.1834845],[88.4161438,27.1835859],[88.4161207,27.1836615],[88.4160535,27.1838898],[88.4159489,27.1840593],[88.4158956,27.184192],[88.4158393,27.1842565],[88.4158232,27.1843328],[88.4158474,27.1844116],[88.4159037,27.1844879],[88.4159761,27.1845571],[88.4160753,27.1846645],[88.4161987,27.1848005],[88.4162947,27.1848783],[88.4163969,27.1849274],[88.416515,27.1849693],[88.4166545,27.1850385],[88.4168613,27.1849428],[88.4170491,27.1850324],[88.4171961,27.1851199],[88.4173115,27.1852281],[88.4174143,27.1853879],[88.4174312,27.18552],[88.4174331,27.1856713],[88.417459,27.1857618],[88.4174478,27.1858275],[88.4173825,27.1859852],[88.4172607,27.1861002],[88.4172097,27.186234],[88.4170906,27.1864672],[88.4170074,27.1866553],[88.4169258,27.1867931],[88.4168535,27.1868472],[88.4167431,27.1869365],[88.4166358,27.1870176],[88.4165553,27.1870534],[88.4164238,27.1871441],[88.416279,27.1872252],[88.416161,27.1872896],[88.4159719,27.1873517],[88.4159049,27.1873981],[88.4158056,27.1874685],[88.4157359,27.1875377],[88.4156608,27.1876093],[88.4155427,27.1877083],[88.4153429,27.1877763],[88.4150398,27.1878431],[88.4147931,27.1878622],[88.4146697,27.1878419],[88.4143934,27.1877978],[88.4140179,27.187731],[88.4137845,27.1877071],[88.4135512,27.1876857],[88.4133608,27.1876474],[88.4132213,27.1876379],[88.4131059,27.1876332],[88.4128887,27.1876403],[88.4126849,27.1876665],[88.4124836,27.1876952],[88.4122664,27.1877548],[88.4121591,27.1878121],[88.4120357,27.1879219],[88.4119177,27.1880722],[88.4118265,27.1882058],[88.4117166,27.1883465],[88.4117134,27.1884842],[88.4117099,27.1886764],[88.4117062,27.1887741],[88.4116434,27.1888839],[88.4115234,27.189106],[88.4114923,27.1893257],[88.4114342,27.1894643],[88.4112159,27.1897827],[88.4110537,27.189921],[88.4109861,27.1899781],[88.41103,27.1901224],[88.4111753,27.1901705],[88.4116451,27.1902105],[88.4118614,27.1902315],[88.4123166,27.1902772],[88.4126579,27.1904065],[88.4130827,27.1903731],[88.4131716,27.1906048],[88.4131856,27.1907333],[88.4131836,27.1908924],[88.4131917,27.190994],[88.4132442,27.1910843],[88.4133337,27.1913001],[88.4134018,27.1915286],[88.4132901,27.1916785],[88.4132059,27.1917728],[88.4130758,27.191923],[88.4130026,27.1920533],[88.4129992,27.1921324],[88.4129212,27.192241],[88.4129111,27.1924689],[88.4128648,27.1928088],[88.4128091,27.1929176],[88.4127626,27.1930003],[88.4127707,27.193158],[88.4128617,27.193202],[88.4130318,27.1931746],[88.4133709,27.1927606],[88.4134486,27.1926764],[88.4135483,27.192576],[88.4137556,27.1922953],[88.4138807,27.1922605],[88.4140748,27.1922984],[88.4142866,27.1923523],[88.4143873,27.1923847],[88.4144889,27.1924482],[88.4145171,27.1925103],[88.4145167,27.19261],[88.4145647,27.1927266],[88.4146941,27.192807],[88.4147802,27.1929061],[88.4148931,27.1929511],[88.4150518,27.1929872],[88.4151656,27.1930386],[88.4153706,27.1930921],[88.4154521,27.1931215],[88.4155344,27.193111],[88.4156801,27.1930691],[88.4158336,27.1930391],[88.4159718,27.1929691],[88.4160688,27.1929445],[88.416205,27.1928934],[88.4163757,27.1928789],[88.4164747,27.1928981],[88.4166372,27.1929546],[88.4167747,27.1930137],[88.4169347,27.1930576],[88.4171507,27.1930949],[88.417514,27.1931554],[88.417907,27.1931986],[88.4180255,27.193389],[88.4181518,27.193662],[88.4183103,27.193788],[88.4184844,27.1938926],[88.4186266,27.1939606],[88.4189042,27.1940548],[88.4191188,27.1941169],[88.4192274,27.1941348],[88.4193401,27.1941455],[88.419446,27.1941312],[88.4195815,27.1940663],[88.4197656,27.1939802],[88.4200209,27.1938435],[88.4202187,27.1937856],[88.4203915,27.1937639],[88.4205464,27.1936969],[88.4206663,27.1935741],[88.4207347,27.1934843],[88.4208115,27.1933417],[88.4209554,27.1932756],[88.4210989,27.1932684],[88.4212733,27.1932983],[88.4215281,27.1933507],[88.4216622,27.1933615],[88.4218285,27.1933627],[88.42209,27.1933436],[88.4222871,27.1933603],[88.4224038,27.1933913],[88.4224749,27.1934545],[88.4225084,27.1935638],[88.4224858,27.1936871],[88.4224232,27.1938057],[88.4223207,27.1940199],[88.4222751,27.1941094],[88.4222536,27.1941977],[88.4222201,27.1943003],[88.4222241,27.1943659],[88.4222241,27.194478],[88.4221772,27.1945603],[88.4221115,27.1946259],[88.4219908,27.1947011],[88.4219438,27.1947738],[88.4218295,27.1949067],[88.4217045,27.195039],[88.4215828,27.1951773],[88.4214104,27.1953772],[88.4212618,27.195535],[88.4211857,27.1956281],[88.4211063,27.1957574],[88.4210776,27.1958461],[88.4210759,27.1959302],[88.4211181,27.1959873],[88.4211975,27.1960324],[88.4213361,27.196049],[88.4214882,27.1960399],[88.4217788,27.1959693],[88.4220948,27.1958731],[88.4222891,27.1958416],[88.4224293,27.1958385],[88.4225256,27.1958235],[88.4226574,27.195789],[88.4227402,27.1957754],[88.4228501,27.1957679],[88.4229447,27.195816],[88.4230444,27.1958656],[88.4232206,27.1958832],[88.4234378,27.1959094],[88.4237194,27.1958951],[88.4239474,27.1958546],[88.4242022,27.1957973],[88.4244222,27.1956995],[88.4246207,27.1957185],[88.4248513,27.1957161],[88.4251051,27.1957335],[88.4253866,27.1957621],[88.4256201,27.1957836],[88.4258974,27.1957949],[88.4260744,27.1957949],[88.42623,27.1957949],[88.4264043,27.1957591],[88.4266967,27.1956589],[88.4268817,27.1955826],[88.4270729,27.1955463],[88.4273131,27.1954352],[88.427459,27.195341],[88.4275289,27.19531],[88.4276448,27.1953326],[88.4279089,27.1954979],[88.4280738,27.1955661],[88.4281706,27.1955957],[88.4282349,27.1956613],[88.4283167,27.1957508],[88.4284187,27.1958128],[88.4284481,27.1958424],[88.4284991,27.1958939],[88.4286064,27.1959619],[88.4287164,27.1960096],[88.4288492,27.1960466],[88.4289886,27.1960919],[88.4290892,27.1961408],[88.429159,27.1961909],[88.4292207,27.1962744],[88.429281,27.196346],[88.4293279,27.1963782],[88.4294272,27.1963913],[88.4295371,27.1964105],[88.4297075,27.1964057],[88.4298657,27.1965177],[88.429902,27.1965893],[88.4299529,27.196717],[88.4299127,27.1968732],[88.429855,27.1969341],[88.4298751,27.1971786],[88.4298899,27.1972406],[88.4299556,27.1972919],[88.4300494,27.1973444],[88.4301165,27.1973718],[88.430197,27.1973897],[88.4302895,27.1973897],[88.4303861,27.197317],[88.4305375,27.1972709],[88.4306625,27.1972118],[88.4308159,27.1971736],[88.4308941,27.1971713],[88.4309674,27.1971646],[88.4310801,27.1971447],[88.431226,27.1971082],[88.4313735,27.1970865],[88.4315135,27.1970708],[88.4316668,27.1971149],[88.4317412,27.1971351],[88.4319224,27.1971714],[88.4320544,27.1973301],[88.432218,27.1973599],[88.4323079,27.197373],[88.4324058,27.1973742],[88.4326418,27.1973504],[88.4329556,27.1972788],[88.4331877,27.1972025],[88.433413,27.1972085],[88.4337357,27.1972182],[88.4340419,27.1971993],[88.4341561,27.1971308],[88.4342674,27.1970494],[88.4343771,27.1969915],[88.4344,27.196946],[88.4345556,27.1968947],[88.434805,27.1967671],[88.4349485,27.1967241],[88.4351349,27.1967098],[88.4353562,27.1967158],[88.4355547,27.196742],[88.435662,27.1967719],[88.4359222,27.1968363],[88.4360911,27.1968554],[88.4362856,27.1968637],[88.436413,27.196853],[88.4365954,27.1968422],[88.4367711,27.1968422],[88.436932,27.196847],[88.4371131,27.1968685],[88.437354,27.1971071],[88.4376201,27.1971213],[88.4378292,27.1970903],[88.4380214,27.1971734],[88.4381184,27.1971556],[88.4382606,27.1971937],[88.4384452,27.1971552],[88.4385838,27.1971046],[88.4387098,27.1970808],[88.4388422,27.197049],[88.4390107,27.1969977],[88.4391453,27.1970419],[88.4393429,27.1970768],[88.4395316,27.1971198],[88.4397438,27.197208],[88.4399723,27.197348],[88.4402687,27.197503],[88.4405034,27.1975412],[88.4407005,27.1975209],[88.4408292,27.1974971],[88.4409781,27.1974828],[88.4410653,27.1974983],[88.4411236,27.1974989],[88.4411565,27.1975091],[88.4412684,27.1975445],[88.4415145,27.197571],[88.4417587,27.1975829],[88.4418955,27.1975746],[88.4420577,27.1975591],[88.4422026,27.1975591],[88.442397,27.1975519],[88.4425875,27.1975483],[88.4426867,27.1975543],[88.4427819,27.1975961],[88.442857,27.1976271],[88.4429348,27.1976581],[88.4430381,27.1976688],[88.4431909,27.1976355],[88.4432835,27.1976045],[88.4433921,27.1975806],[88.4434672,27.1975866],[88.4435262,27.1976355],[88.4435434,27.197736],[88.443582,27.1977912],[88.4436528,27.1978512],[88.4436765,27.1978926],[88.4436858,27.1979693],[88.443667,27.1981293],[88.4436328,27.1982501]]}},{"type":"Feature","properties":{"kind":"road","highway":"unclassified","motorable":true,"name":null,"ref":null,"bridge":false,"osm_id":606048482},"geometry":{"type":"LineString","coordinates":[[88.3951915,27.17097],[88.39521,27.1711049],[88.3953228,27.1712034],[88.3953782,27.1712602],[88.3954484,27.1713511],[88.3954953,27.1714041],[88.3955698,27.1714742],[88.3956251,27.171567],[88.3956188,27.1716144],[88.3955634,27.1716314],[88.3955017,27.1715973],[88.3954357,27.1715594],[88.3953654,27.1715253],[88.3953292,27.1715215],[88.3953484,27.1715708],[88.3954165,27.1716276],[88.395523,27.1717261],[88.3956273,27.1718265],[88.395706,27.1719155],[88.3957678,27.1720197],[88.3957955,27.1721428],[88.3957955,27.1723],[88.3958125,27.1725727],[88.3957976,27.172692],[88.395772,27.1727526],[88.3957295,27.1728208],[88.3956805,27.1727943],[88.395689,27.1727071],[88.3956997,27.1726219],[88.3956698,27.1725367],[88.3955975,27.1724742],[88.395557,27.1724193]]}},{"type":"Feature","properties":{"kind":"road","highway":"service","motorable":true,"name":null,"ref":null,"bridge":false,"osm_id":1237835088},"geometry":{"type":"LineString","coordinates":[[88.4135868,27.17063],[88.4135654,27.1705545],[88.413615,27.1704901],[88.4136872,27.1704394],[88.413832,27.1702963],[88.4139608,27.1701245],[88.4140305,27.1700195],[88.4143309,27.1700099],[88.4144436,27.1700099],[88.4144852,27.1699824],[88.4144561,27.1699405],[88.4140627,27.1698667],[88.4138897,27.1699073],[88.4136925,27.1700493],[88.4136335,27.1700636],[88.4136175,27.169998],[88.4137288,27.1698727],[88.4137945,27.1696997],[88.4139071,27.169609],[88.4143363,27.1696126],[88.4146045,27.1695756],[88.4149629,27.1694736],[88.4150047,27.1693919],[88.4149669,27.169371],[88.4146232,27.1693903],[88.4140349,27.1692624],[88.4137358,27.1692827],[88.4134971,27.1694318],[88.4133295,27.1694879],[88.4131229,27.1695869],[88.4129848,27.1696406],[88.4128493,27.1697957],[88.4126844,27.1699664],[88.4125234,27.1700177],[88.4122361,27.1700652],[88.4121625,27.1700914],[88.4120019,27.1701579],[88.4119593,27.1701646],[88.4119247,27.1701519],[88.4119106,27.1701275],[88.411926,27.1700977],[88.412035,27.1700455],[88.4122247,27.1699248],[88.4124457,27.1698041],[88.4125291,27.1697531],[88.4125932,27.1696872],[88.4126227,27.1696144],[88.4126884,27.1694867],[88.4126954,27.1694641],[88.4127125,27.1694092],[88.4129137,27.1693471],[88.4131095,27.1692684],[88.4132812,27.1690632],[88.4134703,27.1689093],[88.4135172,27.1688794],[88.4137197,27.1687088],[88.4137841,27.1686229],[88.4138176,27.1685811],[88.4138617,27.1685573],[88.4142092,27.16837],[88.4143648,27.1682769],[88.4144117,27.168228],[88.4144734,27.168123],[88.4144908,27.1680454],[88.4145096,27.1679285],[88.414452,27.1679178],[88.4143433,27.1679703],[88.414279,27.1680025],[88.414177,27.1679762],[88.4140992,27.1678712],[88.4139826,27.1678426],[88.413776,27.1678533],[88.413658,27.1679034],[88.4135172,27.1679679],[88.4133029,27.1680888],[88.4132678,27.1681087],[88.4131699,27.1681659],[88.4130921,27.1682208],[88.4128866,27.1683875],[88.4126836,27.1685618],[88.4125903,27.1686539],[88.4125612,27.1687091],[88.4124667,27.1687915],[88.4123956,27.1688454],[88.4122445,27.1689176],[88.4121848,27.1689318],[88.4121266,27.168933]]}},{"type":"Feature","properties":{"kind":"road","highway":"path","motorable":false,"name":null,"ref":null,"bridge":false,"osm_id":1248787664},"geometry":{"type":"LineString","coordinates":[[88.4099106,27.1745264],[88.4099979,27.174496],[88.4101382,27.1744505],[88.4101913,27.1743965],[88.4102368,27.1743661],[88.4103013,27.1743273],[88.4103525,27.1743155],[88.4104104,27.1743205],[88.4104606,27.1743189],[88.410491,27.1743349],[88.4105355,27.1743366],[88.410563,27.1743045],[88.4105934,27.1742902],[88.4106285,27.1742902],[88.4106759,27.1742868],[88.4107053,27.1742767],[88.4108409,27.1742927],[88.4109262,27.1742961],[88.4110609,27.1742826],[88.4111756,27.1742455],[88.4112942,27.1742379],[88.4113577,27.1742353],[88.4114153,27.1742524]]}},{"type":"Feature","properties":{"kind":"road","highway":"path","motorable":false,"name":null,"ref":null,"bridge":false,"osm_id":1248787665},"geometry":{"type":"LineString","coordinates":[[88.4096982,27.173077],[88.4096773,27.1730602],[88.4095635,27.172996],[88.4095218,27.172991],[88.4094649,27.172964],[88.409427,27.1729522],[88.4093909,27.1729252],[88.4094194,27.1728627],[88.4094213,27.1728155],[88.4093928,27.1727598],[88.4094232,27.1726096]]}},{"type":"Feature","properties":{"kind":"road","highway":"path","motorable":false,"name":null,"ref":null,"bridge":false,"osm_id":1248787666},"geometry":{"type":"LineString","coordinates":[[88.4086628,27.1749408],[88.4088011,27.174825],[88.408877,27.174658],[88.4089642,27.1745365],[88.4090078,27.1744538],[88.4090306,27.1743897],[88.4090647,27.1743627],[88.409078,27.1743003],[88.4091083,27.1741805],[88.4091273,27.1740911],[88.4091254,27.1740236],[88.409133,27.1738869],[88.4091652,27.1737317],[88.4091633,27.173644],[88.4091918,27.1735781],[88.4092449,27.1734921],[88.4093397,27.173379],[88.4094782,27.1732593],[88.4096356,27.1731209],[88.4096982,27.173077],[88.4097665,27.1730483],[88.4098992,27.1729285],[88.4100832,27.1727413]]}},{"type":"Feature","properties":{"kind":"road","highway":"path","motorable":false,"name":null,"ref":null,"bridge":false,"osm_id":1248787694},"geometry":{"type":"LineString","coordinates":[[88.4078729,27.1759871],[88.4079058,27.1759937],[88.4079373,27.1760015],[88.4079909,27.1760062],[88.4080325,27.1760026],[88.4080466,27.1760015],[88.408062,27.1760128],[88.4081143,27.1760128],[88.4081331,27.1760235],[88.4081693,27.1760265],[88.4082296,27.1760217],[88.4082551,27.1760229],[88.4082726,27.1759991],[88.4082746,27.175906],[88.4082907,27.1758082],[88.4082927,27.1757718],[88.4083778,27.1756543],[88.4084523,27.1755415],[88.408512,27.1754485],[88.4085455,27.1753829],[88.4085703,27.1753202],[88.4085803,27.1752612],[88.4085857,27.1751621],[88.4085877,27.175087],[88.408628,27.1750291],[88.4086628,27.1749408],[88.4087205,27.1749408],[88.4088144,27.1749635],[88.4089217,27.1749945],[88.4090236,27.1750339],[88.4090987,27.1750434],[88.4091711,27.1750935],[88.4092154,27.1750494],[88.4092516,27.1750315],[88.4094179,27.1750041]]}},{"type":"Feature","properties":{"kind":"road","highway":"path","motorable":false,"name":null,"ref":null,"bridge":false,"osm_id":1248787695},"geometry":{"type":"LineString","coordinates":[[88.4064171,27.1761445],[88.4065147,27.1761892],[88.4065783,27.1762153],[88.4066285,27.176174],[88.4066712,27.1761276],[88.406693,27.1760694],[88.4067404,27.1760103],[88.4067395,27.1759673],[88.4067897,27.1759732],[88.4068201,27.1759935],[88.4069253,27.1760129],[88.4070685,27.1760373],[88.4071577,27.1760601],[88.4072705,27.1760846],[88.4073246,27.1761158],[88.4073995,27.1761521],[88.4074794,27.1761907],[88.4075698,27.176209],[88.4076141,27.1762043],[88.4076838,27.1762019],[88.4077308,27.1761983],[88.4077871,27.1761518],[88.4078018,27.1760683],[88.4078112,27.1760205],[88.4078327,27.1760026],[88.4078729,27.1759871],[88.407881,27.1759394],[88.4078675,27.1758559],[88.4078126,27.1757605],[88.4078018,27.1756877],[88.4078085,27.1756233],[88.4078488,27.1755147],[88.4078903,27.175467],[88.4079145,27.1753954]]}},{"type":"Feature","properties":{"kind":"road","highway":"unclassified","motorable":true,"name":null,"ref":null,"bridge":false,"osm_id":1248787704},"geometry":{"type":"LineString","coordinates":[[88.4067732,27.1744218],[88.4067759,27.1742596],[88.4068885,27.1741116],[88.4070575,27.1739255],[88.4072211,27.1737012],[88.4072775,27.1735819],[88.4072506,27.1734459],[88.4072319,27.173255],[88.4072426,27.1731429],[88.4073096,27.1730593],[88.4074491,27.1730307],[88.4075826,27.1730324]]}},{"type":"Feature","properties":{"kind":"road","highway":"path","motorable":false,"name":null,"ref":null,"bridge":false,"osm_id":1248794650},"geometry":{"type":"LineString","coordinates":[[88.4125699,27.1716611],[88.4126104,27.1716943],[88.4126692,27.1717238],[88.4127375,27.1717466],[88.412746,27.1717803],[88.4127669,27.1718377],[88.4127859,27.1718554],[88.412783,27.1718917],[88.4127641,27.1719347],[88.4127849,27.1719676],[88.4128371,27.1719811],[88.4128636,27.1719685],[88.4128779,27.1720056],[88.4128627,27.1720309],[88.4128598,27.1720706],[88.4128968,27.172117],[88.4129698,27.1721532],[88.4130466,27.1722013],[88.413096,27.1722207],[88.413151,27.1722317],[88.4131842,27.172257],[88.4131965,27.1722764],[88.4131709,27.1722899],[88.4131529,27.1723059],[88.4131481,27.172322],[88.4131879,27.1723296],[88.4132164,27.1723422],[88.4132136,27.1723743],[88.4132354,27.1724021],[88.4132581,27.172435],[88.4133086,27.1724727]]}},{"type":"Feature","properties":{"kind":"road","highway":"unclassified","motorable":true,"name":null,"ref":null,"bridge":false,"osm_id":1252742812},"geometry":{"type":"LineString","coordinates":[[88.4022291,27.1854475],[88.4021732,27.1854501],[88.4021491,27.1854608],[88.4021142,27.1855002],[88.4019707,27.1856171],[88.4018916,27.1857507],[88.4018527,27.1857865],[88.4018165,27.1858378],[88.401728,27.1858974],[88.4015818,27.1860859],[88.4015617,27.1861587],[88.4015617,27.1863102],[88.4015121,27.1865273],[88.4014906,27.1866883],[88.401453,27.1867826],[88.4013914,27.1870486],[88.4013793,27.1870713],[88.4013109,27.1871178],[88.40128,27.1871584],[88.4012318,27.1871834],[88.4011929,27.1872204],[88.40115,27.1872848],[88.4011218,27.1873552],[88.4011097,27.1874101],[88.4011365,27.1875795],[88.4011862,27.1876677],[88.4011969,27.1877155],[88.4011862,27.187836],[88.4012023,27.1879409],[88.4011956,27.1880638],[88.4012036,27.1882833],[88.4011674,27.1885243],[88.4011875,27.188708],[88.4012264,27.1888511],[88.4012425,27.1888738],[88.4013095,27.1889132],[88.4013216,27.1889847],[88.4013645,27.1891279],[88.4014504,27.189345],[88.4014758,27.1894428],[88.4015429,27.1895466],[88.4015831,27.1895788],[88.4016113,27.1896206],[88.4016824,27.1898078],[88.4018044,27.1900166],[88.4019144,27.1903196],[88.4019895,27.1904472],[88.4020391,27.1905916],[88.4021169,27.1908445],[88.4022014,27.1909089],[88.4022725,27.1909852],[88.4023056,27.1910223],[88.4023582,27.1910571],[88.4023949,27.1911033],[88.4025192,27.1912453],[88.4026895,27.1913813],[88.4027579,27.19146],[88.4027968,27.1915793],[88.4028746,27.1917861],[88.402874,27.191883],[88.4029324,27.1919561],[88.4029998,27.1920147],[88.4031482,27.1921078],[88.4031656,27.1922318],[88.4031562,27.1923082],[88.4031683,27.1924048],[88.4031656,27.1925587],[88.4031871,27.1926302],[88.4032246,27.192697],[88.4032314,27.1927722],[88.4032515,27.1928426],[88.4033762,27.1930609],[88.4035277,27.1932434],[88.4036417,27.1933495],[88.4037825,27.1934199],[88.4038483,27.1934652],[88.4039569,27.1935917]]}},{"type":"Feature","properties":{"kind":"road","highway":"path","motorable":false,"name":null,"ref":null,"bridge":false,"osm_id":1252744202},"geometry":{"type":"LineString","coordinates":[[88.4054627,27.1778659],[88.4054697,27.1778757],[88.4054764,27.177902],[88.4054743,27.1779455],[88.4054931,27.1779974],[88.4055132,27.178041],[88.4055018,27.1780791],[88.4054831,27.1781221],[88.4054583,27.1781782],[88.4054435,27.1782163],[88.4054516,27.1782599],[88.405465,27.1783016],[88.4054314,27.1783595],[88.4053899,27.1784072],[88.4053563,27.1784508],[88.4051059,27.1789009]]}},{"type":"Feature","properties":{"kind":"road","highway":"path","motorable":false,"name":null,"ref":null,"bridge":false,"osm_id":1252744203},"geometry":{"type":"LineString","coordinates":[[88.4065573,27.176456],[88.4064071,27.1766075],[88.4063052,27.1767865],[88.4061429,27.1768807],[88.4060638,27.176975],[88.4059954,27.1770955],[88.4059887,27.1772219],[88.4059498,27.1773556],[88.4058693,27.1774594],[88.4058291,27.1775333],[88.405762,27.1776204],[88.405758,27.1776717],[88.4057218,27.1777087],[88.4055582,27.1777851],[88.4054627,27.1778659],[88.4053905,27.177927],[88.4051961,27.1780344],[88.40507,27.178137],[88.4049949,27.1782265],[88.4048688,27.1782826],[88.404665,27.1783327],[88.4044182,27.1784329],[88.4041768,27.1785856],[88.4040722,27.1787001],[88.4039757,27.1787765],[88.4039032,27.178829],[88.4038496,27.1789292],[88.4037369,27.1790819],[88.4036189,27.1792227],[88.4035209,27.1793147],[88.4034963,27.1793856],[88.4033996,27.1795121],[88.4033085,27.1796235],[88.4032099,27.179723],[88.4031606,27.179885],[88.4030278,27.180128],[88.4028723,27.1803439],[88.4027471,27.1805835],[88.4026257,27.1807826],[88.4025764,27.1809918],[88.4025081,27.1811571],[88.4022237,27.181589],[88.4021743,27.1817105],[88.4019695,27.1819265],[88.4018064,27.1820412],[88.4017078,27.1821053],[88.4015485,27.1822403],[88.401484,27.1824191],[88.4012147,27.1825338],[88.4009833,27.1826688],[88.4006988,27.1827835],[88.4004522,27.1828544],[88.400236,27.1829219],[88.4000767,27.1829522],[88.3998491,27.1829657],[88.3996405,27.1829961],[88.3994963,27.1830906],[88.3992991,27.1832559],[88.3991625,27.1833437],[88.3989122,27.1833572],[88.3988439,27.1833842],[88.3987567,27.1834415],[88.3987794,27.1835225],[88.3987529,27.183644],[88.3986998,27.1836743],[88.3985898,27.1837351],[88.3984949,27.1837317],[88.3983584,27.1839746],[88.3982408,27.1841231],[88.3982256,27.1842176],[88.398089,27.1843458],[88.3979715,27.1844707],[88.397907,27.1846596],[88.397869,27.1847845],[88.3977073,27.184949],[88.3974767,27.185221],[88.3972889,27.1853976],[88.3971387,27.1856219],[88.3969939,27.1857984],[88.3969027,27.1859463],[88.3967578,27.1861038],[88.396672,27.1863233],[88.396613,27.1865714],[88.3965057,27.1869007]]}},{"type":"Feature","properties":{"kind":"road","highway":"path","motorable":false,"name":null,"ref":null,"bridge":false,"osm_id":1254381893},"geometry":{"type":"LineString","coordinates":[[88.3951988,27.1753826],[88.3952343,27.1754754],[88.3952577,27.1756393],[88.3953249,27.1758057],[88.3954886,27.1760475],[88.3955617,27.1761515],[88.3955646,27.1762113],[88.3955775,27.1764974],[88.3956179,27.176761],[88.395692,27.1769587],[88.3958031,27.1770695],[88.3958426,27.177153],[88.3958863,27.1773327],[88.3959604,27.1775813],[88.3959806,27.1777341],[88.3960001,27.1779931],[88.3960293,27.1781517],[88.3960088,27.1783208],[88.3960468,27.1784404],[88.3960264,27.1785002],[88.3960351,27.1785808],[88.3959498,27.1788846],[88.3959498,27.1791171],[88.3959676,27.1792661],[88.3959117,27.1794692],[88.3958022,27.1798751],[88.3957052,27.1801856],[88.3956897,27.1803305],[88.3957401,27.1804685],[88.3957401,27.180572],[88.3956238,27.1806996],[88.3956012,27.1809148],[88.3955818,27.1812495],[88.3955896,27.1814116],[88.3955902,27.18157]]}},{"type":"Feature","properties":{"kind":"road","highway":"unclassified","motorable":true,"name":null,"ref":null,"bridge":false,"osm_id":1258692111},"geometry":{"type":"LineString","coordinates":[[88.4124219,27.1796903],[88.4126231,27.1796569],[88.4128672,27.1796879],[88.4130415,27.179676],[88.4132239,27.1796545],[88.4133124,27.1796044],[88.4133661,27.1794827],[88.4134948,27.1794684],[88.4136558,27.1794756],[88.4138489,27.1794684],[88.4140018,27.1794565],[88.4141064,27.1793945],[88.4141412,27.1792728],[88.414152,27.1791392],[88.4142324,27.1790461]]}},{"type":"Feature","properties":{"kind":"road","highway":"path","motorable":false,"name":null,"ref":null,"bridge":false,"osm_id":1258692116},"geometry":{"type":"LineString","coordinates":[[88.4131009,27.1845087],[88.4131354,27.1844754],[88.4131575,27.1844235],[88.4131663,27.1843603],[88.4131683,27.1843287],[88.4131589,27.1842201],[88.4131582,27.1841462]]}},{"type":"Feature","properties":{"kind":"road","highway":"path","motorable":false,"name":null,"ref":null,"bridge":false,"osm_id":1258692117},"geometry":{"type":"LineString","coordinates":[[88.4133535,27.1845769],[88.4132454,27.1845303],[88.4131009,27.1845087],[88.4130374,27.1844979],[88.4129778,27.1844868],[88.412827,27.1844528],[88.4127586,27.1844468],[88.4126754,27.1844384],[88.4125561,27.1844551],[88.4124649,27.1844695],[88.4123415,27.1844718],[88.4122637,27.1844742],[88.4122235,27.1844671],[88.412194,27.1844372],[88.4121524,27.1843943],[88.4120907,27.1844277],[88.4120049,27.1844492],[88.4119512,27.1844575],[88.4118895,27.1844539],[88.4117769,27.1844695],[88.4116964,27.1844993],[88.4116365,27.1845162]]}},{"type":"Feature","properties":{"kind":"road","highway":"service","motorable":true,"name":null,"ref":null,"bridge":false,"osm_id":1258692118},"geometry":{"type":"LineString","coordinates":[[88.4112429,27.1844831],[88.4113501,27.1845213],[88.4114146,27.1845989],[88.411462,27.1846259],[88.4115626,27.1845567],[88.4116365,27.1845162]]}},{"type":"Feature","properties":{"kind":"road","highway":"path","motorable":false,"name":null,"ref":null,"bridge":false,"osm_id":1259511129},"geometry":{"type":"LineString","coordinates":[[88.408263,27.187223],[88.4080821,27.187564],[88.4075564,27.1881557],[88.4071273,27.1881413],[88.4067196,27.1879314],[88.4070092,27.1873349],[88.4070736,27.1867909],[88.4069556,27.1864092]]}},{"type":"Feature","properties":{"kind":"road","highway":"path","motorable":false,"name":null,"ref":null,"bridge":false,"osm_id":1260548625},"geometry":{"type":"LineString","coordinates":[[88.4099342,27.1780671],[88.4099865,27.1779676],[88.4100696,27.1778447],[88.4101528,27.1777493]]}},{"type":"Feature","properties":{"kind":"road","highway":"path","motorable":false,"name":null,"ref":null,"bridge":false,"osm_id":1260548651},"geometry":{"type":"LineString","coordinates":[[88.4151244,27.1850156],[88.4152325,27.1850611],[88.4152932,27.1851084],[88.4153102,27.185159],[88.4153463,27.1852737],[88.4153653,27.1853294],[88.4153577,27.1853513]]}},{"type":"Feature","properties":{"kind":"road","highway":"path","motorable":false,"name":null,"ref":null,"bridge":false,"osm_id":1260548652},"geometry":{"type":"LineString","coordinates":[[88.4143145,27.1852282],[88.414379,27.1852265],[88.4144435,27.1852552],[88.414527,27.1852889],[88.4145838,27.1852855],[88.4146199,27.1852197],[88.4146863,27.1852214],[88.4146939,27.1852568],[88.4147147,27.1852906],[88.4147545,27.1852535],[88.4148039,27.1852602],[88.4148361,27.1852855],[88.4149518,27.1853142],[88.4149764,27.1853513],[88.4150846,27.1853412],[88.4151168,27.1853496],[88.4151851,27.1853564],[88.4152913,27.1853513],[88.4153577,27.1853513],[88.4154127,27.1853716],[88.4155416,27.1854019],[88.415627,27.1853986],[88.4156782,27.1853783],[88.4157541,27.1853429],[88.4158204,27.1853328],[88.4158679,27.1853665],[88.4158906,27.1853614],[88.4159115,27.1853294],[88.4159722,27.1853361],[88.4160101,27.185353],[88.4160992,27.1853682],[88.4161049,27.1853395],[88.4161599,27.1853463],[88.4161998,27.1853783],[88.4162605,27.1854087],[88.4163117,27.1854542],[88.4163591,27.1854812],[88.4164122,27.1854779],[88.4164065,27.185574],[88.4164131,27.1856204],[88.4164624,27.1856634],[88.4165042,27.1856972],[88.4165269,27.1856685],[88.4165857,27.1856685],[88.4166701,27.1856761],[88.4166663,27.1857022],[88.4167346,27.1857402],[88.4167934,27.1857562],[88.4168768,27.1857815],[88.4169167,27.1857942],[88.4169319,27.1858186],[88.4169631,27.1858111],[88.417057,27.1858355],[88.4171177,27.1858693],[88.4171575,27.185887],[88.4172031,27.1858836],[88.4172581,27.1859106],[88.4173169,27.1859131],[88.4173595,27.185887],[88.4174155,27.1858465],[88.4174478,27.1858275],[88.417479,27.185822],[88.4175037,27.1858406],[88.417572,27.1858355],[88.4176165,27.185822],[88.4176583,27.1858094],[88.4176573,27.1858406],[88.4176895,27.185876],[88.4177104,27.1859182],[88.4177559,27.1859258],[88.4178157,27.1859038],[88.417847,27.1859249],[88.4178735,27.1859494],[88.4179086,27.185946],[88.4179314,27.1859308],[88.4179352,27.1859637],[88.417957,27.1859545],[88.4179788,27.1859452],[88.4179892,27.1859604],[88.418012,27.1859747],[88.4180215,27.1859857],[88.418012,27.186038]]}},{"type":"Feature","properties":{"kind":"road","highway":"path","motorable":false,"name":null,"ref":null,"bridge":false,"osm_id":1260548705},"geometry":{"type":"LineString","coordinates":[[88.4112743,27.177965],[88.4113805,27.1779734],[88.4114393,27.1779591],[88.4115957,27.1779422],[88.4117029,27.1779414],[88.4117873,27.1779439],[88.4118603,27.1779354],[88.411902,27.1778561],[88.4119201,27.1777996],[88.411957,27.1777735],[88.4120708,27.1777693],[88.4121704,27.1777347],[88.4122717,27.1776715]]}},{"type":"Feature","properties":{"kind":"road","highway":"service","motorable":true,"name":null,"ref":null,"bridge":false,"osm_id":1260548757},"geometry":{"type":"LineString","coordinates":[[88.4123795,27.1819696],[88.4124763,27.1818789],[88.412497,27.1818455],[88.4124863,27.1816928],[88.412483,27.1816182],[88.4125172,27.1815586]]}},{"type":"Feature","properties":{"kind":"road","highway":"path","motorable":false,"name":null,"ref":null,"bridge":false,"osm_id":1260555750},"geometry":{"type":"LineString","coordinates":[[88.40599,27.1780785],[88.4061053,27.1781012],[88.4062193,27.1781382],[88.4063266,27.1781776],[88.4063937,27.1781883],[88.4064703,27.1782039]]}},{"type":"Feature","properties":{"kind":"road","highway":"path","motorable":false,"name":null,"ref":null,"bridge":false,"osm_id":1260573291},"geometry":{"type":"LineString","coordinates":[[88.4004982,27.1788099],[88.4004821,27.1787866],[88.40046,27.1787657],[88.4004506,27.1787484],[88.400466,27.1787061],[88.4004754,27.1786804],[88.4004727,27.1786488]]}},{"type":"Feature","properties":{"kind":"road","highway":"path","motorable":false,"name":null,"ref":null,"bridge":false,"osm_id":1260632382},"geometry":{"type":"LineString","coordinates":[[88.4069556,27.1864092],[88.4067932,27.1864594],[88.4066957,27.1865346],[88.4065965,27.1866793],[88.4064745,27.1867964],[88.406372,27.1869787],[88.4062241,27.1870669],[88.4061102,27.1871118],[88.4059704,27.1870134],[88.405863,27.186808],[88.4056159,27.1867559],[88.405354,27.1867299],[88.4051979,27.1867834],[88.4051394,27.1868659],[88.4051134,27.1869122],[88.4050516,27.1870004],[88.4049036,27.1871089],[88.4048402,27.1871769],[88.4047019,27.187213],[88.4046011,27.1873997],[88.4046418,27.187553],[88.4045166,27.1875761],[88.4044938,27.1875891],[88.4043832,27.1875544],[88.4041442,27.1875472],[88.4040547,27.1875559],[88.4040222,27.1875935],[88.4039523,27.1875674],[88.4038628,27.1874705],[88.4038173,27.1874445],[88.4037718,27.1874112],[88.403697,27.1873534],[88.4035929,27.1873042],[88.4034742,27.1872536]]}},{"type":"Feature","properties":{"kind":"road","highway":"path","motorable":false,"name":null,"ref":null,"bridge":false,"osm_id":1260649642},"geometry":{"type":"LineString","coordinates":[[88.4032099,27.179723],[88.4030863,27.1798382],[88.4028798,27.1800262],[88.4027432,27.1801738],[88.4026147,27.1802809],[88.4024619,27.1804299],[88.4023854,27.1805065],[88.4022114,27.1806411]]}},{"type":"Feature","properties":{"kind":"road","highway":"service","motorable":true,"name":null,"ref":null,"bridge":false,"osm_id":1265862546},"geometry":{"type":"LineString","coordinates":[[88.4073636,27.1729248],[88.4074221,27.1727993],[88.4075061,27.1726647],[88.4075613,27.172544],[88.4076033,27.1724276],[88.4076441,27.1723689],[88.4076657,27.1723646],[88.407709,27.172371],[88.4077462,27.1723604],[88.4078746,27.1722151],[88.4079622,27.1721351],[88.4080451,27.1721052],[88.4081159,27.1719957],[88.4082066,27.1718718],[88.4083216,27.1717364],[88.4083605,27.1716874],[88.4083831,27.1716658],[88.4084042,27.1716629],[88.4084188,27.1716745],[88.4084366,27.1716716],[88.4085013,27.1716024],[88.4085499,27.1715275],[88.408626,27.1714627],[88.408694,27.1713834],[88.4087523,27.1712307],[88.4087721,27.1711606],[88.4088039,27.17111],[88.4088792,27.1710698],[88.408978,27.1710102],[88.4090299,27.1709744],[88.4090634,27.1709327],[88.4090784,27.1708523],[88.4090935,27.17076],[88.409132,27.1706676],[88.4091856,27.1705693],[88.4092392,27.1704472],[88.4092643,27.1703504],[88.4092492,27.1702372],[88.4092659,27.1701791],[88.409271,27.1700957],[88.4093212,27.170048],[88.4094049,27.1698529],[88.4094618,27.1697665],[88.409569,27.169634],[88.4096711,27.1694761],[88.4097531,27.1693942],[88.4098268,27.1693346],[88.4098485,27.1692914],[88.4099122,27.1692169],[88.4099356,27.1691529],[88.4099858,27.1690665],[88.4100494,27.1690323],[88.4100963,27.1689742],[88.4101733,27.1689697],[88.4102236,27.1689399],[88.4102838,27.168858],[88.4103056,27.1687835],[88.4103357,27.1686807],[88.4104881,27.1686137],[88.4105534,27.1684976],[88.4105902,27.1683918],[88.4107191,27.168289],[88.4107928,27.1681982],[88.4109066,27.1681014],[88.4110004,27.1680507],[88.4110723,27.1679658],[88.4111678,27.1678884],[88.4113502,27.167872],[88.4114559,27.1678469]]}},{"type":"Feature","properties":{"kind":"road","highway":"service","motorable":true,"name":null,"ref":null,"bridge":false,"osm_id":1271300293},"geometry":{"type":"LineString","coordinates":[[88.4121998,27.1715257],[88.4122282,27.1714664],[88.4122367,27.1714286],[88.4122239,27.1714033],[88.4122721,27.1712911],[88.4122977,27.171257],[88.4123402,27.1712482],[88.4124082,27.1712659],[88.4124933,27.1712886],[88.412601,27.1713062],[88.4126804,27.1713163],[88.4127187,27.1713201],[88.4127538,27.1713438]]}},{"type":"Feature","properties":{"kind":"road","highway":"service","motorable":true,"name":null,"ref":null,"bridge":false,"osm_id":1271300294},"geometry":{"type":"LineString","coordinates":[[88.4090634,27.1709327],[88.4092299,27.1709747],[88.4094532,27.1710046],[88.4096716,27.1710676]]}}]}