{"type":"FeatureCollection","name":"chungthang_rgb_0.5m","source":"OpenStreetMap waterways","licence":"ODbL 1.0 (c) OpenStreetMap contributors","features":[{"type":"Feature","properties":{"waterway":"river","name":"Lachen Chu","osm_id":126757760},"geometry":{"type":"LineString","coordinates":[[88.6086127,27.6426171],[88.609519,27.6422576],[88.6100697,27.6419882],[88.6110341,27.6407142],[88.6114376,27.6402997],[88.6125555,27.6396646],[88.6129269,27.6390216],[88.6130184,27.638156],[88.613687,27.637027],[88.6143837,27.636571],[88.6154409,27.6365051],[88.6161209,27.635442],[88.6167438,27.6343586],[88.6171267,27.6327335],[88.6181637,27.6307178],[88.6187537,27.6300878],[88.6191174,27.6290102],[88.6188507,27.6279362],[88.6193841,27.62654],[88.6193264,27.6259768],[88.6192547,27.6252762],[88.6191052,27.62407],[88.6193681,27.6229359],[88.6190252,27.6217561],[88.6193395,27.6206169],[88.6197852,27.6196296],[88.6202538,27.6194827],[88.6215567,27.6196498],[88.6224539,27.6192448],[88.6227339,27.6186929],[88.6230738,27.6184331],[88.624173,27.6178999],[88.6250636,27.6175758],[88.6251929,27.6171533],[88.6254556,27.6169278],[88.6256548,27.6165751],[88.6264286,27.6162368],[88.626516,27.6159505],[88.6265463,27.6156444],[88.6271102,27.6148693],[88.6281331,27.6143123],[88.6287131,27.6140034],[88.6287931,27.6137579],[88.6285475,27.6132254],[88.6285934,27.6126189],[88.6290743,27.6118419],[88.6292521,27.6112798],[88.6297046,27.6108537],[88.631725,27.6105315],[88.6326183,27.6106697],[88.6331595,27.6107535],[88.6343879,27.6107785],[88.6360956,27.6104306],[88.6371356,27.6099765],[88.6383438,27.6095933],[88.6390994,27.6088486],[88.6399965,27.6084583],[88.6408386,27.607519],[88.6416312,27.6062642],[88.6417386,27.6053532],[88.6420978,27.6043032],[88.6427336,27.6036373],[88.6434271,27.6032239],[88.6442198,27.6030117],[88.6451075,27.6028354],[88.6451816,27.6028207],[88.6465216,27.6015841],[88.6473613,27.6012827],[88.6484075,27.6011391],[88.6489271,27.6010977]]}},{"type":"Feature","properties":{"waterway":"river","name":"Teesta","osm_id":126757765},"geometry":{"type":"LineString","coordinates":[[88.651974,27.596012],[88.6525723,27.5956749],[88.6533261,27.5952457],[88.6536775,27.5947246],[88.6545081,27.5941435],[88.6550931,27.5938707],[88.6557457,27.5934367],[88.6561715,27.5931313],[88.6564214,27.5927173],[88.6565242,27.5925719],[88.6567943,27.5920785],[88.6568708,27.5916047],[88.6565941,27.5908561],[88.6559439,27.5896831],[88.6561148,27.5888107],[88.6558365,27.5881372],[88.6550969,27.5879438],[88.654855,27.5872213],[88.6548131,27.5867524],[88.6547386,27.5859191],[88.6550698,27.585326],[88.6554498,27.584935],[88.6555564,27.584098],[88.6560093,27.583457],[88.6563606,27.5828622],[88.6568406,27.5820672],[88.656843,27.5814719],[88.6557457,27.5798626],[88.655597,27.5791078],[88.6555294,27.5786585],[88.6544217,27.5772328],[88.6534259,27.5758329],[88.6528867,27.574998],[88.6528911,27.5740851],[88.6529395,27.5736376],[88.6532071,27.5733858],[88.653373,27.5721178],[88.6535194,27.5716774],[88.6542415,27.5709675],[88.6546435,27.5702653],[88.6549551,27.5691811],[88.6545009,27.5679374],[88.6538099,27.565555],[88.6533396,27.5642676],[88.6532724,27.5631725],[88.6535427,27.5611985],[88.6539634,27.5594286],[88.654166,27.5581374],[88.654617,27.5575329],[88.6553334,27.5569816],[88.6555902,27.5563944],[88.6554224,27.5559568],[88.6556073,27.5542249],[88.6555024,27.5532306],[88.6551509,27.5527033],[88.6546544,27.5524438]]}},{"type":"Feature","properties":{"waterway":"river","name":"Lachung Chu","osm_id":170015107},"geometry":{"type":"LineString","coordinates":[[88.7080299,27.898846],[88.7077857,27.898512],[88.7076881,27.8980432],[88.7075253,27.8978259],[88.7074505,27.8973717],[88.7073684,27.8970691],[88.7073188,27.8968491],[88.7073948,27.8965241],[88.7074959,27.8963727],[88.7075177,27.896152],[88.7074908,27.8959743],[88.7076028,27.8956911],[88.707544,27.8954942],[88.7075297,27.8951831],[88.7075195,27.8948002],[88.7075432,27.8943544],[88.707819,27.8940786],[88.7079931,27.8939322],[88.7079785,27.8937512],[88.7081591,27.8933617],[88.7082545,27.8930538],[88.7082767,27.8929148],[88.708363,27.8927214],[88.7083436,27.8923913],[88.708317,27.8922236],[88.7084011,27.8919794],[88.7084122,27.8917173],[88.7083245,27.8914704],[88.7082124,27.8913599],[88.7081101,27.8912037],[88.7079137,27.8909109],[88.7077823,27.8906684],[88.7077484,27.8905212],[88.7075445,27.8902804],[88.7074991,27.8900182],[88.7072744,27.8897976],[88.7070416,27.8896955],[88.7068779,27.8895306],[88.7067554,27.8892757],[88.7067874,27.8891429],[88.7069641,27.8889712],[88.7069753,27.8887524],[88.7067816,27.8885819],[88.7067742,27.8883925],[88.7066445,27.8881396],[88.7064091,27.8877898],[88.7060007,27.8873821],[88.7055322,27.8868979],[88.704924,27.8864906],[88.7043279,27.8860042],[88.7041845,27.8858692],[88.7040843,27.8859167],[88.7039651,27.8859764],[88.703877,27.8859452],[88.7037436,27.8857499],[88.7035955,27.8854438],[88.7034396,27.8852366],[88.7032959,27.8851444],[88.7031385,27.8851072],[88.7030958,27.8849885],[88.7031476,27.884789],[88.7031776,27.8845976],[88.7031432,27.8843692],[88.7027308,27.883995],[88.7026201,27.8835731],[88.7024571,27.8830987],[88.702099,27.8827159],[88.7017409,27.8826959],[88.701511,27.882414],[88.7013444,27.8819351],[88.7013334,27.8814895],[88.7011763,27.8808893],[88.7007867,27.8800533],[88.7006777,27.8799389],[88.700414,27.8799243],[88.7001266,27.8797985],[88.6999078,27.8795269],[88.6995763,27.8793976],[88.6994866,27.8790613],[88.6993325,27.8788246],[88.6993271,27.8784191],[88.6990714,27.8779846],[88.6985921,27.8772455],[88.6964464,27.8730346],[88.6959422,27.8720652],[88.6959529,27.8714034],[88.6948371,27.871043],[88.6951589,27.8681218],[88.6955881,27.8671354],[88.695116,27.8656557],[88.6956739,27.8638157],[88.6958241,27.8625067],[88.6953564,27.8619663],[88.6942363,27.8609132],[88.6943435,27.8600785],[88.695116,27.8588265],[88.6950087,27.8574226],[88.6948156,27.8560567],[88.6938286,27.8536473],[88.6939788,27.8525659],[88.6942363,27.8509913],[88.6941719,27.8494355],[88.6937427,27.8475383],[88.6937427,27.8460774],[88.6949444,27.844256],[88.6954593,27.8429278],[88.6955666,27.8416566],[88.6951589,27.8403853],[88.6953521,27.8393418],[88.695867,27.8382982],[88.6964893,27.8363628],[88.6966824,27.8359643],[88.6965322,27.8346361],[88.6971974,27.8331939],[88.6973262,27.8318657],[88.6980772,27.8299112],[88.6994934,27.8285639],[88.7000727,27.8275392],[88.7001371,27.8265714],[88.6997509,27.8243511],[88.6994076,27.8229658],[88.6994934,27.8213148],[88.7004804,27.8199864],[88.7012315,27.8183733],[88.7018966,27.8166083],[88.7020254,27.815128],[88.7018913,27.8142502],[88.7022614,27.8135718],[88.7026316,27.8132017],[88.7031895,27.8128173],[88.7041068,27.8121484],[88.7044287,27.8100796],[88.7046218,27.8090737],[88.7047076,27.8085992],[88.7045359,27.8068341],[88.7052226,27.8052778],[88.7053299,27.8042718],[88.7061891,27.8031185],[88.7059951,27.8014247],[88.7061882,27.8003808],[88.7064886,27.7993938],[88.7063169,27.798122],[88.7064564,27.7970116],[88.7066173,27.7956829],[88.7074005,27.7941359],[88.7078297,27.7926078],[88.7095355,27.7909563],[88.7100291,27.7904723],[88.7104154,27.7891909],[88.7102973,27.7886024],[88.710705,27.7877957],[88.7114346,27.7862865],[88.7119602,27.7845305],[88.7123036,27.7834674],[88.7126684,27.782727],[88.712663,27.7813269],[88.7128401,27.7810137],[88.7138325,27.7805011],[88.7143636,27.7798699],[88.7150931,27.7795519],[88.7152648,27.7794],[88.7153989,27.7790203],[88.7153506,27.7787545],[88.7147015,27.777867],[88.7147015,27.7776202],[88.7150395,27.7772263],[88.7153989,27.7768466],[88.7162358,27.776595],[88.7165523,27.7764004],[88.7167776,27.7759685],[88.7167883,27.7754559],[88.7171906,27.7749575],[88.7174213,27.7745256],[88.7173355,27.774312],[88.7175822,27.774013],[88.717652,27.7734956],[88.7179202,27.7732536],[88.7179953,27.77318],[88.7181026,27.7726365],[88.7184352,27.7721334],[88.7185129,27.7717561],[88.7189582,27.7713312],[88.7190333,27.7710726],[88.7194034,27.7708352],[88.7196046,27.7705338],[88.7199694,27.7697364],[88.7199989,27.769473],[88.7198138,27.7688844],[88.7198353,27.7686186],[88.7195107,27.768208],[88.7194169,27.7680086],[88.7194356,27.7678472],[88.7197039,27.7674817],[88.7199533,27.7671969],[88.7201115,27.7661171],[88.7202296,27.7656947],[88.7202906,27.7653107],[88.7205005,27.7647334],[88.7209564,27.7642445],[88.7209752,27.7638457],[88.7210423,27.7636654],[88.7213427,27.7635633],[88.7218738,27.7625308],[88.722437,27.7621938],[88.7225604,27.7619494],[88.7226865,27.7611234],[88.7228501,27.7607982],[88.7234133,27.7605632],[88.7237889,27.7605632],[88.7243253,27.7602689],[88.7244433,27.7601384],[88.7244996,27.7598702],[88.7243548,27.7597539],[88.724049,27.7597491],[88.7236226,27.759545],[88.723349,27.7591914],[88.7234858,27.7586644],[88.7237647,27.7584698],[88.7244835,27.7584223],[88.7251782,27.7581517],[88.7260124,27.7580093],[88.7266991,27.7578052],[88.7269339,27.7578483],[88.7271792,27.7578242],[88.7274098,27.7575323],[88.7277234,27.757403],[88.7285263,27.7573272],[88.7293571,27.7571549],[88.7296897,27.7569602],[88.7298399,27.7563265],[88.7301511,27.7561959],[88.7304085,27.7556856],[88.7307706,27.7551136],[88.7316531,27.7540858],[88.7318462,27.7535683],[88.7322164,27.7530841],[88.7325007,27.7529702],[88.732675,27.7526236],[88.7339464,27.7516409],[88.7341636,27.7512825],[88.7348208,27.7509549],[88.7349924,27.7507816],[88.7351185,27.7503757],[88.7352499,27.7502404],[88.7353814,27.7496328],[88.7353733,27.7494381],[88.7351909,27.7492055],[88.7352097,27.7490251],[88.7354726,27.7487758],[88.7358668,27.748434],[88.7364355,27.7475795],[88.736473,27.7471759],[88.7365535,27.7469836],[88.7368217,27.746948],[88.7370041,27.7467225],[88.7373716,27.7466798],[88.7375647,27.7465943],[88.7379321,27.7466015],[88.7381092,27.746262],[88.7382567,27.7461291],[88.7391016,27.7457849],[88.7393832,27.7453054],[88.7394878,27.7448282],[88.7396917,27.7446146],[88.7400806,27.7444389],[88.7403032,27.7442514],[88.7402576,27.7439665],[88.7403917,27.7437529],[88.7405339,27.7433826],[88.7404427,27.7426039],[88.7406036,27.7421529],[88.7408584,27.7418229],[88.7408611,27.7414645],[88.7408987,27.7410466],[88.7409899,27.7408876],[88.741352,27.7407641],[88.7415773,27.7404627],[88.7416282,27.7399238],[88.7420171,27.7394039],[88.7425616,27.7390359],[88.7427927,27.7384172],[88.7427977,27.7381148],[88.743259,27.7376543],[88.743436,27.7374169],[88.743597,27.7367973],[88.7438759,27.7365931],[88.7439001,27.7364317],[88.7438276,27.7361753],[88.7439752,27.7357598],[88.7440395,27.7349977],[88.7442166,27.7346369],[88.7441388,27.7342665],[88.7440234,27.7331056],[88.744238,27.7324314],[88.7446296,27.7314983],[88.7449917,27.7311565],[88.7463409,27.7298198],[88.7464052,27.7295302],[88.7469363,27.7289248],[88.7475908,27.7286114],[88.7480468,27.7279751],[88.7481889,27.7275928],[88.7487227,27.7273934],[88.7490955,27.7270515],[88.7496909,27.7268355],[88.7505841,27.726712],[88.7514478,27.7264579],[88.7520137,27.7260425],[88.7521881,27.7257599],[88.7521398,27.7255177],[88.751885,27.725012],[88.7519118,27.7248458],[88.7522015,27.7246132],[88.7522655,27.7245229],[88.7524644,27.7242428],[88.7529123,27.7238795],[88.7531027,27.7233192],[88.7535962,27.7229891],[88.7536445,27.7228443],[88.7534916,27.7223647],[88.7534942,27.719706],[88.7541299,27.7187281],[88.7548584,27.7181274],[88.7548523,27.7172968],[88.7553068,27.7165227],[88.7550755,27.7148666],[88.754227,27.7141594],[88.7528655,27.714099],[88.7522941,27.7136003],[88.7511245,27.7116871],[88.7497747,27.7108402],[88.749364,27.7092885],[88.7496683,27.7085002],[88.7499843,27.7068928],[88.7498664,27.7066411],[88.7506511,27.7059669],[88.7507358,27.7050761],[88.7510804,27.7043663],[88.7513734,27.7021485],[88.7522214,27.7009784],[88.75214,27.7000034],[88.7522187,27.6991663],[88.7519132,27.6980558],[88.7508947,27.6974495],[88.7502739,27.6955151],[88.7486246,27.695351],[88.7473422,27.6934113],[88.7463817,27.6918516],[88.7444217,27.6891897],[88.742087,27.6882523],[88.7404071,27.6874978],[88.7395957,27.6861126],[88.739443,27.6854362],[88.7391552,27.6838511],[88.7389675,27.6835495],[88.7388119,27.6831932],[88.738718,27.6828773],[88.7385839,27.6825694],[88.7383551,27.6821828],[88.7382969,27.6819296],[88.7383836,27.6817251],[88.7384149,27.6815115],[88.7383836,27.6812591],[88.7385008,27.6809938],[88.7387071,27.6807979],[88.7388307,27.6805947],[88.7388441,27.6804014],[88.7387235,27.6801183],[88.7385759,27.6799415],[88.7384944,27.6797064],[88.7384903,27.6794217],[88.7384552,27.6790175],[88.7383667,27.6787088],[88.7383237,27.6783097],[88.7383774,27.6778798],[88.7384579,27.6774332],[88.7384263,27.6771412],[88.7383103,27.6769439],[88.7381577,27.6767448],[88.7376183,27.6764546],[88.7372455,27.6764023],[88.7367761,27.6761719],[88.7361708,27.6761563],[88.7350604,27.6749225],[88.7341299,27.6745211],[88.7328209,27.6720059],[88.7325303,27.6696019],[88.7331294,27.6680187],[88.7338363,27.6666918],[88.7332123,27.6652686],[88.7323699,27.6634715],[88.73145,27.6627784],[88.73121,27.6615951],[88.7319137,27.6587969],[88.7309831,27.6567057],[88.7306092,27.6553892],[88.7302077,27.6544001],[88.7300677,27.6538006],[88.7294525,27.6535534],[88.7291301,27.6531407],[88.7284775,27.6526738],[88.7276915,27.6522532],[88.7267099,27.652004],[88.7261584,27.651288],[88.7258416,27.6509744],[88.7251565,27.6509714],[88.7249356,27.6506617],[88.7246707,27.6498469],[88.724071,27.6494128],[88.7240517,27.6489544],[88.72354,27.6486637],[88.7234015,27.647909],[88.7216894,27.6457458],[88.7206062,27.6454418],[88.7193512,27.6441209],[88.7192539,27.6432598],[88.7185342,27.6433587],[88.7171478,27.6427386],[88.7163623,27.6401669],[88.7168786,27.6392761],[88.7167921,27.6388272],[88.7163818,27.6383004],[88.7163208,27.6374886],[88.7154776,27.6368778],[88.7141788,27.6364587],[88.7120168,27.6351223],[88.710932,27.6346445],[88.7068937,27.6332503],[88.7044784,27.6322752],[88.7023831,27.6314293],[88.7015491,27.6300813],[88.6984955,27.6290554],[88.696264,27.6286004],[88.6944351,27.6285619],[88.6920798,27.6284673],[88.6895156,27.6273171],[88.6874142,27.6277847],[88.6863259,27.626654],[88.6837113,27.6252544],[88.6820054,27.6251784],[88.6817372,27.6244844],[88.6805073,27.6240811],[88.6793661,27.6243228],[88.6783361,27.6249978],[88.6774769,27.625156],[88.676759,27.6248647],[88.6764928,27.6244999],[88.6746122,27.623573],[88.6722274,27.6236442],[88.6704396,27.6233505],[88.6695672,27.6229136],[88.6682523,27.6222551],[88.6669902,27.6216231],[88.6650337,27.619835],[88.6634397,27.617795],[88.6633099,27.6176217],[88.6633361,27.6172044],[88.6631973,27.6164616],[88.6630809,27.6159858],[88.6625269,27.6156381],[88.6621854,27.6150004],[88.6618768,27.6147744],[88.6613976,27.614542],[88.6608879,27.6141848],[88.6607033,27.6136371],[88.6602566,27.6133722],[88.6597295,27.6131998],[88.6590819,27.6126665],[88.6584068,27.6119066],[88.6579067,27.6115534],[88.6577999,27.6114734],[88.6574133,27.6110985],[88.6568033,27.6107745],[88.6562007,27.6104355],[88.6556984,27.6100457],[88.6549771,27.6098308],[88.6541144,27.6096135],[88.6531726,27.6090447],[88.6525482,27.6084012],[88.6519749,27.607448],[88.6516426,27.6069132],[88.6511782,27.6066405],[88.650446,27.6056048],[88.649903,27.6052088],[88.6485544,27.6038349],[88.64848,27.6033198],[88.6485911,27.6030634],[88.6484598,27.6023075],[88.6485099,27.6017117],[88.6489271,27.6010977]]}},{"type":"Feature","properties":{"waterway":"river","name":"Teesta","osm_id":1214968882},"geometry":{"type":"LineString","coordinates":[[88.6489271,27.6010977],[88.6496562,27.6001226],[88.6495659,27.599368],[88.6495006,27.598618],[88.6498228,27.5979365],[88.650248,27.5977081]]}},{"type":"Feature","properties":{"waterway":"river","name":"Teesta","osm_id":1214968883},"geometry":{"type":"LineString","coordinates":[[88.650248,27.5977081],[88.651974,27.596012]]}}]}