{"type":"FeatureCollection","name":"chungthang_west_rgb_0.5m","source":"OpenStreetMap waterways","licence":"ODbL 1.0 (c) OpenStreetMap contributors","features":[{"type":"Feature","properties":{"waterway":"river","name":"Lachen Chu","osm_id":126757760},"geometry":{"type":"LineString","coordinates":[[88.6086127,27.6426171],[88.609519,27.6422576],[88.6100697,27.6419882],[88.6110341,27.6407142],[88.6114376,27.6402997],[88.6125555,27.6396646],[88.6129269,27.6390216],[88.6130184,27.638156],[88.613687,27.637027],[88.6143837,27.636571],[88.6154409,27.6365051],[88.6161209,27.635442],[88.6167438,27.6343586],[88.6171267,27.6327335],[88.6181637,27.6307178],[88.6187537,27.6300878],[88.6191174,27.6290102],[88.6188507,27.6279362],[88.6193841,27.62654],[88.6193264,27.6259768],[88.6192547,27.6252762],[88.6191052,27.62407],[88.6193681,27.6229359],[88.6190252,27.6217561],[88.6193395,27.6206169],[88.6197852,27.6196296],[88.6202538,27.6194827],[88.6215567,27.6196498],[88.6224539,27.6192448],[88.6227339,27.6186929],[88.6230738,27.6184331],[88.624173,27.6178999],[88.6250636,27.6175758],[88.6251929,27.6171533],[88.6254556,27.6169278],[88.6256548,27.6165751],[88.6264286,27.6162368],[88.626516,27.6159505],[88.6265463,27.6156444],[88.6271102,27.6148693],[88.6281331,27.6143123],[88.6287131,27.6140034],[88.6287931,27.6137579],[88.6285475,27.6132254],[88.6285934,27.6126189],[88.6290743,27.6118419],[88.6292521,27.6112798],[88.6297046,27.6108537],[88.631725,27.6105315],[88.6326183,27.6106697],[88.6331595,27.6107535],[88.6343879,27.6107785],[88.6360956,27.6104306],[88.6371356,27.6099765],[88.6383438,27.6095933],[88.6390994,27.6088486],[88.6399965,27.6084583],[88.6408386,27.607519],[88.6416312,27.6062642],[88.6417386,27.6053532],[88.6420978,27.6043032],[88.6427336,27.6036373],[88.6434271,27.6032239],[88.6442198,27.6030117],[88.6451075,27.6028354],[88.6451816,27.6028207],[88.6465216,27.6015841],[88.6473613,27.6012827],[88.6484075,27.6011391],[88.6489271,27.6010977]]}},{"type":"Feature","properties":{"waterway":"stream","name":null,"osm_id":601774460},"geometry":{"type":"LineString","coordinates":[[88.6376052,27.6467226],[88.6366049,27.6469142],[88.6357939,27.6470459],[88.6352667,27.6470938],[88.6345908,27.647034],[88.6340366,27.6471298],[88.6334824,27.6470699],[88.632766,27.6468304],[88.632374,27.6466029],[88.6319955,27.6462796],[88.6314277,27.6461359],[88.6310087,27.646076],[88.6306978,27.6458246],[88.630076,27.6453576],[88.6294271,27.6449265],[88.6289675,27.6445313],[88.6286837,27.6442919],[88.6281159,27.6441003],[88.6278456,27.6438488],[88.6277239,27.6434896],[88.6273319,27.6432261],[88.6267912,27.6430345],[88.6264533,27.6426514],[88.6262505,27.6423161],[88.6260343,27.6419808],[88.6259667,27.6418491],[88.6256287,27.6411785],[88.6254124,27.6407594],[88.6247095,27.6405318],[88.6241148,27.6404121],[88.6235876,27.6405199],[88.623128,27.640448],[88.6227225,27.6402085],[88.6224927,27.6400409],[88.6220196,27.6396816],[88.6216276,27.6393583],[88.621195,27.6388673],[88.6206137,27.6386997],[88.6202217,27.6388194],[88.6193972,27.6379093],[88.6189241,27.6376099],[88.6184509,27.6375022],[88.6177345,27.6373106],[88.6172209,27.6372866],[88.6167207,27.6373704],[88.6163692,27.6375381],[88.6161276,27.637384],[88.6159226,27.6371693],[88.6156152,27.6369303],[88.6154409,27.6365051]]}},{"type":"Feature","properties":{"waterway":"stream","name":null,"osm_id":601774461},"geometry":{"type":"LineString","coordinates":[[88.6464827,27.6358181],[88.6460399,27.6351241],[88.6454268,27.6345055],[88.6448989,27.6340377],[88.6441665,27.6334342],[88.6434512,27.6330419],[88.6426678,27.6326345],[88.641697,27.6320913],[88.6408114,27.6316538],[88.6400621,27.6315934],[88.6395682,27.632031],[88.6389891,27.6323629],[88.6385668,27.6323925],[88.6383419,27.6324082],[88.6379332,27.6322422],[88.6374563,27.6319404],[88.6368773,27.6319103],[88.6362982,27.632031],[88.6353615,27.6320611],[88.6346462,27.6322573],[88.6338969,27.6324534],[88.6327728,27.6326496],[88.6318361,27.6327552],[88.6307461,27.6326798],[88.6305077,27.6321215],[88.6301841,27.6317896],[88.6293836,27.6312916],[88.6286854,27.630839],[88.6280723,27.6303109],[88.627357,27.629994],[88.6266246,27.6299789],[88.6261478,27.629662],[88.6255176,27.6293904],[88.624632,27.6290736],[88.6241551,27.628802],[88.6237634,27.628636],[88.623324,27.6283588],[88.622959,27.6283348],[88.6225813,27.6282938],[88.6224168,27.6283184],[88.6222536,27.628213],[88.6217956,27.6279472],[88.6215309,27.6277765],[88.6213152,27.627702],[88.6208976,27.6275983],[88.6204651,27.6273528],[88.6203502,27.6271791],[88.6201068,27.6269575],[88.620019,27.6266881],[88.6199649,27.6264665],[88.6198635,27.6263168],[88.6195864,27.6261851],[88.6193264,27.6259768]]}},{"type":"Feature","properties":{"waterway":"stream","name":null,"osm_id":601774466},"geometry":{"type":"LineString","coordinates":[[88.564155,27.6211365],[88.5651599,27.621212],[88.5658071,27.6212874],[88.566352,27.6215591],[88.5669992,27.6219061],[88.567425,27.6220721],[88.5680211,27.6221325],[88.5686342,27.6222683],[88.5691962,27.6223135],[88.5698604,27.6224644],[88.5708482,27.6226003],[88.5716487,27.6227964],[88.5722912,27.6230008],[88.5729771,27.6232189],[88.574033,27.6235509],[88.5746802,27.6237471],[88.5753103,27.6238678],[88.5759405,27.6241092],[88.5765706,27.6245619],[88.5770986,27.6250599],[88.5776947,27.6254522],[88.5782056,27.6256483],[88.5788357,27.6257691],[88.5796192,27.6260558],[88.5803004,27.6261312],[88.5809476,27.626101],[88.5814074,27.6263575],[88.5817821,27.6265386],[88.5823101,27.6266141],[88.5831446,27.6266292],[88.58449,27.6267197],[88.5853586,27.6270064],[88.5860058,27.6272176],[88.5870276,27.6273836],[88.5878281,27.6275647],[88.5885604,27.6279268],[88.5890713,27.6283946],[88.5893609,27.6288623],[88.589429,27.6292697],[88.5897185,27.629828],[88.5900762,27.6303561],[88.5906893,27.6307484],[88.5912173,27.6311106],[88.5916601,27.6312765],[88.5928352,27.6314123],[88.5937208,27.6319555],[88.5941466,27.6323176],[88.5945553,27.6324233],[88.5952706,27.6323026],[88.59602,27.6322875],[88.5967693,27.6326647],[88.5973314,27.6325742],[88.5981318,27.6326798],[88.5986428,27.6330721],[88.5988982,27.6334342],[88.6000563,27.6336756],[88.6007887,27.6338265],[88.6016061,27.6341584],[88.6024747,27.634083],[88.6034114,27.6344451],[88.6039394,27.634777],[88.6049612,27.6351995],[88.6055233,27.6354862],[88.6062386,27.6359841],[88.6063748,27.6363009],[88.6061023,27.6365272],[88.6059831,27.6370101],[88.6062726,27.6374476],[88.6066473,27.6379153],[88.6069879,27.6382925],[88.6073796,27.638549],[88.6078735,27.6386999],[88.6085207,27.6387904],[88.6094624,27.6386757],[88.6102919,27.638797],[88.6106962,27.6389988],[88.6109391,27.6389865],[88.6120121,27.6390922],[88.6129269,27.6390216]]}}]}