{"type":"FeatureCollection","name":"namchi_rgb_0.5m","source":"OpenStreetMap waterways","licence":"ODbL 1.0 (c) OpenStreetMap contributors","features":[{"type":"Feature","properties":{"waterway":"canal","name":null,"osm_id":1266786969},"geometry":{"type":"LineString","coordinates":[[88.3598269,27.1633317],[88.3598613,27.1632709],[88.3598839,27.1632379],[88.3599044,27.1632113],[88.3599197,27.1631689],[88.3599257,27.1631376],[88.3599449,27.1630833],[88.3599555,27.1630515],[88.3599741,27.163009],[88.3600006,27.16297],[88.3600159,27.1629488]]}},{"type":"Feature","properties":{"waterway":"canal","name":null,"osm_id":1266786970},"geometry":{"type":"LineString","coordinates":[[88.3595954,27.1635465],[88.3596723,27.1634792],[88.3597327,27.1634238],[88.3597778,27.1633795]]}},{"type":"Feature","properties":{"waterway":"canal","name":null,"osm_id":1266786971},"geometry":{"type":"LineString","coordinates":[[88.3597778,27.1633795],[88.3598269,27.1633317]]}},{"type":"Feature","properties":{"waterway":"canal","name":null,"osm_id":1266804622},"geometry":{"type":"LineString","coordinates":[[88.3586566,27.1641753],[88.3586852,27.1641196],[88.3587129,27.1640718],[88.3587473,27.1640204],[88.3587895,27.1639773],[88.3588253,27.1639437]]}}]}