{"type":"FeatureCollection","name":"nepal_sunkoshi","source":"OpenStreetMap waterways","licence":"ODbL 1.0 (c) OpenStreetMap contributors","features":[{"type":"Feature","properties":{"waterway":"river","name":null,"osm_id":343681837},"geometry":{"type":"LineString","coordinates":[[85.842408,27.4314944],[85.8433825,27.4315433],[85.8441357,27.4313593],[85.8453726,27.4314515],[85.847011,27.4311879],[85.8481269,27.4307284],[85.848607,27.4300404],[85.8486928,27.4297381],[85.8488469,27.4290603],[85.8485989,27.4279026],[85.8489369,27.4269884],[85.849484,27.4262789],[85.8498274,27.4254266],[85.8501331,27.4252504],[85.8504872,27.4250933],[85.8525487,27.424986]]}},{"type":"Feature","properties":{"waterway":"river","name":"Sun Kosi","osm_id":518815926},"geometry":{"type":"LineString","coordinates":[[85.8123592,27.4748703],[85.8134542,27.4737236],[85.8140264,27.4727992],[85.8136349,27.4702695],[85.8130605,27.4687121],[85.8131382,27.4681578],[85.8134274,27.4667921],[85.8137847,27.4657982],[85.8143981,27.4641369],[85.8142544,27.4631571],[85.8131326,27.4628377],[85.8123313,27.4629201],[85.8120542,27.4635875],[85.811721,27.4637115],[85.8103448,27.4633409],[85.8094734,27.4625714],[85.8090081,27.4618186],[85.8090886,27.4610548],[85.8093213,27.4597214],[85.809248,27.4594707],[85.8089943,27.4588793],[85.808851,27.458461],[85.8089186,27.4572382],[85.8088071,27.4558184],[85.8090758,27.4552377],[85.8094394,27.4546705],[85.8115489,27.4537412],[85.8123783,27.4534408],[85.8136413,27.4522163],[85.8142644,27.4519184],[85.8150455,27.4519314],[85.815598,27.4521329],[85.8172135,27.4526033],[85.8178413,27.4524917],[85.818499,27.4521621],[85.8187245,27.4520587],[85.8189398,27.4519808],[85.819365,27.4517778],[85.8199251,27.4516556],[85.8201776,27.4516005],[85.8207384,27.4514701],[85.821395,27.4511718],[85.8232939,27.4494289],[85.8245046,27.448887],[85.8258777,27.4485499],[85.8275465,27.4486169],[85.8281506,27.4483844],[85.828892,27.4479187],[85.829332,27.4476423],[85.8290038,27.4457084],[85.8274589,27.4422686],[85.8273928,27.4413884],[85.8286178,27.4408987],[85.8289307,27.4396898],[85.8300618,27.4374022],[85.8316423,27.435918],[85.83928,27.4343575],[85.8402873,27.4337659],[85.842408,27.4314944],[85.8425985,27.4312944],[85.8441865,27.4278671],[85.8451248,27.4268281],[85.8459521,27.425689],[85.8469659,27.4245488],[85.847206,27.424385],[85.8480916,27.4240386],[85.8497177,27.4237643],[85.8525487,27.424986],[85.8527161,27.4249809],[85.8540561,27.4245685],[85.8549532,27.4243761],[85.8555362,27.424251],[85.8571521,27.4243286],[85.8589294,27.4244754],[85.859361,27.4244428],[85.8603207,27.4241824],[85.8613468,27.4233266],[85.861453,27.4222967],[85.8614573,27.4218358],[85.8618551,27.4209214],[85.8649632,27.4197587],[85.8683226,27.4183366],[85.8691308,27.4184318],[85.8697089,27.4184999],[85.8720018,27.4197923],[85.8730813,27.4201038],[85.878062,27.4167372],[85.8787744,27.4167011],[85.8794806,27.4168654],[85.8803234,27.4174226],[85.8805161,27.4183983],[85.8814023,27.4188974],[85.8821771,27.4189354],[85.8823762,27.4189495],[85.8832116,27.4190741],[85.884817,27.4198706],[85.8856721,27.4201415],[85.8861903,27.4199978],[85.8863948,27.41948],[85.8866343,27.4188735],[85.8880426,27.4171681],[85.8885044,27.4157388],[85.8909139,27.4137406],[85.8910846,27.4137134],[85.8922297,27.4135307],[85.8932952,27.4137115],[85.8936989,27.4149532],[85.8947802,27.4157634],[85.8952426,27.4160818],[85.8959779,27.4164242],[85.8965873,27.4163631],[85.8975941,27.4160024],[85.9009455,27.4146135],[85.9040142,27.4129257],[85.9050865,27.4123575],[85.9071326,27.4107746],[85.9095252,27.4096125],[85.9103906,27.4092104],[85.9124148,27.4089731],[85.9138853,27.4088509],[85.9149742,27.4089903],[85.9172662,27.4090056],[85.9184195,27.4088089],[85.9187325,27.4085408],[85.9198734,27.4075639],[85.9254054,27.4043025],[85.9257928,27.4031898],[85.9262668,27.4003784],[85.9273114,27.397077],[85.927961,27.396674],[85.9286294,27.3967632],[85.9299223,27.3970124],[85.9318695,27.3963496],[85.9333545,27.3958995],[85.9338214,27.3940187],[85.9333749,27.3923032],[85.9334198,27.3900948],[85.9338299,27.3886588],[85.9349143,27.3879289],[85.9359891,27.3875096],[85.9387673,27.3869487],[85.9396107,27.3866797],[85.9408377,27.3860528],[85.9414145,27.3854268],[85.9418366,27.3844311],[85.9420431,27.381663],[85.9425867,27.3806497],[85.9435441,27.3799538],[85.9460203,27.3802209],[85.9471858,27.3814714],[85.9479233,27.3816142],[85.9516798,27.3812242],[85.9522206,27.3816654],[85.9521674,27.382067],[85.9522185,27.3824596],[85.9517714,27.3836253],[85.9510222,27.3846084],[85.9510226,27.3857238],[85.951947,27.3868318],[85.9528983,27.3885263],[85.9547694,27.3890158],[85.9582172,27.3887941],[85.9600685,27.3883247],[85.9611792,27.3880432],[85.9623421,27.387223],[85.9633231,27.386141],[85.9641765,27.3852919],[85.9661469,27.3842158],[85.9672938,27.382699],[85.9681049,27.3806246],[85.9686842,27.3780616],[85.970105,27.3750626],[85.9750718,27.3728487],[85.9771424,27.3712338],[85.9771264,27.3704239],[85.9773785,27.3686184],[85.9772336,27.3672606],[85.9771639,27.3648929],[85.9775126,27.3643974],[85.9779096,27.3628729],[85.9777719,27.3607915],[85.9786713,27.3597618],[85.9789663,27.3589757],[85.9792721,27.3580847],[85.9794491,27.357108],[85.979535,27.3567555],[85.9793158,27.3562818],[85.9790848,27.3559599],[85.9786268,27.3554263],[85.9783473,27.3544513],[85.978843,27.354042],[85.9793058,27.3534036],[85.9795114,27.3531083],[85.9797038,27.3527825],[85.9806045,27.3525328],[85.981106,27.3521546],[85.9826799,27.3517462],[85.9833724,27.3501539],[85.9825097,27.3457685],[85.9817897,27.3432971],[85.9815236,27.3417262],[85.9813425,27.3405641],[85.9816633,27.3396714],[85.9818987,27.3386958],[85.9829825,27.3368377],[85.9831613,27.3364633],[85.9837145,27.3353689],[85.9848656,27.3351169],[85.9860551,27.3350213],[85.9874528,27.3354848],[85.988847,27.3365723],[85.9901597,27.3376901],[85.9904557,27.3378264],[85.9909954,27.3380748],[85.9921348,27.3381964],[85.9945076,27.3382197],[85.996037,27.3379373],[85.997383,27.3373712],[85.99853,27.336434],[85.9988452,27.3362035],[86.0002591,27.3351697],[86.0040527,27.3324876],[86.0053301,27.3312271],[86.008468,27.3284346],[86.0088737,27.3272808],[86.0085998,27.3267887],[86.0084674,27.3263562],[86.008657,27.3259971],[86.0116417,27.3251195],[86.0124166,27.3243138],[86.0128676,27.3240578],[86.0156416,27.3224833],[86.0174885,27.3212203],[86.0189981,27.3194457],[86.0197486,27.3181072],[86.0196721,27.3177044],[86.0197252,27.3170602],[86.0210555,27.3161103],[86.0220252,27.3159206],[86.0221189,27.3157951],[86.0223871,27.3153986]]}}]}