{"type":"FeatureCollection","name":"swissimage_2019_2682-1247_2m","source":"OpenStreetMap waterways","licence":"ODbL 1.0 (c) OpenStreetMap contributors","features":[{"type":"Feature","properties":{"waterway":"canal","name":"Schanzengraben","osm_id":4398890},"geometry":{"type":"LineString","coordinates":[[8.5399864,47.3658076],[8.539815,47.366024],[8.5382932,47.3676726],[8.5374841,47.3685551],[8.5373203,47.3686976],[8.5372417,47.3687515],[8.5371435,47.3687998],[8.5370296,47.3688367],[8.5369081,47.3688652],[8.5367789,47.3688863],[8.5354863,47.3690008],[8.5354085,47.3690175],[8.5353417,47.3690468],[8.5352949,47.3690857],[8.5350212,47.3695166],[8.5348602,47.369762],[8.5346908,47.3700025],[8.534637,47.3700633],[8.5345808,47.37011],[8.5343864,47.3702314],[8.5343185,47.3702655],[8.5342483,47.370294],[8.5341654,47.3703214],[8.5325027,47.3707965],[8.5324587,47.3708134],[8.5324233,47.3708351],[8.532402,47.3708582],[8.532392,47.3708843],[8.5323927,47.370905],[8.5324041,47.3709306],[8.5329649,47.3715169],[8.5330795,47.3716208],[8.5332663,47.3717945],[8.5334483,47.3719406],[8.5336511,47.372394],[8.5336403,47.3734694],[8.5336373,47.3736953],[8.5341389,47.3739222],[8.5348844,47.3742459],[8.5350685,47.3743464],[8.5353108,47.3745659],[8.5354526,47.3748859],[8.5356904,47.3754023],[8.5358731,47.3758474],[8.5360413,47.3762085],[8.5362185,47.3765832],[8.5361713,47.3768992]]}},{"type":"Feature","properties":{"waterway":"river","name":"Sihl","osm_id":145060845},"geometry":{"type":"LineString","coordinates":[[8.5371151,47.3778634],[8.5380894,47.3794499]]}},{"type":"Feature","properties":{"waterway":"river","name":"Sihl","osm_id":145060850},"geometry":{"type":"LineString","coordinates":[[8.5380894,47.3794499],[8.5383226,47.3797877],[8.5385907,47.3803715],[8.5386679,47.3808771],[8.5386485,47.3814624],[8.5385161,47.3819154],[8.5384426,47.3821072],[8.5383005,47.3824784],[8.5377103,47.3832158],[8.5376321,47.3832934],[8.5371615,47.3836814]]}},{"type":"Feature","properties":{"waterway":"river","name":"Sihl","osm_id":204029545},"geometry":{"type":"LineString","coordinates":[[8.5244235,47.3529388],[8.5247146,47.3532321],[8.5248634,47.3535772],[8.5244387,47.3566971],[8.5241468,47.3579594],[8.5235374,47.3597322],[8.5231227,47.3610868],[8.5228388,47.3624424],[8.5228005,47.3627168],[8.5227715,47.3631791],[8.522784,47.3634648],[8.5228114,47.3637205],[8.5228568,47.363983],[8.5228938,47.364142],[8.5229396,47.3642887],[8.5232772,47.3649509],[8.5233159,47.3650269],[8.523485,47.365291],[8.5236877,47.3655733],[8.524141,47.3660553],[8.5246396,47.3664841],[8.5250641,47.3667849],[8.525377,47.3669923],[8.5274981,47.3683885],[8.5283447,47.3689308],[8.529041,47.3694025],[8.5295727,47.3697716],[8.5298999,47.3700247],[8.530225,47.370308],[8.5305793,47.3706815],[8.5307887,47.3709247],[8.5318066,47.3726966],[8.5322091,47.3732558],[8.5328598,47.3741598],[8.5335035,47.3748805],[8.5339508,47.3753128],[8.5350228,47.3761592],[8.5355536,47.3765794],[8.5361713,47.3768992],[8.5371151,47.3778634]]}}]}