{"type":"FeatureCollection","name":"swissimage_2021_2621-1202_2m","source":"OpenStreetMap waterways","licence":"ODbL 1.0 (c) OpenStreetMap contributors","features":[{"type":"Feature","properties":{"waterway":"stream","name":null,"osm_id":943626442},"geometry":{"type":"LineString","coordinates":[[7.7179077,46.9762668],[7.7179305,46.9763468],[7.7179277,46.9764356],[7.7179491,46.9764775],[7.717932,46.9765692],[7.7179491,46.9766092],[7.7179963,46.9766365],[7.7181092,46.9767759],[7.7182178,46.9769534],[7.7183636,46.977288],[7.7185094,46.9774508],[7.718558,46.9775123],[7.7186409,46.97768],[7.718964,46.9780701],[7.7190426,46.9781462],[7.7191298,46.9782154],[7.7192213,46.9782973],[7.7192413,46.9783315],[7.719257,46.9783744],[7.7193414,46.978467],[7.7193785,46.9784934],[7.7194343,46.9785148],[7.7194714,46.9785295],[7.7196129,46.9786436],[7.7198159,46.9788503],[7.7199074,46.9789654],[7.7199946,46.9790073],[7.7200761,46.9790268],[7.720149,46.9790298],[7.7202004,46.9790415],[7.7202362,46.9790707],[7.7203162,46.9791546],[7.7204091,46.9792277],[7.7204792,46.9792697],[7.7205406,46.9793721],[7.7205735,46.9794286],[7.7206007,46.9794486],[7.7206393,46.9794589],[7.7207336,46.9794774],[7.7208351,46.9794823],[7.7208823,46.979493],[7.7209723,46.9795769],[7.7210881,46.9798392],[7.7211681,46.9800674],[7.7212196,46.9802351],[7.7212496,46.9803151],[7.7213454,46.9804702],[7.7214983,46.9806545]]}},{"type":"Feature","properties":{"waterway":"stream","name":null,"osm_id":1306169141},"geometry":{"type":"LineString","coordinates":[[7.7221915,46.9705125],[7.7223671,46.9708021],[7.7229086,46.9715512],[7.7234063,46.9721304],[7.7238161,46.9723801],[7.7245039,46.9727296],[7.7250015,46.973139],[7.7254845,46.9735485],[7.7259529,46.9738181],[7.7269188,46.9740778],[7.7286312,46.9745471],[7.7294947,46.9748667],[7.7300325,46.9751302],[7.7304244,46.9758326],[7.7310194,46.9765801],[7.7313688,46.9770183],[7.731586,46.9774274],[7.7319071,46.9781652],[7.7320441,46.978365],[7.7321621,46.9784842],[7.7322896,46.9785422]]}},{"type":"Feature","properties":{"waterway":"stream","name":null,"osm_id":1306169143},"geometry":{"type":"LineString","coordinates":[[7.725342,46.9659963],[7.7254052,46.9660877],[7.7255151,46.9661927],[7.7258098,46.9663818],[7.7260176,46.9664688],[7.7261092,46.9665459],[7.7262176,46.9667004],[7.726326,46.9668986],[7.7265331,46.9671205],[7.726868,46.9674124],[7.7269396,46.9675181],[7.7272454,46.9677942],[7.7279171,46.9682736],[7.7283197,46.9684771],[7.7286972,46.9686171],[7.7288714,46.9687928],[7.7291289,46.9690001],[7.7292857,46.9692485],[7.7294976,46.9697931],[7.7297372,46.9701617],[7.7299577,46.9707292],[7.7301977,46.9711215],[7.7303274,46.9714372],[7.7303693,46.9717326],[7.7303618,46.9718881],[7.7302947,46.9722437],[7.7302649,46.972324],[7.7301481,46.9724848],[7.7301118,46.9725493],[7.7300865,46.9726266],[7.7298646,46.9730583],[7.7298492,46.973095],[7.729861,46.9732991],[7.729853,46.9733591],[7.7298119,46.9734469],[7.729788,46.9736802],[7.7298013,46.9743472],[7.729863,46.9747883],[7.7298952,46.9748889],[7.7300325,46.9751302]]}},{"type":"Feature","properties":{"waterway":"stream","name":null,"osm_id":1421363022},"geometry":{"type":"LineString","coordinates":[[7.7240684,46.964965],[7.7243803,46.96535],[7.7246757,46.9656129],[7.7247631,46.9656757],[7.7248961,46.9657335],[7.7252137,46.9658907]]}},{"type":"Feature","properties":{"waterway":"stream","name":null,"osm_id":1421363023},"geometry":{"type":"LineString","coordinates":[[7.7252137,46.9658907],[7.725342,46.9659963]]}}]}