{"type":"FeatureCollection","name":"chungthang_rgb_0.5m","source":"Microsoft Global ML Building Footprints","licence":"ODbL 1.0 (c) Microsoft","features":[{"type":"Feature","properties":{"source":"Microsoft Global ML Building Footprints"},"geometry":{"type":"Polygon","coordinates":[[[88.6472108098808,27.60373934263375],[88.64710263134359,27.603784832844383],[88.64706834924831,27.603720811066133],[88.64717653191269,27.60367531909342],[88.6472108098808,27.60373934263375]]]}},{"type":"Feature","properties":{"source":"Microsoft Global ML Building Footprints"},"geometry":{"type":"Polygon","coordinates":[[[88.64943163190229,27.605761796290828],[88.64947798674488,27.605727457563376],[88.64954529949394,27.605798813421593],[88.64949894133379,27.605833154584268],[88.64943163190229,27.605761796290828]]]}},{"type":"Feature","properties":{"source":"Microsoft Global ML Building Footprints"},"geometry":{"type":"Polygon","coordinates":[[[88.64699851536844,27.60386867369924],[88.64704071569746,27.603928481713133],[88.64695201416602,27.60397763170591],[88.64688811081062,27.60388706531282],[88.6469498162238,27.603852873987563],[88.64697151925013,27.603883632403203],[88.64699851536844,27.60386867369924]]]}},{"type":"Feature","properties":{"source":"Microsoft Global ML Building Footprints"},"geometry":{"type":"Polygon","coordinates":[[[88.64723346249615,27.60480766697119],[88.64717736165062,27.60488085829637],[88.64702685813408,27.604790267290532],[88.64699943105404,27.604826049727947],[88.64702879759383,27.604843726021898],[88.64700261719926,27.604877881968477],[88.64706135027886,27.604913234536767],[88.64702644308609,27.60495877576762],[88.64682638353365,27.604838356085203],[88.6468961979192,27.604747273504465],[88.64697765778949,27.604796305819768],[88.64700134648325,27.604765403803185],[88.64694190984775,27.604729627702767],[88.64699302395147,27.60466294218312],[88.64723346249615,27.60480766697119]]]}},{"type":"Feature","properties":{"source":"Microsoft Global ML Building Footprints"},"geometry":{"type":"Polygon","coordinates":[[[88.647183593678,27.60249333303439],[88.64741959879855,27.602524950517243],[88.64740374179156,27.60261790326176],[88.64716773667104,27.60258628580572],[88.647183593678,27.60249333303439]]]}},{"type":"Feature","properties":{"source":"Microsoft Global ML Building Footprints"},"geometry":{"type":"Polygon","coordinates":[[[88.64791808692709,27.600599384258146],[88.64803217889988,27.60045935960595],[88.64812298807286,27.600517468588826],[88.64800888581522,27.600657492217238],[88.64791808692709,27.600599384258146]]]}},{"type":"Feature","properties":{"source":"Microsoft Global ML Building Footprints"},"geometry":{"type":"Polygon","coordinates":[[[88.64873355986782,27.60604945716237],[88.64872294423897,27.60609417055558],[88.64859708675301,27.606070706343203],[88.64860770060722,27.60602600041547],[88.64873355986782,27.60604945716237]]]}},{"type":"Feature","properties":{"source":"Microsoft Global ML Building Footprints"},"geometry":{"type":"Polygon","coordinates":[[[88.642233953225,27.606384640322254],[88.64230538645542,27.60637720178135],[88.64231626783157,27.60645925821423],[88.64224483460121,27.60646669674955],[88.642233953225,27.606384640322254]]]}},{"type":"Feature","properties":{"source":"Microsoft Global ML Building Footprints"},"geometry":{"type":"Polygon","coordinates":[[[88.64738107369888,27.60525850481281],[88.64730380592283,27.60524457373588],[88.64731952662724,27.60517610201184],[88.6473967944033,27.60519003309745],[88.64738107369888,27.60525850481281]]]}},{"type":"Feature","properties":{"source":"Microsoft Global ML Building Footprints"},"geometry":{"type":"Polygon","coordinates":[[[88.64536661711726,27.606024596276768],[88.64541209497854,27.606022528792614],[88.64541483979707,27.60606994105118],[88.64536936193579,27.60607200853446],[88.64536661711726,27.606024596276768]]]}},{"type":"Feature","properties":{"source":"Microsoft Global ML Building Footprints"},"geometry":{"type":"Polygon","coordinates":[[[88.64659084157223,27.60380366205085],[88.64658146623421,27.603857037545673],[88.646484572101,27.603843672234817],[88.64649394743904,27.6037902967335],[88.64659084157223,27.60380366205085]]]}},{"type":"Feature","properties":{"source":"Microsoft Global ML Building Footprints"},"geometry":{"type":"Polygon","coordinates":[[[88.6459665228884,27.6046902298542],[88.64600560373384,27.604698420074733],[88.64599418678273,27.60474118814716],[88.64586620414713,27.60471436667798],[88.64589263599431,27.604615323223882],[88.64598154098341,27.60463395516296],[88.6459665228884,27.6046902298542]]]}},{"type":"Feature","properties":{"source":"Microsoft Global ML Building Footprints"},"geometry":{"type":"Polygon","coordinates":[[[88.64685795863765,27.603959353286413],[88.64686868251461,27.603985888684235],[88.6468296807557,27.60399826655226],[88.64681895588795,27.60397173389091],[88.64685795863765,27.603959353286413]]]}},{"type":"Feature","properties":{"source":"Microsoft Global ML Building Footprints"},"geometry":{"type":"Polygon","coordinates":[[[88.64628363180609,27.603761969955542],[88.6463143783476,27.603678122905563],[88.64640798959667,27.60370507426058],[88.646377249045,27.60378892301445],[88.64628363180609,27.603761969955542]]]}},{"type":"Feature","properties":{"source":"Microsoft Global ML Building Footprints"},"geometry":{"type":"Polygon","coordinates":[[[88.64805500265896,27.606125414212997],[88.64799234572548,27.606101674411114],[88.64798071256153,27.606125788981714],[88.64795719678696,27.606116879196975],[88.64799270743666,27.606043280633507],[88.64807888071462,27.606075925108236],[88.64805500265896,27.606125414212997]]]}},{"type":"Feature","properties":{"source":"Microsoft Global ML Building Footprints"},"geometry":{"type":"Polygon","coordinates":[[[88.6475557158067,27.604629058887816],[88.64759740297986,27.60463767380555],[88.6475764110224,27.604717442842492],[88.64753472917947,27.604708831617735],[88.6475557158067,27.604629058887816]]]}},{"type":"Feature","properties":{"source":"Microsoft Global ML Building Footprints"},"geometry":{"type":"Polygon","coordinates":[[[88.64577136767177,27.60385278320321],[88.64581952271217,27.603806925689078],[88.64590145678461,27.603874492338853],[88.64585330174422,27.603920349824712],[88.64577136767177,27.60385278320321]]]}},{"type":"Feature","properties":{"source":"Microsoft Global ML Building Footprints"},"geometry":{"type":"Polygon","coordinates":[[[88.64604340551395,27.603911817565645],[88.64609442978656,27.603893931057435],[88.6461091090693,27.60392681562439],[88.64605808479669,27.603944702127222],[88.64604340551395,27.603911817565645]]]}},{"type":"Feature","properties":{"source":"Microsoft Global ML Building Footprints"},"geometry":{"type":"Polygon","coordinates":[[[88.64779762724977,27.603695144208707],[88.64785889417607,27.603793538426984],[88.64778281621182,27.603830739241523],[88.64772154928554,27.603732345056663],[88.64779762724977,27.603695144208707]]]}},{"type":"Feature","properties":{"source":"Microsoft Global ML Building Footprints"},"geometry":{"type":"Polygon","coordinates":[[[88.64301553289307,27.605385614114503],[88.64310135260233,27.60533017339798],[88.64314923103183,27.605388373350053],[88.64306340846326,27.605443810561425],[88.64301553289307,27.605385614114503]]]}},{"type":"Feature","properties":{"source":"Microsoft Global ML Building Footprints"},"geometry":{"type":"Polygon","coordinates":[[[88.64749355462386,27.605156852947637],[88.6475489693994,27.60508483145795],[88.64759222999093,27.605110970064636],[88.64753682050794,27.605182992051525],[88.64749355462386,27.605156852947637]]]}},{"type":"Feature","properties":{"source":"Microsoft Global ML Building Footprints"},"geometry":{"type":"Polygon","coordinates":[[[88.64476149539908,27.604550215678557],[88.64470600572179,27.604544175728385],[88.64470261257148,27.604568669767026],[88.64463126809683,27.604560908477197],[88.64463775570667,27.60451407654317],[88.64468106599243,27.60451878810396],[88.64468658355804,27.604478981282945],[88.6447701047966,27.6044880672426],[88.64476149539908,27.604550215678557]]]}},{"type":"Feature","properties":{"source":"Microsoft Global ML Building Footprints"},"geometry":{"type":"Polygon","coordinates":[[[88.64749120877582,27.605118722329372],[88.6474641785879,27.605159224372464],[88.64739786111498,27.605124468647006],[88.64742488893293,27.605083965348967],[88.64749120877582,27.605118722329372]]]}},{"type":"Feature","properties":{"source":"Microsoft Global ML Building Footprints"},"geometry":{"type":"Polygon","coordinates":[[[88.64550066979234,27.605422239363804],[88.64565577041289,27.605332700690177],[88.64573672815811,27.605442837445842],[88.64558163364444,27.605532372503994],[88.64550066979234,27.605422239363804]]]}},{"type":"Feature","properties":{"source":"Microsoft Global ML Building Footprints"},"geometry":{"type":"Polygon","coordinates":[[[88.64446301676995,27.604403913345323],[88.6444550324149,27.604496068688036],[88.64440436909464,27.604492621662324],[88.6444123534497,27.604400466316726],[88.64446301676995,27.604403913345323]]]}},{"type":"Feature","properties":{"source":"Microsoft Global ML Building Footprints"},"geometry":{"type":"Polygon","coordinates":[[[88.64824410186206,27.60500175287718],[88.64832438157853,27.60497072829947],[88.64834993781754,27.605022650684745],[88.64826965465551,27.605053676579296],[88.64824410186206,27.60500175287718]]]}},{"type":"Feature","properties":{"source":"Microsoft Global ML Building Footprints"},"geometry":{"type":"Polygon","coordinates":[[[88.64427561779218,27.604102243139252],[88.64434790898038,27.60419450419385],[88.64429614859064,27.604226350171203],[88.64417486084979,27.604071542052218],[88.6443496704617,27.603963978064606],[88.64439867696083,27.6040265223072],[88.64427561779218,27.604102243139252]]]}},{"type":"Feature","properties":{"source":"Microsoft Global ML Building Footprints"},"geometry":{"type":"Polygon","coordinates":[[[88.6454027138547,27.60433883858822],[88.64554396293273,27.60420756752788],[88.64564736574496,27.604294941523335],[88.64550612571206,27.604426213708216],[88.6454027138547,27.60433883858822]]]}},{"type":"Feature","properties":{"source":"Microsoft Global ML Building Footprints"},"geometry":{"type":"Polygon","coordinates":[[[88.64277426790325,27.60611832274641],[88.64280254622909,27.606183599361515],[88.64271838899343,27.606212228322605],[88.64269010869684,27.606146947175354],[88.64277426790325,27.60611832274641]]]}},{"type":"Feature","properties":{"source":"Microsoft Global ML Building Footprints"},"geometry":{"type":"Polygon","coordinates":[[[88.64690875437896,27.604481320604194],[88.64701776820355,27.604568837963683],[88.64687976698643,27.604703827771708],[88.64677074936537,27.604616314233645],[88.64690875437896,27.604481320604194]]]}},{"type":"Feature","properties":{"source":"Microsoft Global ML Building Footprints"},"geometry":{"type":"Polygon","coordinates":[[[88.64343548969677,27.604128737274728],[88.64352109290604,27.60406795660461],[88.64356035587105,27.60411138563608],[88.64347475475074,27.604172164798904],[88.64343548969677,27.604128737274728]]]}},{"type":"Feature","properties":{"source":"Microsoft Global ML Building Footprints"},"geometry":{"type":"Polygon","coordinates":[[[88.64417813777851,27.603580745616448],[88.64430000069692,27.60369465277762],[88.6442392629038,27.6037456855843],[88.6441173999854,27.60363177847617],[88.64417813777851,27.603580745616448]]]}},{"type":"Feature","properties":{"source":"Microsoft Global ML Building Footprints"},"geometry":{"type":"Polygon","coordinates":[[[88.64640937789686,27.60370605923844],[88.64641130120398,27.603660962490494],[88.64639523090445,27.60366042426375],[88.64639877383863,27.603577351258025],[88.64660768773278,27.60358434821095],[88.64660222149143,27.603712517956637],[88.64640937789686,27.60370605923844]]]}},{"type":"Feature","properties":{"source":"Microsoft Global ML Building Footprints"},"geometry":{"type":"Polygon","coordinates":[[[88.64687769808117,27.602721175290988],[88.64684745478131,27.602780342993682],[88.64671392070584,27.602726740899314],[88.64674416400565,27.60266757316768],[88.64687769808117,27.602721175290988]]]}},{"type":"Feature","properties":{"source":"Microsoft Global ML Building Footprints"},"geometry":{"type":"Polygon","coordinates":[[[88.64540370124,27.60547675563003],[88.64545572709366,27.605532087193517],[88.6453886693652,27.60558160424217],[88.64533663862402,27.60552627215344],[88.64540370124,27.60547675563003]]]}},{"type":"Feature","properties":{"source":"Microsoft Global ML Building Footprints"},"geometry":{"type":"Polygon","coordinates":[[[88.64634532226786,27.604173219177127],[88.64638928295851,27.60406617827074],[88.64650865892779,27.604104686152752],[88.64648330048739,27.604166420127207],[88.64646103437184,27.604159238987698],[88.6464424283171,27.60420454327675],[88.64634532226786,27.604173219177127]]]}},{"type":"Feature","properties":{"source":"Microsoft Global ML Building Footprints"},"geometry":{"type":"Polygon","coordinates":[[[88.65118489149934,27.598336152527267],[88.65116557526633,27.598371697840157],[88.65110336641479,27.598345147364576],[88.65112267866706,27.598309604202882],[88.65118489149934,27.598336152527267]]]}},{"type":"Feature","properties":{"source":"Microsoft Global ML Building Footprints"},"geometry":{"type":"Polygon","coordinates":[[[88.64696804223621,27.601954123278404],[88.64698126901692,27.602016082389916],[88.64692309852946,27.602025838202323],[88.6469098670246,27.601963879888608],[88.64696804223621,27.601954123278404]]]}},{"type":"Feature","properties":{"source":"Microsoft Global ML Building Footprints"},"geometry":{"type":"Polygon","coordinates":[[[88.6442581662028,27.604460471627142],[88.64426141615508,27.604427446365023],[88.6443359511765,27.60443320637087],[88.64433270122424,27.60446623163125],[88.6442581662028,27.604460471627142]]]}},{"type":"Feature","properties":{"source":"Microsoft Global ML Building Footprints"},"geometry":{"type":"Polygon","coordinates":[[[88.64724525483813,27.60353275937183],[88.64726748100655,27.603587467829747],[88.64718912439012,27.603612466932745],[88.6471668982217,27.603557758487298],[88.64724525483813,27.60353275937183]]]}},{"type":"Feature","properties":{"source":"Microsoft Global ML Building Footprints"},"geometry":{"type":"Polygon","coordinates":[[[88.64458885312537,27.604434494704414],[88.64465335631668,27.60444586442356],[88.64463539401979,27.60452588929033],[88.64457089082848,27.604514519579467],[88.64458885312537,27.604434494704414]]]}},{"type":"Feature","properties":{"source":"Microsoft Global ML Building Footprints"},"geometry":{"type":"Polygon","coordinates":[[[88.64363575106134,27.605755268104957],[88.6437078630213,27.605785743449033],[88.64367243042597,27.60585158237175],[88.643600318466,27.605821107045983],[88.64363575106134,27.605755268104957]]]}},{"type":"Feature","properties":{"source":"Microsoft Global ML Building Footprints"},"geometry":{"type":"Polygon","coordinates":[[[88.64525247485386,27.603541728691127],[88.64524593936108,27.603509492520935],[88.64537845466968,27.60348839457803],[88.6453901251925,27.603545959172067],[88.6453199700291,27.603557128665884],[88.64531483499907,27.603531800250813],[88.64525247485386,27.603541728691127]]]}},{"type":"Feature","properties":{"source":"Microsoft Global ML Building Footprints"},"geometry":{"type":"Polygon","coordinates":[[[88.64652499985858,27.60387583653946],[88.64647836696808,27.603980786427947],[88.64635296982753,27.60393703081919],[88.64639960271803,27.60383208088882],[88.64652499985858,27.60387583653946]]]}},{"type":"Feature","properties":{"source":"Microsoft Global ML Building Footprints"},"geometry":{"type":"Polygon","coordinates":[[[88.64606613844848,27.604154923034947],[88.64613692783291,27.60417610279255],[88.64611822724252,27.604225176208985],[88.6460185483754,27.60419535290432],[88.64604815921825,27.60411763305686],[88.64607705156725,27.60412627926911],[88.64606613844848,27.604154923034947]]]}},{"type":"Feature","properties":{"source":"Microsoft Global ML Building Footprints"},"geometry":{"type":"Polygon","coordinates":[[[88.64761311446365,27.603906128725107],[88.64771268775367,27.60393464214129],[88.64768679004308,27.604005663782857],[88.64758721675307,27.60397715038514],[88.64761311446365,27.603906128725107]]]}},{"type":"Feature","properties":{"source":"Microsoft Global ML Building Footprints"},"geometry":{"type":"Polygon","coordinates":[[[88.64611386298421,27.60467536975071],[88.6462170540935,27.60470674296785],[88.64618378023387,27.604792704588668],[88.64608058690803,27.604761337122454],[88.64611386298421,27.60467536975071]]]}},{"type":"Feature","properties":{"source":"Microsoft Global ML Building Footprints"},"geometry":{"type":"Polygon","coordinates":[[[88.6481119726709,27.600336636713948],[88.64804477792003,27.60041497408387],[88.64799037983511,27.600378329152647],[88.64805757458599,27.600299991756536],[88.6481119726709,27.600336636713948]]]}},{"type":"Feature","properties":{"source":"Microsoft Global ML Building Footprints"},"geometry":{"type":"Polygon","coordinates":[[[88.64701433006115,27.603548069713952],[88.64707848600035,27.603517136185424],[88.64717150014306,27.603668630088322],[88.6470626679301,27.603721097971565],[88.64699668814913,27.603613621695736],[88.64704135467578,27.6035920852268],[88.64701433006115,27.603548069713952]]]}},{"type":"Feature","properties":{"source":"Microsoft Global ML Building Footprints"},"geometry":{"type":"Polygon","coordinates":[[[88.6441132589658,27.604325188742727],[88.64416364704414,27.60434051766756],[88.64415129134484,27.60437241218203],[88.64410090326649,27.60435708326166],[88.6441132589658,27.604325188742727]]]}},{"type":"Feature","properties":{"source":"Microsoft Global ML Building Footprints"},"geometry":{"type":"Polygon","coordinates":[[[88.64612528493163,27.603624345624397],[88.64607056751312,27.60367064584735],[88.64600090441674,27.603605993631],[88.64605562183526,27.603559693380717],[88.64612528493163,27.603624345624397]]]}},{"type":"Feature","properties":{"source":"Microsoft Global ML Building Footprints"},"geometry":{"type":"Polygon","coordinates":[[[88.64724227536766,27.599574174788756],[88.64716214627046,27.599496343776174],[88.64720020369867,27.599465572330253],[88.64722958436765,27.599494110382636],[88.64731594545476,27.59942428285688],[88.64736669388299,27.59947357587035],[88.64724227536766,27.599574174788756]]]}},{"type":"Feature","properties":{"source":"Microsoft Global ML Building Footprints"},"geometry":{"type":"Polygon","coordinates":[[[88.64743210523517,27.605313914823583],[88.64768646351037,27.60514257550981],[88.6478562412141,27.605340479716354],[88.6476018816092,27.605511835392072],[88.64743210523517,27.605313914823583]]]}},{"type":"Feature","properties":{"source":"Microsoft Global ML Building Footprints"},"geometry":{"type":"Polygon","coordinates":[[[88.64869195246598,27.60495148952026],[88.64859744078102,27.604978863930228],[88.64852034017612,27.60476978053898],[88.64861485381404,27.604742411373003],[88.64869195246598,27.60495148952026]]]}},{"type":"Feature","properties":{"source":"Microsoft Global ML Building Footprints"},"geometry":{"type":"Polygon","coordinates":[[[88.64928188566768,27.605570749087548],[88.64924840674871,27.60559473567905],[88.64918808700375,27.60552861720646],[88.64922156276488,27.60550463286294],[88.64928188566768,27.605570749087548]]]}},{"type":"Feature","properties":{"source":"Microsoft Global ML Building Footprints"},"geometry":{"type":"Polygon","coordinates":[[[88.64761594670094,27.602735179182808],[88.64773961408675,27.60263714637798],[88.64781291901463,27.602709767454527],[88.64768925162882,27.60280780019439],[88.64761594670094,27.602735179182808]]]}},{"type":"Feature","properties":{"source":"Microsoft Global ML Building Footprints"},"geometry":{"type":"Polygon","coordinates":[[[88.64560771214188,27.603844199724584],[88.64555399203121,27.603859136348],[88.6455432659878,27.60382884207604],[88.64559698609847,27.60381390544852],[88.64560771214188,27.603844199724584]]]}},{"type":"Feature","properties":{"source":"Microsoft Global ML Building Footprints"},"geometry":{"type":"Polygon","coordinates":[[[88.64745231361158,27.604590700052704],[88.64751552857044,27.604607194440618],[88.64748601367596,27.604696023534025],[88.64742279346041,27.604679523866842],[88.64745231361158,27.604590700052704]]]}},{"type":"Feature","properties":{"source":"Microsoft Global ML Building Footprints"},"geometry":{"type":"Polygon","coordinates":[[[88.64681229997393,27.603249581112998],[88.64670016482651,27.603289126671697],[88.6466706777991,27.603223464358905],[88.64678281742349,27.603183917197654],[88.64681229997393,27.603249581112998]]]}},{"type":"Feature","properties":{"source":"Microsoft Global ML Building Footprints"},"geometry":{"type":"Polygon","coordinates":[[[88.6466929967828,27.602820413805432],[88.64672232785718,27.60276951155174],[88.64679678714319,27.60280321033577],[88.64676745606882,27.6028541125738],[88.6466929967828,27.602820413805432]]]}},{"type":"Feature","properties":{"source":"Microsoft Global ML Building Footprints"},"geometry":{"type":"Polygon","coordinates":[[[88.64955197353598,27.603574874769066],[88.64955449621957,27.603478375116588],[88.64961234406327,27.60347956269814],[88.64960982909052,27.603576058919522],[88.64955197353598,27.603574874769066]]]}},{"type":"Feature","properties":{"source":"Microsoft Global ML Building Footprints"},"geometry":{"type":"Polygon","coordinates":[[[88.64506370230059,27.604118955949367],[88.64517814093551,27.603980773875307],[88.64527576047438,27.604044268092956],[88.6451613250984,27.60418244615188],[88.64506370230059,27.604118955949367]]]}},{"type":"Feature","properties":{"source":"Microsoft Global ML Building Footprints"},"geometry":{"type":"Polygon","coordinates":[[[88.64591932150523,27.603700531985567],[88.64584824170291,27.603761096326608],[88.64579463882626,27.603711693167725],[88.64586571862858,27.60365112879937],[88.64591932150523,27.603700531985567]]]}},{"type":"Feature","properties":{"source":"Microsoft Global ML Building Footprints"},"geometry":{"type":"Polygon","coordinates":[[[88.64636299510018,27.603210133872047],[88.64628009396063,27.603281408603628],[88.64621306944142,27.60322018768084],[88.64629597058097,27.60314891290946],[88.64636299510018,27.603210133872047]]]}},{"type":"Feature","properties":{"source":"Microsoft Global ML Building Footprints"},"geometry":{"type":"Polygon","coordinates":[[[88.6456454456665,27.604754759690593],[88.64562062425706,27.60485807225036],[88.64552312007541,27.604839676170215],[88.64554794287474,27.604736357808044],[88.6456454456665,27.604754759690593]]]}},{"type":"Feature","properties":{"source":"Microsoft Global ML Building Footprints"},"geometry":{"type":"Polygon","coordinates":[[[88.64514891188414,27.604195984834192],[88.64508851386151,27.604272765441422],[88.64501811620644,27.60422927811151],[88.64507851422907,27.60415249747384],[88.64514891188414,27.604195984834192]]]}},{"type":"Feature","properties":{"source":"Microsoft Global ML Building Footprints"},"geometry":{"type":"Polygon","coordinates":[[[88.64858955764016,27.604730420478077],[88.64849421957804,27.60476642487444],[88.64846423118075,27.604704066690708],[88.64855956924288,27.604668062273852],[88.64858955764016,27.604730420478077]]]}},{"type":"Feature","properties":{"source":"Microsoft Global ML Building Footprints"},"geometry":{"type":"Polygon","coordinates":[[[88.64673799577334,27.603959797658455],[88.64679909009962,27.60394288646856],[88.6468242802208,27.60401435132797],[88.64676318589453,27.60403126250681],[88.64673799577334,27.603959797658455]]]}},{"type":"Feature","properties":{"source":"Microsoft Global ML Building Footprints"},"geometry":{"type":"Polygon","coordinates":[[[88.6470554996217,27.605099613459785],[88.64710881722516,27.605038986575437],[88.64724460031205,27.605132767994988],[88.64719127972978,27.605193392770104],[88.6470554996217,27.605099613459785]]]}},{"type":"Feature","properties":{"source":"Microsoft Global ML Building Footprints"},"geometry":{"type":"Polygon","coordinates":[[[88.6475976332563,27.603009073415727],[88.64765380957161,27.602972903904032],[88.64767549260019,27.60299935074834],[88.64761931628486,27.603035520251346],[88.6475976332563,27.603009073415727]]]}},{"type":"Feature","properties":{"source":"Microsoft Global ML Building Footprints"},"geometry":{"type":"Polygon","coordinates":[[[88.64354799745672,27.60485554989907],[88.64347241945322,27.604927370055606],[88.64343081365114,27.604892990637182],[88.64350639310707,27.604821169077937],[88.64354799745672,27.60485554989907]]]}},{"type":"Feature","properties":{"source":"Microsoft Global ML Building Footprints"},"geometry":{"type":"Polygon","coordinates":[[[88.64776074090624,27.604267985409706],[88.64772541870008,27.604391701817605],[88.64743551722937,27.60432672127262],[88.64747084426023,27.60420298789287],[88.64776074090624,27.604267985409706]]]}},{"type":"Feature","properties":{"source":"Microsoft Global ML Building Footprints"},"geometry":{"type":"Polygon","coordinates":[[[88.64803550157869,27.600447978345436],[88.64794600246333,27.60053467711267],[88.64786277217051,27.60046720096031],[88.64795227128587,27.6003805021397],[88.64803550157869,27.600447978345436]]]}},{"type":"Feature","properties":{"source":"Microsoft Global ML Building Footprints"},"geometry":{"type":"Polygon","coordinates":[[[88.64755400648018,27.602118198994084],[88.6475778993127,27.602083628421617],[88.6476305634732,27.60211221265795],[88.64760667064066,27.602146783221414],[88.64755400648018,27.602118198994084]]]}},{"type":"Feature","properties":{"source":"Microsoft Global ML Building Footprints"},"geometry":{"type":"Polygon","coordinates":[[[88.6457002804312,27.605541827278465],[88.64575068971047,27.605509496721545],[88.6457761701878,27.605540691799163],[88.64572575929166,27.60557302338387],[88.6457002804312,27.605541827278465]]]}},{"type":"Feature","properties":{"source":"Microsoft Global ML Building Footprints"},"geometry":{"type":"Polygon","coordinates":[[[88.64335659583848,27.60456632817855],[88.643444954122,27.604611692724106],[88.64336583936702,27.604732701952145],[88.64327748108349,27.60468733745671],[88.64335659583848,27.60456632817855]]]}},{"type":"Feature","properties":{"source":"Microsoft Global ML Building Footprints"},"geometry":{"type":"Polygon","coordinates":[[[88.64644027204918,27.60471499926924],[88.64648389457545,27.604636610366597],[88.64657882565845,27.60467809570863],[88.64653520313217,27.60475648458158],[88.64644027204918,27.60471499926924]]]}},{"type":"Feature","properties":{"source":"Microsoft Global ML Building Footprints"},"geometry":{"type":"Polygon","coordinates":[[[88.6485488433816,27.60579832147227],[88.6485012217363,27.605844299579367],[88.6483585524135,27.605728260331418],[88.6484061690843,27.605682286978457],[88.6485488433816,27.60579832147227]]]}},{"type":"Feature","properties":{"source":"Microsoft Global ML Building Footprints"},"geometry":{"type":"Polygon","coordinates":[[[88.64809766685762,27.605093499054774],[88.64817056493871,27.605145809838163],[88.64812202857634,27.605198924975383],[88.64804913049528,27.605146614217375],[88.64809766685762,27.605093499054774]]]}},{"type":"Feature","properties":{"source":"Microsoft Global ML Building Footprints"},"geometry":{"type":"Polygon","coordinates":[[[88.64585806508046,27.6041930799566],[88.6459033114657,27.604125537931388],[88.64598462572052,27.604168314956475],[88.64593938183347,27.604235853226115],[88.64585806508046,27.6041930799566]]]}},{"type":"Feature","properties":{"source":"Microsoft Global ML Building Footprints"},"geometry":{"type":"Polygon","coordinates":[[[88.64752752628819,27.600539491066293],[88.64763576146308,27.60043498626245],[88.64771800465866,27.600501876423195],[88.64760977396377,27.600606384806923],[88.64752752628819,27.600539491066293]]]}},{"type":"Feature","properties":{"source":"Microsoft Global ML Building Footprints"},"geometry":{"type":"Polygon","coordinates":[[[88.6486804167404,27.605481436267226],[88.64869138641373,27.605500157373278],[88.64862378282633,27.605531264171503],[88.64858867987175,27.605471356637935],[88.64868451605874,27.605427258996755],[88.64870864677783,27.605468446625146],[88.6486804167404,27.605481436267226]]]}},{"type":"Feature","properties":{"source":"Microsoft Global ML Building Footprints"},"geometry":{"type":"Polygon","coordinates":[[[88.6442173848964,27.60348363703406],[88.64430778508348,27.603399972231983],[88.64435175257725,27.60343728262356],[88.64426135048029,27.603520943049645],[88.6442173848964,27.60348363703406]]]}},{"type":"Feature","properties":{"source":"Microsoft Global ML Building Footprints"},"geometry":{"type":"Polygon","coordinates":[[[88.64714073804407,27.60300586878556],[88.64720610567986,27.603040338203982],[88.64718253193969,27.60307544572909],[88.6471171643039,27.6030409763217],[88.64714073804407,27.60300586878556]]]}},{"type":"Feature","properties":{"source":"Microsoft Global ML Building Footprints"},"geometry":{"type":"Polygon","coordinates":[[[88.64724697650993,27.603660552909766],[88.64731166008075,27.603607961936774],[88.64738915657546,27.603682813864594],[88.64732447621431,27.60373540219208],[88.64724697650993,27.603660552909766]]]}},{"type":"Feature","properties":{"source":"Microsoft Global ML Building Footprints"},"geometry":{"type":"Polygon","coordinates":[[[88.64844839538704,27.604468311191823],[88.64851838075933,27.604428212549834],[88.64865168334315,27.60461091637484],[88.64858169797085,27.604651014949958],[88.64844839538704,27.604468311191823]]]}},{"type":"Feature","properties":{"source":"Microsoft Global ML Building Footprints"},"geometry":{"type":"Polygon","coordinates":[[[88.64531622766884,27.6046868596813],[88.64541523041305,27.60468254917943],[88.6454181226499,27.604734714637907],[88.64531911990574,27.604739025137704],[88.64531622766884,27.6046868596813]]]}},{"type":"Feature","properties":{"source":"Microsoft Global ML Building Footprints"},"geometry":{"type":"Polygon","coordinates":[[[88.64801934990334,27.604778456655666],[88.64802184077952,27.60485445250891],[88.64791630297111,27.60485717548743],[88.64791380609792,27.6047811797908],[88.64801934990334,27.604778456655666]]]}},{"type":"Feature","properties":{"source":"Microsoft Global ML Building Footprints"},"geometry":{"type":"Polygon","coordinates":[[[88.64535081527035,27.6055993242325],[88.64528154552477,27.605642084201243],[88.64523499689977,27.60558287462966],[88.64530426979388,27.60554011269422],[88.64535081527035,27.6055993242325]]]}},{"type":"Feature","properties":{"source":"Microsoft Global ML Building Footprints"},"geometry":{"type":"Polygon","coordinates":[[[88.64442261302537,27.604350167949526],[88.64449775119621,27.604291179002317],[88.64453769096247,27.60433113006019],[88.64446255279162,27.604390118985847],[88.64442261302537,27.604350167949526]]]}},{"type":"Feature","properties":{"source":"Microsoft Global ML Building Footprints"},"geometry":{"type":"Polygon","coordinates":[[[88.64868140825624,27.599425495667937],[88.64877255325794,27.599423601833543],[88.64877601018321,27.599554264691918],[88.64868486518154,27.59955615852406],[88.64868140825624,27.599425495667937]]]}},{"type":"Feature","properties":{"source":"Microsoft Global ML Building Footprints"},"geometry":{"type":"Polygon","coordinates":[[[88.64679749797865,27.603040610415754],[88.64677969964929,27.603083283681364],[88.64673116583285,27.603067386853148],[88.64674896823203,27.603024711904418],[88.64679749797865,27.603040610415754]]]}},{"type":"Feature","properties":{"source":"Microsoft Global ML Building Footprints"},"geometry":{"type":"Polygon","coordinates":[[[88.64790570366915,27.604354393156612],[88.6480349600784,27.604394164113195],[88.64804742665966,27.604362346636492],[88.6480043411899,27.604349089648714],[88.64801348334949,27.604325756823748],[88.64812359066109,27.604359635796555],[88.64808619091734,27.60445508820132],[88.648047892722,27.604443304222244],[88.64801215518906,27.604534514230025],[88.64787717476639,27.604492982102315],[88.64790044153186,27.604433588237143],[88.647877446085,27.604426512762437],[88.64790570366915,27.604354393156612]]]}},{"type":"Feature","properties":{"source":"Microsoft Global ML Building Footprints"},"geometry":{"type":"Polygon","coordinates":[[[88.64407609212927,27.60433952965635],[88.64404442914712,27.604373182235292],[88.6439922130011,27.604334604715504],[88.64402387598327,27.60430095212474],[88.64407609212927,27.60433952965635]]]}},{"type":"Feature","properties":{"source":"Microsoft Global ML Building Footprints"},"geometry":{"type":"Polygon","coordinates":[[[88.64597374007121,27.603651517953914],[88.64602263693257,27.603638016400076],[88.64605082312583,27.60371817897058],[88.64600192626447,27.603731680514557],[88.64597374007121,27.603651517953914]]]}},{"type":"Feature","properties":{"source":"Microsoft Global ML Building Footprints"},"geometry":{"type":"Polygon","coordinates":[[[88.6453107367353,27.60481271881587],[88.64531247884811,27.604857826776822],[88.64525187958682,27.60485966090615],[88.64525014103248,27.60481455283825],[88.6453107367353,27.60481271881587]]]}},{"type":"Feature","properties":{"source":"Microsoft Global ML Building Footprints"},"geometry":{"type":"Polygon","coordinates":[[[88.64795081343627,27.604172009370906],[88.64795565825042,27.60414904303628],[88.64800230777071,27.604156771028386],[88.64799746295652,27.604179737361413],[88.64795081343627,27.604172009370906]]]}},{"type":"Feature","properties":{"source":"Microsoft Global ML Building Footprints"},"geometry":{"type":"Polygon","coordinates":[[[88.64614096358636,27.605939629458476],[88.64624648554538,27.605895761172064],[88.646268742123,27.605937801941636],[88.64616321732417,27.60598166484702],[88.64614096358636,27.605939629458476]]]}},{"type":"Feature","properties":{"source":"Microsoft Global ML Building Footprints"},"geometry":{"type":"Polygon","coordinates":[[[88.64682463262447,27.60371410795989],[88.64687679095081,27.60369074496483],[88.64692257960563,27.603771021858094],[88.64687042779876,27.60379438515038],[88.64682463262447,27.60371410795989]]]}},{"type":"Feature","properties":{"source":"Microsoft Global ML Building Footprints"},"geometry":{"type":"Polygon","coordinates":[[[88.64721527902037,27.60391624607066],[88.64727545366416,27.603858721802673],[88.64738652735893,27.60394997383687],[88.64732635271514,27.604007498056944],[88.64721527902037,27.60391624607066]]]}},{"type":"Feature","properties":{"source":"Microsoft Global ML Building Footprints"},"geometry":{"type":"Polygon","coordinates":[[[88.64566882440833,27.604003694260996],[88.6456428573521,27.604045781406867],[88.64559742902225,27.6040237706451],[88.64562339607852,27.603981683490787],[88.64566882440833,27.604003694260996]]]}},{"type":"Feature","properties":{"source":"Microsoft Global ML Building Footprints"},"geometry":{"type":"Polygon","coordinates":[[[88.64752050351126,27.60388234048782],[88.6475928201381,27.603905852067186],[88.64757147183346,27.603957417151868],[88.64749915325426,27.603933900463467],[88.64752050351126,27.60388234048782]]]}},{"type":"Feature","properties":{"source":"Microsoft Global ML Building Footprints"},"geometry":{"type":"Polygon","coordinates":[[[88.64599444075846,27.60447932373706],[88.64602023539273,27.604444348331143],[88.64607285961407,27.604474826153755],[88.6460470649798,27.604509801549952],[88.64599444075846,27.60447932373706]]]}},{"type":"Feature","properties":{"source":"Microsoft Global ML Building Footprints"},"geometry":{"type":"Polygon","coordinates":[[[88.64732116241419,27.604260546129773],[88.6472992418868,27.60434396918469],[88.647240723041,27.604331897639526],[88.64726264356842,27.60424847457542],[88.64732116241419,27.604260546129773]]]}},{"type":"Feature","properties":{"source":"Microsoft Global ML Building Footprints"},"geometry":{"type":"Polygon","coordinates":[[[88.64721926033378,27.60561945441402],[88.64717603804783,27.605669537301615],[88.64704572442322,27.605581223103115],[88.64708895111005,27.605531135075736],[88.64721926033378,27.60561945441402]]]}},{"type":"Feature","properties":{"source":"Microsoft Global ML Building Footprints"},"geometry":{"type":"Polygon","coordinates":[[[88.64807451465838,27.598734609421143],[88.64812468086049,27.598725088044596],[88.64813216418189,27.59875606401023],[88.64808199959988,27.59876558196514],[88.64807451465838,27.598734609421143]]]}},{"type":"Feature","properties":{"source":"Microsoft Global ML Building Footprints"},"geometry":{"type":"Polygon","coordinates":[[[88.64708161859845,27.602062108305176],[88.64713623813098,27.60199661740495],[88.64727421406846,27.602086978213904],[88.64721959326555,27.602152476785797],[88.64708161859845,27.602062108305176]]]}},{"type":"Feature","properties":{"source":"Microsoft Global ML Building Footprints"},"geometry":{"type":"Polygon","coordinates":[[[88.64742966432198,27.604576323105107],[88.64741067560813,27.60466092071892],[88.64730747050203,27.60464272920342],[88.64732645921588,27.60455813157555],[88.64742966432198,27.604576323105107]]]}},{"type":"Feature","properties":{"source":"Microsoft Global ML Building Footprints"},"geometry":{"type":"Polygon","coordinates":[[[88.64973924963677,27.604440290620225],[88.64969351967731,27.6043402365233],[88.64976173231076,27.604315753603757],[88.6498074690586,27.604415805286564],[88.64973924963677,27.604440290620225]]]}},{"type":"Feature","properties":{"source":"Microsoft Global ML Building Footprints"},"geometry":{"type":"Polygon","coordinates":[[[88.64576545324515,27.603714762349767],[88.64569023519164,27.603727073788072],[88.64567538425875,27.603655820541505],[88.64575060231226,27.60364350909518],[88.64576545324515,27.603714762349767]]]}},{"type":"Feature","properties":{"source":"Microsoft Global ML Building Footprints"},"geometry":{"type":"Polygon","coordinates":[[[88.64896628469256,27.598232343733926],[88.64901930702092,27.598196263101293],[88.64905688257359,27.598239627325448],[88.6490038580908,27.59827570940989],[88.64896628469256,27.598232343733926]]]}},{"type":"Feature","properties":{"source":"Microsoft Global ML Building Footprints"},"geometry":{"type":"Polygon","coordinates":[[[88.64905804417161,27.60564281922168],[88.64905680114605,27.605585795747658],[88.64916404963262,27.60558396653669],[88.64916529265818,27.6056409900117],[88.64905804417161,27.60564281922168]]]}},{"type":"Feature","properties":{"source":"Microsoft Global ML Building Footprints"},"geometry":{"type":"Polygon","coordinates":[[[88.64650449854942,27.603132643691552],[88.64660545742727,27.603091585537108],[88.64665366829198,27.603184667603074],[88.64655270602023,27.603225733364773],[88.64650449854942,27.603132643691552]]]}},{"type":"Feature","properties":{"source":"Microsoft Global ML Building Footprints"},"geometry":{"type":"Polygon","coordinates":[[[88.64834029191722,27.604469684359884],[88.64843219471388,27.604440688575124],[88.64848166640066,27.604563799534226],[88.64838975700724,27.60459280306808],[88.64834029191722,27.604469684359884]]]}},{"type":"Feature","properties":{"source":"Microsoft Global ML Building Footprints"},"geometry":{"type":"Polygon","coordinates":[[[88.64842827759732,27.604638163256475],[88.64852040571773,27.604605045239055],[88.6485446976747,27.604658111771748],[88.6484525695543,27.60469122977313],[88.64842827759732,27.604638163256475]]]}},{"type":"Feature","properties":{"source":"Microsoft Global ML Building Footprints"},"geometry":{"type":"Polygon","coordinates":[[[88.64804980748376,27.604654586813943],[88.648031175845,27.60470270126794],[88.6479519894737,27.60467861639426],[88.64797061941097,27.604630506323588],[88.64804980748376,27.604654586813943]]]}},{"type":"Feature","properties":{"source":"Microsoft Global ML Building Footprints"},"geometry":{"type":"Polygon","coordinates":[[[88.64809983442287,27.605866289782007],[88.64817669408842,27.605906489158798],[88.64812620847108,27.605982288765695],[88.64804935324563,27.605942091739003],[88.64809983442287,27.605866289782007]]]}},{"type":"Feature","properties":{"source":"Microsoft Global ML Building Footprints"},"geometry":{"type":"Polygon","coordinates":[[[88.64637269487093,27.60587838676289],[88.64628930009344,27.60592215931512],[88.64625166504833,27.60586585396245],[88.64633505982577,27.60582208138775],[88.64637269487093,27.60587838676289]]]}},{"type":"Feature","properties":{"source":"Microsoft Global ML Building Footprints"},"geometry":{"type":"Polygon","coordinates":[[[88.64731630226271,27.60486608908139],[88.64728822679524,27.604926156306995],[88.64723414965484,27.604906304290253],[88.64726222783334,27.604846241402768],[88.64731630226271,27.60486608908139]]]}},{"type":"Feature","properties":{"source":"Microsoft Global ML Building Footprints"},"geometry":{"type":"Polygon","coordinates":[[[88.64769573449495,27.604402731050953],[88.64766983839448,27.60446461952685],[88.64744347037802,27.604390236896585],[88.64746936131378,27.604328360721695],[88.64769573449495,27.604402731050953]]]}},{"type":"Feature","properties":{"source":"Microsoft Global ML Building Footprints"},"geometry":{"type":"Polygon","coordinates":[[[88.64530981735501,27.604320855044307],[88.6453650871485,27.604375301679283],[88.64528296878116,27.60444076879247],[88.64522769375321,27.604386321269622],[88.64530981735501,27.604320855044307]]]}},{"type":"Feature","properties":{"source":"Microsoft Global ML Building Footprints"},"geometry":{"type":"Polygon","coordinates":[[[88.6470992501541,27.60378719921325],[88.64703835767696,27.60381982220801],[88.64699798173913,27.60376063888529],[88.64705887421627,27.603728015872925],[88.6470992501541,27.60378719921325]]]}},{"type":"Feature","properties":{"source":"Microsoft Global ML Building Footprints"},"geometry":{"type":"Polygon","coordinates":[[[88.64267079476826,27.605238112780825],[88.64273495082118,27.60516140736813],[88.64276329222612,27.60518002219073],[88.64269913226322,27.605256725022265],[88.64267079476826,27.605238112780825]]]}},{"type":"Feature","properties":{"source":"Microsoft Global ML Building Footprints"},"geometry":{"type":"Polygon","coordinates":[[[88.64234286394377,27.605864861772872],[88.64237412245939,27.60581314654562],[88.64241580748214,27.605832932214504],[88.64238454896656,27.605884647432447],[88.64234286394377,27.605864861772872]]]}},{"type":"Feature","properties":{"source":"Microsoft Global ML Building Footprints"},"geometry":{"type":"Polygon","coordinates":[[[88.64733839747613,27.598949971121897],[88.64730833656756,27.59900319219083],[88.64726758525444,27.598985114824558],[88.64729764616301,27.598931893746837],[88.64733839747613,27.598949971121897]]]}},{"type":"Feature","properties":{"source":"Microsoft Global ML Building Footprints"},"geometry":{"type":"Polygon","coordinates":[[[88.64815461702185,27.60489528324012],[88.64811654905795,27.60484363321205],[88.64817859431759,27.604807722313623],[88.64821175028617,27.604852707838077],[88.6482688727745,27.604819646171634],[88.64830325415907,27.604866299316086],[88.6482649358474,27.6048884773899],[88.64825142786019,27.604870149962238],[88.64816682068792,27.60491911933834],[88.64822944862856,27.60500409189372],[88.64818244464396,27.605031297072124],[88.64810385271848,27.60492466486165],[88.64815461702185,27.60489528324012]]]}},{"type":"Feature","properties":{"source":"Microsoft Global ML Building Footprints"},"geometry":{"type":"Polygon","coordinates":[[[88.64761219469075,27.602842749369806],[88.64757517260132,27.602881599385967],[88.64751968385376,27.60284007693606],[88.64755670415207,27.602801225564875],[88.64761219469075,27.602842749369806]]]}},{"type":"Feature","properties":{"source":"Microsoft Global ML Building Footprints"},"geometry":{"type":"Polygon","coordinates":[[[88.64611546324585,27.60449161777268],[88.64620334939173,27.6045119494622],[88.64617805373292,27.604597793005595],[88.64609016909071,27.604577456229116],[88.64611546324585,27.60449161777268]]]}},{"type":"Feature","properties":{"source":"Microsoft Global ML Building Footprints"},"geometry":{"type":"Polygon","coordinates":[[[88.64771870029668,27.6005255386863],[88.64781406395205,27.60058962593893],[88.64772237633508,27.600696773961893],[88.6476270126797,27.600632686771974],[88.64771870029668,27.6005255386863]]]}},{"type":"Feature","properties":{"source":"Microsoft Global ML Building Footprints"},"geometry":{"type":"Polygon","coordinates":[[[88.6472746697705,27.60232595013327],[88.647303646544,27.602274621309995],[88.64722856361536,27.602241329331044],[88.6472925347691,27.60212801210794],[88.64738263680673,27.6021679580532],[88.6474367166515,27.602072162040628],[88.64759760864146,27.602143502093277],[88.64745057834621,27.602403948407833],[88.6472746697705,27.60232595013327]]]}},{"type":"Feature","properties":{"source":"Microsoft Global ML Building Footprints"},"geometry":{"type":"Polygon","coordinates":[[[88.6444686991924,27.60385950829015],[88.64454217701471,27.603826554796342],[88.64456702929918,27.60387007768469],[88.64449355421337,27.603903029938138],[88.6444686991924,27.60385950829015]]]}},{"type":"Feature","properties":{"source":"Microsoft Global ML Building Footprints"},"geometry":{"type":"Polygon","coordinates":[[[88.649164160807,27.605840854407973],[88.64921265252549,27.60586864075129],[88.64918207718031,27.60591054209994],[88.64913358779553,27.605882757104503],[88.649164160807,27.605840854407973]]]}},{"type":"Feature","properties":{"source":"Microsoft Global ML Building Footprints"},"geometry":{"type":"Polygon","coordinates":[[[88.64714908945211,27.60198333908599],[88.64723047495492,27.601883116239847],[88.64732059701183,27.601940589148448],[88.647239211509,27.60204081194204],[88.64714908945211,27.60198333908599]]]}},{"type":"Feature","properties":{"source":"Microsoft Global ML Building Footprints"},"geometry":{"type":"Polygon","coordinates":[[[88.64811228574703,27.605564668857802],[88.64816634457372,27.605487415754496],[88.64829807943974,27.60555980509553],[88.64824402061305,27.60563705814782],[88.64811228574703,27.605564668857802]]]}},{"type":"Feature","properties":{"source":"Microsoft Global ML Building Footprints"},"geometry":{"type":"Polygon","coordinates":[[[88.64753682037784,27.603789462569416],[88.64747250786851,27.603909850109766],[88.6474067734443,27.603882273359886],[88.64747108595365,27.60376188578924],[88.64753682037784,27.603789462569416]]]}},{"type":"Feature","properties":{"source":"Microsoft Global ML Building Footprints"},"geometry":{"type":"Polygon","coordinates":[[[88.6489192192788,27.60610998747714],[88.64894492150046,27.606077606839698],[88.64905617890159,27.606146947758425],[88.6490304730157,27.606179332991687],[88.6489192192788,27.60610998747714]]]}},{"type":"Feature","properties":{"source":"Microsoft Global ML Building Footprints"},"geometry":{"type":"Polygon","coordinates":[[[88.64757511653325,27.604606966544033],[88.64759242697325,27.604515375655126],[88.6476863529175,27.6045293101388],[88.64769115961742,27.604503877504058],[88.64773290448156,27.604510070608768],[88.64771078579467,27.60462710229912],[88.64757511653325,27.604606966544033]]]}},{"type":"Feature","properties":{"source":"Microsoft Global ML Building Footprints"},"geometry":{"type":"Polygon","coordinates":[[[88.64872207724805,27.60495823108807],[88.6487562508404,27.60501605401432],[88.64866442536626,27.60505867083228],[88.64863025535784,27.605000846265185],[88.64872207724805,27.60495823108807]]]}},{"type":"Feature","properties":{"source":"Microsoft Global ML Building Footprints"},"geometry":{"type":"Polygon","coordinates":[[[88.64403781456875,27.603570883835324],[88.64412471273408,27.6035065640368],[88.64416694189853,27.603551368101023],[88.64408004373315,27.603615687873237],[88.64403781456875,27.603570883835324]]]}},{"type":"Feature","properties":{"source":"Microsoft Global ML Building Footprints"},"geometry":{"type":"Polygon","coordinates":[[[88.64685466747328,27.602781784403476],[88.64688206470228,27.602731770405555],[88.64696020915423,27.602765387362666],[88.64693281192523,27.60281540134524],[88.64685466747328,27.602781784403476]]]}},{"type":"Feature","properties":{"source":"Microsoft Global ML Building Footprints"},"geometry":{"type":"Polygon","coordinates":[[[88.64736040612587,27.60312909990241],[88.64729507264472,27.603182397811466],[88.64724294822047,27.603132220327588],[88.64730828170161,27.603078922394133],[88.64736040612587,27.60312909990241]]]}},{"type":"Feature","properties":{"source":"Microsoft Global ML Building Footprints"},"geometry":{"type":"Polygon","coordinates":[[[88.6477282631601,27.600706064991016],[88.64781902865398,27.600591298379598],[88.64796741282234,27.60068346097286],[88.64791825147226,27.600745628228303],[88.64780763613734,27.60067692420577],[88.64776603528594,27.600729525543144],[88.6477282631601,27.600706064991016]]]}},{"type":"Feature","properties":{"source":"Microsoft Global ML Building Footprints"},"geometry":{"type":"Polygon","coordinates":[[[88.6479443171012,27.60455871801635],[88.64791265931837,27.60466956879008],[88.64780426678949,27.604645259550672],[88.64783592276794,27.604534415070475],[88.6479443171012,27.60455871801635]]]}},{"type":"Feature","properties":{"source":"Microsoft Global ML Building Footprints"},"geometry":{"type":"Polygon","coordinates":[[[88.64761879317196,27.60488855200247],[88.6476909283322,27.604926996520526],[88.64760044777307,27.60506033213241],[88.64752830264912,27.60502188682552],[88.64761879317196,27.60488855200247]]]}},{"type":"Feature","properties":{"source":"Microsoft Global ML Building Footprints"},"geometry":{"type":"Polygon","coordinates":[[[88.64684104609829,27.60191077825337],[88.64691056374309,27.601932022046128],[88.64689436463415,27.60197365198431],[88.64682484848879,27.60195240434622],[88.64684104609829,27.60191077825337]]]}},{"type":"Feature","properties":{"source":"Microsoft Global ML Building Footprints"},"geometry":{"type":"Polygon","coordinates":[[[88.64963026891296,27.60293465140166],[88.64963463916324,27.603020044829826],[88.64957842839229,27.603022303977568],[88.64957405814197,27.602936910551165],[88.64963026891296,27.60293465140166]]]}},{"type":"Feature","properties":{"source":"Microsoft Global ML Building Footprints"},"geometry":{"type":"Polygon","coordinates":[[[88.64424752027986,27.604361355811776],[88.64430598350181,27.60427283193694],[88.64434594152698,27.60429355525357],[88.64428747830499,27.60438207911168],[88.64424752027986,27.604361355811776]]]}},{"type":"Feature","properties":{"source":"Microsoft Global ML Building Footprints"},"geometry":{"type":"Polygon","coordinates":[[[88.64757759030843,27.604543982954688],[88.64755641438119,27.604604739814874],[88.64739086148575,27.604559427671354],[88.64741204179357,27.604498671985006],[88.64757759030843,27.604543982954688]]]}},{"type":"Feature","properties":{"source":"Microsoft Global ML Building Footprints"},"geometry":{"type":"Polygon","coordinates":[[[88.64448214872893,27.60359608972147],[88.64440988861408,27.603696664930396],[88.64436408364098,27.603670821016422],[88.64443634520812,27.60357024376235],[88.64448214872893,27.60359608972147]]]}},{"type":"Feature","properties":{"source":"Microsoft Global ML Building Footprints"},"geometry":{"type":"Polygon","coordinates":[[[88.64794562378285,27.60469234774881],[88.64805912929559,27.604736262022122],[88.64803883929636,27.604777438873413],[88.64792533942801,27.60473351976094],[88.64794562378285,27.60469234774881]]]}},{"type":"Feature","properties":{"source":"Microsoft Global ML Building Footprints"},"geometry":{"type":"Polygon","coordinates":[[[88.648978889383,27.60580594290286],[88.64891473566342,27.605891970859275],[88.6488337826475,27.605844564584395],[88.64887775366469,27.60578560717154],[88.648908295589,27.605803494499924],[88.64892848251573,27.605776424503063],[88.648978889383,27.60580594290286]]]}},{"type":"Feature","properties":{"source":"Microsoft Global ML Building Footprints"},"geometry":{"type":"Polygon","coordinates":[[[88.64493185323172,27.603959938983678],[88.64496523090811,27.603940175230264],[88.64499001135141,27.603973040061767],[88.64495663367502,27.60399280380927],[88.64493185323172,27.603959938983678]]]}},{"type":"Feature","properties":{"source":"Microsoft Global ML Building Footprints"},"geometry":{"type":"Polygon","coordinates":[[[88.64612548932614,27.60349050789189],[88.6460812525248,27.603540706117798],[88.64603030520463,27.60350544511016],[88.64607454446852,27.603455248572438],[88.64612548932614,27.60349050789189]]]}},{"type":"Feature","properties":{"source":"Microsoft Global ML Building Footprints"},"geometry":{"type":"Polygon","coordinates":[[[88.64261631141875,27.605319827060065],[88.64266755031277,27.605347109359258],[88.64259887142546,27.605448399342677],[88.6425476325315,27.605421117068722],[88.64261631141875,27.605319827060065]]]}},{"type":"Feature","properties":{"source":"Microsoft Global ML Building Footprints"},"geometry":{"type":"Polygon","coordinates":[[[88.64625423104557,27.604610991027727],[88.64627485367679,27.60455785419103],[88.6463372147678,27.604576860282464],[88.64631659213659,27.60462999710993],[88.64625423104557,27.604610991027727]]]}},{"type":"Feature","properties":{"source":"Microsoft Global ML Building Footprints"},"geometry":{"type":"Polygon","coordinates":[[[88.64776607323846,27.603707783124307],[88.64764460170254,27.60375337849137],[88.64745384489103,27.603354353370236],[88.64757534314741,27.603308747807382],[88.64776607323846,27.603707783124307]]]}},{"type":"Feature","properties":{"source":"Microsoft Global ML Building Footprints"},"geometry":{"type":"Polygon","coordinates":[[[88.64593223653088,27.605214232605157],[88.64588540669128,27.605253384598527],[88.64576491150693,27.605140206043686],[88.64581174134653,27.60510105400988],[88.64593223653088,27.605214232605157]]]}},{"type":"Feature","properties":{"source":"Microsoft Global ML Building Footprints"},"geometry":{"type":"Polygon","coordinates":[[[88.64710545748747,27.59939827206059],[88.6471775153591,27.599432404599625],[88.64720874077688,27.599380639638],[88.64727645470994,27.599412714535674],[88.64723631183247,27.59947927139889],[88.64717372601854,27.599449625619293],[88.64713737102153,27.599509902160776],[88.64706018409687,27.59947333531801],[88.64710545748747,27.59939827206059]]]}},{"type":"Feature","properties":{"source":"Microsoft Global ML Building Footprints"},"geometry":{"type":"Polygon","coordinates":[[[88.64798509447225,27.600167283488204],[88.64832289045962,27.59995211099524],[88.6483877162779,27.600032043758425],[88.64804992029052,27.60024721609446],[88.64798509447225,27.600167283488204]]]}},{"type":"Feature","properties":{"source":"Microsoft Global ML Building Footprints"},"geometry":{"type":"Polygon","coordinates":[[[88.64330386621538,27.604112712274052],[88.64323486781818,27.60419372394783],[88.64317779039582,27.6041555515474],[88.64324678663746,27.604074534863592],[88.64330386621538,27.604112712274052]]]}},{"type":"Feature","properties":{"source":"Microsoft Global ML Building Footprints"},"geometry":{"type":"Polygon","coordinates":[[[88.6461923649638,27.605458465090003],[88.64621711856245,27.605399004562763],[88.64630210908176,27.60542679443119],[88.64627735741463,27.605486250303585],[88.6461923649638,27.605458465090003]]]}},{"type":"Feature","properties":{"source":"Microsoft Global ML Building Footprints"},"geometry":{"type":"Polygon","coordinates":[[[88.64766746714045,27.602345623384494],[88.64759084904334,27.60242930518305],[88.64750747792414,27.602369358657427],[88.6475657298744,27.60230574170626],[88.64761101420021,27.602338305429782],[88.6476293871871,27.60231824029026],[88.64766746714045,27.602345623384494]]]}},{"type":"Feature","properties":{"source":"Microsoft Global ML Building Footprints"},"geometry":{"type":"Polygon","coordinates":[[[88.64517070943414,27.60386111133799],[88.64513086250626,27.60390846253214],[88.64499641717045,27.603819614883335],[88.64503626409832,27.603772263650797],[88.64517070943414,27.60386111133799]]]}},{"type":"Feature","properties":{"source":"Microsoft Global ML Building Footprints"},"geometry":{"type":"Polygon","coordinates":[[[88.64613549179566,27.605205698931336],[88.6460916969886,27.60527738693193],[88.64602401130823,27.605244915732968],[88.64606781049378,27.60517322981164],[88.64613549179566,27.605205698931336]]]}},{"type":"Feature","properties":{"source":"Microsoft Global ML Building Footprints"},"geometry":{"type":"Polygon","coordinates":[[[88.64824468085988,27.60530199051275],[88.64821142732774,27.60534677705867],[88.64813093771045,27.605299846591613],[88.64816419124257,27.605255060026494],[88.64824468085988,27.60530199051275]]]}},{"type":"Feature","properties":{"source":"Microsoft Global ML Building Footprints"},"geometry":{"type":"Polygon","coordinates":[[[88.64264188995665,27.60550348615518],[88.64259458103814,27.60556543660546],[88.64250811468095,27.60551358420968],[88.64255542359945,27.605451633730077],[88.64264188995665,27.60550348615518]]]}},{"type":"Feature","properties":{"source":"Microsoft Global ML Building Footprints"},"geometry":{"type":"Polygon","coordinates":[[[88.6444941971382,27.603485164607854],[88.64436426335371,27.603633459011675],[88.6442538175287,27.603557470817087],[88.6443837513132,27.603409176310436],[88.6444941971382,27.603485164607854]]]}},{"type":"Feature","properties":{"source":"Microsoft Global ML Building Footprints"},"geometry":{"type":"Polygon","coordinates":[[[88.64976722798025,27.605940375759275],[88.64982250084134,27.60589410357757],[88.64994516625205,27.606009157617777],[88.64988989532209,27.606055431562176],[88.64976722798025,27.605940375759275]]]}},{"type":"Feature","properties":{"source":"Microsoft Global ML Building Footprints"},"geometry":{"type":"Polygon","coordinates":[[[88.6435938658643,27.605881825174748],[88.64357672995625,27.605926587809975],[88.6435069735259,27.605905617933118],[88.64352410943395,27.605860855289343],[88.6435938658643,27.605881825174748]]]}},{"type":"Feature","properties":{"source":"Microsoft Global ML Building Footprints"},"geometry":{"type":"Polygon","coordinates":[[[88.64563075344594,27.604152360473854],[88.64561330942912,27.604176961619515],[88.64556253890942,27.604148694054807],[88.64561502127559,27.604074670348105],[88.64573309788359,27.604140419362928],[88.6456980569436,27.604189837296502],[88.64563075344594,27.604152360473854]]]}},{"type":"Feature","properties":{"source":"Microsoft Global ML Building Footprints"},"geometry":{"type":"Polygon","coordinates":[[[88.64578011494277,27.60483757968087],[88.64588551293534,27.604850091404273],[88.64587689433658,27.604907135053338],[88.64577149537374,27.6048946297583],[88.64578011494277,27.60483757968087]]]}},{"type":"Feature","properties":{"source":"Microsoft Global ML Building Footprints"},"geometry":{"type":"Polygon","coordinates":[[[88.64766655468833,27.600752921210294],[88.64761275862445,27.60081172851639],[88.64748651436716,27.600721031769673],[88.64754031043104,27.600662224414883],[88.64766655468833,27.600752921210294]]]}},{"type":"Feature","properties":{"source":"Microsoft Global ML Building Footprints"},"geometry":{"type":"Polygon","coordinates":[[[88.64380877119899,27.60377050501277],[88.6438705724163,27.603727877688712],[88.64393297591539,27.603798926223888],[88.64387117469808,27.603841553520326],[88.64380877119899,27.60377050501277]]]}},{"type":"Feature","properties":{"source":"Microsoft Global ML Building Footprints"},"geometry":{"type":"Polygon","coordinates":[[[88.64771611362545,27.603998892404455],[88.64773907583898,27.603928733429264],[88.64780835035471,27.60394653833582],[88.64778538814122,27.604016697299627],[88.64771611362545,27.603998892404455]]]}},{"type":"Feature","properties":{"source":"Microsoft Global ML Building Footprints"},"geometry":{"type":"Polygon","coordinates":[[[88.64619402891326,27.603352717294186],[88.64624311742276,27.603302320504937],[88.64637530154232,27.603403431127667],[88.64631371741896,27.603466656494938],[88.64630295787396,27.60345842695118],[88.64624779132022,27.60351506369102],[88.64616940306325,27.603455102812674],[88.64623706560334,27.603385637026918],[88.64619402891326,27.603352717294186]]]}},{"type":"Feature","properties":{"source":"Microsoft Global ML Building Footprints"},"geometry":{"type":"Polygon","coordinates":[[[88.64707391665601,27.60321199152792],[88.6470443610315,27.60324337304273],[88.64700641701657,27.60321531130827],[88.64703597394751,27.603183928398344],[88.64707391665601,27.60321199152792]]]}},{"type":"Feature","properties":{"source":"Microsoft Global ML Building Footprints"},"geometry":{"type":"Polygon","coordinates":[[[88.64526792953755,27.60447709715187],[88.64532886070594,27.604532270105906],[88.64524529131218,27.6046047508461],[88.64518435722005,27.604549575281098],[88.64526792953755,27.60447709715187]]]}},{"type":"Feature","properties":{"source":"Microsoft Global ML Building Footprints"},"geometry":{"type":"Polygon","coordinates":[[[88.64894563878285,27.605594078395306],[88.64894673551001,27.605524298802287],[88.64901645941917,27.60552515935003],[88.64901536262404,27.605594943266013],[88.64894563878285,27.605594078395306]]]}},{"type":"Feature","properties":{"source":"Microsoft Global ML Building Footprints"},"geometry":{"type":"Polygon","coordinates":[[[88.64313938419517,27.60418150191918],[88.64321890158652,27.604245369027446],[88.64317085426391,27.604292346262042],[88.64309133687253,27.60422847918113],[88.64313938419517,27.60418150191918]]]}},{"type":"Feature","properties":{"source":"Microsoft Global ML Building Footprints"},"geometry":{"type":"Polygon","coordinates":[[[88.64781408558275,27.600740352515196],[88.64787799422821,27.600723248441035],[88.64789432543596,27.60077117094307],[88.6478304167905,27.600788275009748],[88.64781408558275,27.600740352515196]]]}},{"type":"Feature","properties":{"source":"Microsoft Global ML Building Footprints"},"geometry":{"type":"Polygon","coordinates":[[[88.64812510795137,27.60466968894159],[88.64811942785902,27.604725396674027],[88.64806089748012,27.60472070651909],[88.64806657720533,27.604665002385048],[88.64812510795137,27.60466968894159]]]}},{"type":"Feature","properties":{"source":"Microsoft Global ML Building Footprints"},"geometry":{"type":"Polygon","coordinates":[[[88.64498725614446,27.60461679972162],[88.64491500728053,27.604677799535196],[88.64485009788496,27.60461742688466],[88.64491618014453,27.604561637612626],[88.64493822209216,27.604582138985485],[88.64500485089444,27.60452588414968],[88.64505976973784,27.604576968320153],[88.64499931150034,27.604628013312748],[88.64498725614446,27.60461679972162]]]}},{"type":"Feature","properties":{"source":"Microsoft Global ML Building Footprints"},"geometry":{"type":"Polygon","coordinates":[[[88.64333089107572,27.60429111589663],[88.64338440467944,27.6043331180268],[88.64330719000637,27.604410372796664],[88.6432536729836,27.6043683680125],[88.64333089107572,27.60429111589663]]]}},{"type":"Feature","properties":{"source":"Microsoft Global ML Building Footprints"},"geometry":{"type":"Polygon","coordinates":[[[88.64466195461794,27.604456426661308],[88.6446913503221,27.60439353453016],[88.6447403288192,27.60441151489109],[88.64471092887548,27.604474405455555],[88.64466195461794,27.604456426661308]]]}},{"type":"Feature","properties":{"source":"Microsoft Global ML Building Footprints"},"geometry":{"type":"Polygon","coordinates":[[[88.6467076927775,27.6024517235356],[88.64672239928883,27.602421733064546],[88.6468013645779,27.602452142635315],[88.64678665806653,27.60248213309805],[88.6467076927775,27.6024517235356]]]}},{"type":"Feature","properties":{"source":"Microsoft Global ML Building Footprints"},"geometry":{"type":"Polygon","coordinates":[[[88.64751071998087,27.605732991283816],[88.64754497406685,27.605749702406584],[88.64752187183268,27.605786888633915],[88.64748761898792,27.605770180246743],[88.64751071998087,27.605732991283816]]]}},{"type":"Feature","properties":{"source":"Microsoft Global ML Building Footprints"},"geometry":{"type":"Polygon","coordinates":[[[88.64751174390678,27.603938549918105],[88.64748398924421,27.60398286504627],[88.64740485303882,27.603943943081006],[88.64743261272721,27.60389962550112],[88.64751174390678,27.603938549918105]]]}},{"type":"Feature","properties":{"source":"Microsoft Global ML Building Footprints"},"geometry":{"type":"Polygon","coordinates":[[[88.64781743531765,27.60513029681951],[88.64792649136776,27.605221662346004],[88.64786088065901,27.605283161310403],[88.6477518246089,27.60519179583519],[88.64781743531765,27.60513029681951]]]}},{"type":"Feature","properties":{"source":"Microsoft Global ML Building Footprints"},"geometry":{"type":"Polygon","coordinates":[[[88.64298024361581,27.604953452149523],[88.6430840876429,27.60485732536322],[88.64313447257929,27.604900068465277],[88.64303063031379,27.604996193583418],[88.64298024361581,27.604953452149523]]]}},{"type":"Feature","properties":{"source":"Microsoft Global ML Building Footprints"},"geometry":{"type":"Polygon","coordinates":[[[88.64477753464958,27.604691021669936],[88.64468939136447,27.604718738311426],[88.64467248485228,27.604676516935015],[88.64476062813739,27.60464880028283],[88.64477753464958,27.604691021669936]]]}},{"type":"Feature","properties":{"source":"Microsoft Global ML Building Footprints"},"geometry":{"type":"Polygon","coordinates":[[[88.64794521842443,27.604884531441172],[88.64791886307216,27.604926067233464],[88.6479657345276,27.60494942238858],[88.6479549911419,27.604966353857314],[88.64785513157707,27.604916601929844],[88.6478922333009,27.604858129945455],[88.64794521842443,27.604884531441172]]]}},{"type":"Feature","properties":{"source":"Microsoft Global ML Building Footprints"},"geometry":{"type":"Polygon","coordinates":[[[88.6441384927116,27.603475264063782],[88.64421642892094,27.603389208133144],[88.64426279827569,27.6034221865214],[88.64418485634855,27.603508241235126],[88.6441384927116,27.603475264063782]]]}},{"type":"Feature","properties":{"source":"Microsoft Global ML Building Footprints"},"geometry":{"type":"Polygon","coordinates":[[[88.64295382141727,27.604570855100313],[88.64301403067441,27.604491436128328],[88.6430480184169,27.60451167063073],[88.64298780373706,27.604591088467345],[88.64295382141727,27.604570855100313]]]}},{"type":"Feature","properties":{"source":"Microsoft Global ML Building Footprints"},"geometry":{"type":"Polygon","coordinates":[[[88.64905080738563,27.597868807043668],[88.64905739182903,27.597915620255847],[88.64901513308581,27.59792028847037],[88.64900854864241,27.597873475260165],[88.64905080738563,27.597868807043668]]]}},{"type":"Feature","properties":{"source":"Microsoft Global ML Building Footprints"},"geometry":{"type":"Polygon","coordinates":[[[88.64838812890132,27.605477066706413],[88.64833860368363,27.605532874877113],[88.64826402494708,27.605480903169585],[88.64831355016477,27.60542509497241],[88.64838812890132,27.605477066706413]]]}},{"type":"Feature","properties":{"source":"Microsoft Global ML Building Footprints"},"geometry":{"type":"Polygon","coordinates":[[[88.64832962948152,27.60516481778847],[88.64839062842798,27.605097163866084],[88.64845283830323,27.605141210736925],[88.64839183723352,27.605208866987],[88.64832962948152,27.60516481778847]]]}},{"type":"Feature","properties":{"source":"Microsoft Global ML Building Footprints"},"geometry":{"type":"Polygon","coordinates":[[[88.64913517387892,27.605397423599406],[88.64920234038279,27.60547205503856],[88.6491488292083,27.605509869767808],[88.64908166813296,27.60543523783673],[88.64913517387892,27.605397423599406]]]}},{"type":"Feature","properties":{"source":"Microsoft Global ML Building Footprints"},"geometry":{"type":"Polygon","coordinates":[[[88.64727884531021,27.603022972181208],[88.64741697907448,27.60290056085323],[88.6474746465683,27.602951664628137],[88.64733651280403,27.60307407589903],[88.64727884531021,27.603022972181208]]]}},{"type":"Feature","properties":{"source":"Microsoft Global ML Building Footprints"},"geometry":{"type":"Polygon","coordinates":[[[88.64491175088733,27.60438340938755],[88.6448965613408,27.604409827449082],[88.64484416641899,27.604386170147578],[88.64485935762193,27.604359752828245],[88.64491175088733,27.60438340938755]]]}},{"type":"Feature","properties":{"source":"Microsoft Global ML Building Footprints"},"geometry":{"type":"Polygon","coordinates":[[[88.6435836877309,27.60383081443193],[88.64364795327974,27.60378631596862],[88.6437117203257,27.603858630797717],[88.6436474512306,27.603903131687154],[88.6435836877309,27.60383081443193]]]}},{"type":"Feature","properties":{"source":"Microsoft Global ML Building Footprints"},"geometry":{"type":"Polygon","coordinates":[[[88.64823262973385,27.604754739765475],[88.6482112627396,27.604797057727346],[88.64811825815168,27.604760181014868],[88.64813963035745,27.60471785933718],[88.64823262973385,27.604754739765475]]]}},{"type":"Feature","properties":{"source":"Microsoft Global ML Building Footprints"},"geometry":{"type":"Polygon","coordinates":[[[88.64457535651198,27.60355605441476],[88.64452734243582,27.60360760954081],[88.64445940524531,27.60355792252507],[88.64450742407766,27.603506366640815],[88.64457535651198,27.60355605441476]]]}},{"type":"Feature","properties":{"source":"Microsoft Global ML Building Footprints"},"geometry":{"type":"Polygon","coordinates":[[[88.64872081986813,27.605957121713956],[88.64871214859127,27.606011554226285],[88.64867533172412,27.606006946292453],[88.64868400264434,27.60595251601662],[88.64872081986813,27.605957121713956]]]}},{"type":"Feature","properties":{"source":"Microsoft Global ML Building Footprints"},"geometry":{"type":"Polygon","coordinates":[[[88.64847397264555,27.605523383605956],[88.64850354308824,27.605466535072715],[88.6485463746017,27.605484033194806],[88.64851680045612,27.605540880206213],[88.64847397264555,27.605523383605956]]]}},{"type":"Feature","properties":{"source":"Microsoft Global ML Building Footprints"},"geometry":{"type":"Polygon","coordinates":[[[88.64614120034474,27.60434698359137],[88.6461266210483,27.604423231746594],[88.64604681985772,27.604411249211417],[88.64606140500804,27.604335001926835],[88.64614120034474,27.60434698359137]]]}},{"type":"Feature","properties":{"source":"Microsoft Global ML Building Footprints"},"geometry":{"type":"Polygon","coordinates":[[[88.64520895443067,27.60604374752227],[88.64535963637388,27.60602759861697],[88.64536571089792,27.606072107785415],[88.64521502895472,27.606088256684174],[88.64520895443067,27.60604374752227]]]}},{"type":"Feature","properties":{"source":"Microsoft Global ML Building Footprints"},"geometry":{"type":"Polygon","coordinates":[[[88.64873317226103,27.60558123555758],[88.64862587536975,27.605608772613728],[88.64860677746921,27.6055503510698],[88.64871407661094,27.605522806766594],[88.64873317226103,27.60558123555758]]]}},{"type":"Feature","properties":{"source":"Microsoft Global ML Building Footprints"},"geometry":{"type":"Polygon","coordinates":[[[88.64998807364569,27.600758799899793],[88.64994478454634,27.600800495168173],[88.6498489153118,27.60072232664111],[88.64989220106773,27.60068063456326],[88.64998807364569,27.600758799899793]]]}},{"type":"Feature","properties":{"source":"Microsoft Global ML Building Footprints"},"geometry":{"type":"Polygon","coordinates":[[[88.64572730215785,27.604030015969727],[88.6457486180788,27.60398454099802],[88.64579894212741,27.60400306844999],[88.64577762745422,27.604048540752117],[88.64572730215785,27.604030015969727]]]}},{"type":"Feature","properties":{"source":"Microsoft Global ML Building Footprints"},"geometry":{"type":"Polygon","coordinates":[[[88.64587899844726,27.60491447562108],[88.64589778163743,27.604849832076603],[88.64595060576178,27.604861885347262],[88.64593182257158,27.604926528884626],[88.64587899844726,27.60491447562108]]]}},{"type":"Feature","properties":{"source":"Microsoft Global ML Building Footprints"},"geometry":{"type":"Polygon","coordinates":[[[88.6463147345501,27.603309753665236],[88.646402809106,27.603252041280598],[88.64644079215107,27.603297562327448],[88.64653491922516,27.60327383088446],[88.6465644033015,27.603254512756344],[88.6466271933469,27.60323868204101],[88.64662199964224,27.60322250463676],[88.64663776474234,27.60321217427471],[88.64667027853952,27.603251140678353],[88.64668058594764,27.603283238391505],[88.64661464988127,27.6032998663688],[88.64662320820185,27.60332652389296],[88.6466115455954,27.603312546766134],[88.64656093597411,27.603345709586144],[88.64648251050023,27.6033654823082],[88.64646751140943,27.603347504854362],[88.64638180422357,27.603403665930095],[88.64632179599542,27.60333174870906],[88.6463147345501,27.603309753665236]]]}},{"type":"Feature","properties":{"source":"Microsoft Global ML Building Footprints"},"geometry":{"type":"Polygon","coordinates":[[[88.64668642255415,27.602827601063446],[88.64667330802106,27.602851991915557],[88.64670076470375,27.602863585516438],[88.64667681175493,27.602908140546525],[88.64660563372645,27.602878085590667],[88.64664270288796,27.602809143112914],[88.64668642255415,27.602827601063446]]]}},{"type":"Feature","properties":{"source":"Microsoft Global ML Building Footprints"},"geometry":{"type":"Polygon","coordinates":[[[88.64557912561742,27.603581915835328],[88.64561361744126,27.603531526548828],[88.64565675380047,27.60355471438914],[88.64562226197663,27.603605103664975],[88.64557912561742,27.603581915835328]]]}},{"type":"Feature","properties":{"source":"Microsoft Global ML Building Footprints"},"geometry":{"type":"Polygon","coordinates":[[[88.64673508747805,27.602633478543147],[88.64671905298984,27.60267521030113],[88.64667578911954,27.602662155817598],[88.64669182268382,27.60262042645924],[88.64673508747805,27.602633478543147]]]}},{"type":"Feature","properties":{"source":"Microsoft Global ML Building Footprints"},"geometry":{"type":"Polygon","coordinates":[[[88.64598445877765,27.603783589797068],[88.64594180092165,27.603825779946597],[88.64585848448422,27.603759626032954],[88.64590114234022,27.603717435857973],[88.64598445877765,27.603783589797068]]]}},{"type":"Feature","properties":{"source":"Microsoft Global ML Building Footprints"},"geometry":{"type":"Polygon","coordinates":[[[88.64783651388596,27.604338042057435],[88.64783245662812,27.604402016231212],[88.64777792739791,27.604399303864824],[88.64778197961898,27.604335329438932],[88.64783651388596,27.604338042057435]]]}},{"type":"Feature","properties":{"source":"Microsoft Global ML Building Footprints"},"geometry":{"type":"Polygon","coordinates":[[[88.6493534608925,27.60568053820196],[88.64927768242431,27.605617686891605],[88.64933120720173,27.60556700634617],[88.64940698566991,27.605629857685585],[88.6493534608925,27.60568053820196]]]}},{"type":"Feature","properties":{"source":"Microsoft Global ML Building Footprints"},"geometry":{"type":"Polygon","coordinates":[[[88.64678695779777,27.60393045110429],[88.64684434365635,27.603909576443655],[88.6468635692147,27.60395108143331],[88.64680618476699,27.60397195913192],[88.64678695779777,27.60393045110429]]]}},{"type":"Feature","properties":{"source":"Microsoft Global ML Building Footprints"},"geometry":{"type":"Polygon","coordinates":[[[88.64454109500959,27.604518072230555],[88.64450527439556,27.604569959263777],[88.64446819132442,27.604549855341276],[88.6445040119385,27.604497968298524],[88.64454109500959,27.604518072230555]]]}},{"type":"Feature","properties":{"source":"Microsoft Global ML Building Footprints"},"geometry":{"type":"Polygon","coordinates":[[[88.64751571068217,27.603851723448066],[88.64754532340513,27.603780589789594],[88.6477696090393,27.60385391298852],[88.64773999631635,27.60392504659937],[88.64751571068217,27.603851723448066]]]}},{"type":"Feature","properties":{"source":"Microsoft Global ML Building Footprints"},"geometry":{"type":"Polygon","coordinates":[[[88.64475520766663,27.604109278438493],[88.64484080254198,27.603996114733803],[88.64493518924216,27.60405217903343],[88.64484959436685,27.60416534268022],[88.64475520766663,27.604109278438493]]]}},{"type":"Feature","properties":{"source":"Microsoft Global ML Building Footprints"},"geometry":{"type":"Polygon","coordinates":[[[88.64570025347308,27.60468307327126],[88.64574788365653,27.604554294364576],[88.64586023786858,27.604586927399133],[88.64581259850104,27.60471570359997],[88.64570025347308,27.60468307327126]]]}},{"type":"Feature","properties":{"source":"Microsoft Global ML Building Footprints"},"geometry":{"type":"Polygon","coordinates":[[[88.64633192401712,27.605959467344604],[88.64639719365937,27.60589447288764],[88.64643012374879,27.60592044145077],[88.64636485410654,27.605985435892343],[88.64633192401712,27.605959467344604]]]}},{"type":"Feature","properties":{"source":"Microsoft Global ML Building Footprints"},"geometry":{"type":"Polygon","coordinates":[[[88.64521554373222,27.605720465990537],[88.64521747059085,27.605765561652404],[88.64524961101996,27.605764483231873],[88.64525127888585,27.605803517485363],[88.64516557130162,27.60580639858047],[88.6451619763503,27.605722263358793],[88.64521554373222,27.605720465990537]]]}},{"type":"Feature","properties":{"source":"Microsoft Global ML Building Footprints"},"geometry":{"type":"Polygon","coordinates":[[[88.64286432867588,27.604758801821646],[88.64292623857638,27.60477955184566],[88.64289606337243,27.60485025206041],[88.64283415835716,27.604829503687114],[88.64286432867588,27.604758801821646]]]}},{"type":"Feature","properties":{"source":"Microsoft Global ML Building Footprints"},"geometry":{"type":"Polygon","coordinates":[[[88.64675496021735,27.603711956608656],[88.64671097207261,27.603710802562006],[88.64670981438215,27.60374545567506],[88.64660797990562,27.60374277769145],[88.64661266083594,27.60360266347734],[88.64675849168778,27.60360649845679],[88.64675496021735,27.603711956608656]]]}},{"type":"Feature","properties":{"source":"Microsoft Global ML Building Footprints"},"geometry":{"type":"Polygon","coordinates":[[[88.64682585001526,27.602921947774917],[88.64684266486046,27.60286910457932],[88.64682387957285,27.602864409168554],[88.646840698284,27.60281156691149],[88.64698370951265,27.602847312794488],[88.64695007982226,27.602952999181227],[88.64682585001526,27.602921947774917]]]}},{"type":"Feature","properties":{"source":"Microsoft Global ML Building Footprints"},"geometry":{"type":"Polygon","coordinates":[[[88.64799939772567,27.604928622816864],[88.64806752301963,27.60497593699325],[88.64801933985969,27.60503041734821],[88.64795121456572,27.604983103195345],[88.64799939772567,27.604928622816864]]]}},{"type":"Feature","properties":{"source":"Microsoft Global ML Building Footprints"},"geometry":{"type":"Polygon","coordinates":[[[88.64772559052983,27.604041139766267],[88.64771046327486,27.60408714874054],[88.64760168089911,27.604059061384028],[88.64761680815408,27.60401305239798],[88.64772559052983,27.604041139766267]]]}},{"type":"Feature","properties":{"source":"Microsoft Global ML Building Footprints"},"geometry":{"type":"Polygon","coordinates":[[[88.64376147442297,27.604257738951937],[88.64360473245614,27.6044032055199],[88.64354104197605,27.604349312922338],[88.64369777793314,27.60420384119753],[88.64376147442297,27.604257738951937]]]}},{"type":"Feature","properties":{"source":"Microsoft Global ML Building Footprints"},"geometry":{"type":"Polygon","coordinates":[[[88.64412033997957,27.604130671292737],[88.64417672102657,27.60416439854727],[88.64410707215565,27.60425584042494],[88.6440506861474,27.60422211023073],[88.64412033997957,27.604130671292737]]]}},{"type":"Feature","properties":{"source":"Microsoft Global ML Building Footprints"},"geometry":{"type":"Polygon","coordinates":[[[88.64789892353842,27.605057629014482],[88.647943687939,27.605003520732268],[88.64807278425783,27.60508739137147],[88.64802801985725,27.60514149961225],[88.64789892353842,27.605057629014482]]]}},{"type":"Feature","properties":{"source":"Microsoft Global ML Building Footprints"},"geometry":{"type":"Polygon","coordinates":[[[88.64829380661385,27.60514174693146],[88.64836794010188,27.605057480818417],[88.64839901303759,27.60507894777426],[88.64832488368913,27.605163216730652],[88.64829380661385,27.60514174693146]]]}},{"type":"Feature","properties":{"source":"Microsoft Global ML Building Footprints"},"geometry":{"type":"Polygon","coordinates":[[[88.64730117851846,27.603816359970658],[88.64726391014838,27.60385372168468],[88.64722024364097,27.603819518678904],[88.64725751201104,27.60378215695321],[88.64730117851846,27.603816359970658]]]}},{"type":"Feature","properties":{"source":"Microsoft Global ML Building Footprints"},"geometry":{"type":"Polygon","coordinates":[[[88.64686644889156,27.602169872794192],[88.6468306439238,27.602206755010002],[88.64679756539996,27.60218153839999],[88.64683336869365,27.602144654899483],[88.64686644889156,27.602169872794192]]]}},{"type":"Feature","properties":{"source":"Microsoft Global ML Building Footprints"},"geometry":{"type":"Polygon","coordinates":[[[88.64576435294809,27.604770176687225],[88.64574935554913,27.604873042267478],[88.64564910503492,27.604861564403464],[88.64566410243384,27.604758698812454],[88.64576435294809,27.604770176687225]]]}},{"type":"Feature","properties":{"source":"Microsoft Global ML Building Footprints"},"geometry":{"type":"Polygon","coordinates":[[[88.64771910789663,27.604477654452985],[88.64774231508318,27.604402465284387],[88.6478031896576,27.604417220143773],[88.64777997694613,27.604492407963114],[88.64771910789663,27.604477654452985]]]}},{"type":"Feature","properties":{"source":"Microsoft Global ML Building Footprints"},"geometry":{"type":"Polygon","coordinates":[[[88.64759024527172,27.604071337595343],[88.64768004510113,27.604081256993773],[88.6476704976582,27.604149132297138],[88.64758069782879,27.60413921290486],[88.64759024527172,27.604071337595343]]]}}]}