{"type":"FeatureCollection","name":"chungthang_west_rgb_0.5m","source":"Microsoft Global ML Building Footprints","licence":"ODbL 1.0 (c) Microsoft","features":[{"type":"Feature","properties":{"source":"Microsoft Global ML Building Footprints"},"geometry":{"type":"Polygon","coordinates":[[[88.61770647481642,27.627806794077685],[88.61771922051824,27.62772518246964],[88.6177797529776,27.627732599454163],[88.61776700727575,27.627814211056695],[88.61770647481642,27.627806794077685]]]}},{"type":"Feature","properties":{"source":"Microsoft Global ML Building Footprints"},"geometry":{"type":"Polygon","coordinates":[[[88.61699873484827,27.62943253795624],[88.61701571532909,27.62938663780099],[88.61713924106785,27.62942249978679],[88.61712225802827,27.62946840684353],[88.61699873484827,27.62943253795624]]]}},{"type":"Feature","properties":{"source":"Microsoft Global ML Building Footprints"},"geometry":{"type":"Polygon","coordinates":[[[88.6172564777393,27.630097753777584],[88.617277375873,27.62999904437949],[88.61733178791076,27.63000808655378],[88.61731088977706,27.63010679594371],[88.6172564777393,27.630097753777584]]]}},{"type":"Feature","properties":{"source":"Microsoft Global ML Building Footprints"},"geometry":{"type":"Polygon","coordinates":[[[88.61446239251255,27.635980998184102],[88.61455268214712,27.635838031025187],[88.61459636807844,27.635859684402114],[88.61450608704614,27.63600265579651],[88.61446239251255,27.635980998184102]]]}},{"type":"Feature","properties":{"source":"Microsoft Global ML Building Footprints"},"geometry":{"type":"Polygon","coordinates":[[[88.61277303498517,27.63697976938537],[88.61281728411788,27.63695001782581],[88.61289090895355,27.63703595737374],[88.61284665982079,27.637065708909923],[88.61277303498517,27.63697976938537]]]}},{"type":"Feature","properties":{"source":"Microsoft Global ML Building Footprints"},"geometry":{"type":"Polygon","coordinates":[[[88.6174614206935,27.629719702898],[88.61744758687905,27.629766388384375],[88.61733590474327,27.62974041223005],[88.61734973510745,27.62969372593006],[88.6174614206935,27.629719702898]]]}},{"type":"Feature","properties":{"source":"Microsoft Global ML Building Footprints"},"geometry":{"type":"Polygon","coordinates":[[[88.61770874966153,27.629190415596753],[88.61769032944366,27.62923697630182],[88.61758044479217,27.629202860088284],[88.61759886501004,27.629156299368695],[88.61770874966153,27.629190415596753]]]}},{"type":"Feature","properties":{"source":"Microsoft Global ML Building Footprints"},"geometry":{"type":"Polygon","coordinates":[[[88.61177968128148,27.63740178516405],[88.61185968617443,27.63733855294987],[88.61189566146517,27.637374276377273],[88.61181565814364,27.637437507328833],[88.61177968128148,27.63740178516405]]]}},{"type":"Feature","properties":{"source":"Microsoft Global ML Building Footprints"},"geometry":{"type":"Polygon","coordinates":[[[88.6210601912242,27.626671287944596],[88.62102626171668,27.626659489034473],[88.62106456934019,27.626573001390874],[88.62109850476779,27.626584802369024],[88.6210601912242,27.626671287944596]]]}},{"type":"Feature","properties":{"source":"Microsoft Global ML Building Footprints"},"geometry":{"type":"Polygon","coordinates":[[[88.61717757600016,27.63022806408783],[88.6171557391649,27.63027469420328],[88.61705047442065,27.630236007657317],[88.61707231125591,27.630189377525383],[88.61717757600016,27.63022806408783]]]}},{"type":"Feature","properties":{"source":"Microsoft Global ML Building Footprints"},"geometry":{"type":"Polygon","coordinates":[[[88.61868923376687,27.62602789867416],[88.61876425165826,27.626030122248245],[88.61876174196117,27.626096587555274],[88.61868672406979,27.626094363982524],[88.61868923376687,27.62602789867416]]]}},{"type":"Feature","properties":{"source":"Microsoft Global ML Building Footprints"},"geometry":{"type":"Polygon","coordinates":[[[88.61076609362122,27.637534394167396],[88.61086815647111,27.637485894753894],[88.61089497079848,27.63753018087081],[88.61079290794859,27.63757868026468],[88.61076609362122,27.637534394167396]]]}},{"type":"Feature","properties":{"source":"Microsoft Global ML Building Footprints"},"geometry":{"type":"Polygon","coordinates":[[[88.61210378712767,27.636995953687887],[88.612106093509,27.637061118206915],[88.61197747420867,27.6370646989038],[88.61197516754537,27.63699952641992],[88.61210378712767,27.636995953687887]]]}},{"type":"Feature","properties":{"source":"Microsoft Global ML Building Footprints"},"geometry":{"type":"Polygon","coordinates":[[[88.61816940395585,27.62475325764521],[88.61812580105975,27.624756458978936],[88.61812071954961,27.624702173791214],[88.61816432670463,27.624698972143186],[88.61816940395585,27.62475325764521]]]}},{"type":"Feature","properties":{"source":"Microsoft Global ML Building Footprints"},"geometry":{"type":"Polygon","coordinates":[[[88.62137690628914,27.62746966078533],[88.62140208146232,27.627413095268302],[88.62146243480709,27.62743418016658],[88.62143725819246,27.627490748911498],[88.62137690628914,27.62746966078533]]]}},{"type":"Feature","properties":{"source":"Microsoft Global ML Building Footprints"},"geometry":{"type":"Polygon","coordinates":[[[88.61592560944138,27.633237678851863],[88.61592414004812,27.63330894290751],[88.61587319507645,27.633308118443296],[88.61587466446973,27.633236854387143],[88.61592560944138,27.633237678851863]]]}},{"type":"Feature","properties":{"source":"Microsoft Global ML Building Footprints"},"geometry":{"type":"Polygon","coordinates":[[[88.61167114790351,27.638587558270608],[88.61173307096718,27.63859846979709],[88.61172332000602,27.63864189832713],[88.61166139694235,27.638630986804984],[88.61167114790351,27.638587558270608]]]}},{"type":"Feature","properties":{"source":"Microsoft Global ML Building Footprints"},"geometry":{"type":"Polygon","coordinates":[[[88.61828561890674,27.625364253270064],[88.61832601714721,27.625443052500138],[88.61824597260886,27.625475265970856],[88.61820557436839,27.625396466763974],[88.61828561890674,27.625364253270064]]]}},{"type":"Feature","properties":{"source":"Microsoft Global ML Building Footprints"},"geometry":{"type":"Polygon","coordinates":[[[88.61841557306718,27.624415474656338],[88.61842305379325,27.624352002508303],[88.61847776508036,27.624357064381435],[88.6184702893141,27.624420536985397],[88.61841557306718,27.624415474656338]]]}},{"type":"Feature","properties":{"source":"Microsoft Global ML Building Footprints"},"geometry":{"type":"Polygon","coordinates":[[[88.61053487540937,27.637434532489195],[88.61059071338573,27.637343942462564],[88.61067542515318,27.63738492167117],[88.61061958967073,27.637475507617765],[88.61053487540937,27.637434532489195]]]}},{"type":"Feature","properties":{"source":"Microsoft Global ML Building Footprints"},"geometry":{"type":"Polygon","coordinates":[[[88.6210706684154,27.628373388562657],[88.62107920724767,27.62834193922867],[88.62114259456412,27.62835544848842],[88.62113405573183,27.62838689781853],[88.6210706684154,27.628373388562657]]]}},{"type":"Feature","properties":{"source":"Microsoft Global ML Building Footprints"},"geometry":{"type":"Polygon","coordinates":[[[88.61187673080732,27.637002744329116],[88.6118790153189,27.637071594041373],[88.61174121117469,27.63707518265418],[88.61173893209777,27.637006332802663],[88.61187673080732,27.637002744329116]]]}},{"type":"Feature","properties":{"source":"Microsoft Global ML Building Footprints"},"geometry":{"type":"Polygon","coordinates":[[[88.61677699772781,27.63005083687778],[88.61688805720601,27.63007982903745],[88.61685097882393,27.630191342498975],[88.61673991934576,27.630162350368835],[88.61677699772781,27.63005083687778]]]}},{"type":"Feature","properties":{"source":"Microsoft Global ML Building Footprints"},"geometry":{"type":"Polygon","coordinates":[[[88.6169000759411,27.63097894225824],[88.61694748831353,27.630873575403328],[88.61706089344342,27.630913629066185],[88.61701347834078,27.63101900194998],[88.6169000759411,27.63097894225824]]]}},{"type":"Feature","properties":{"source":"Microsoft Global ML Building Footprints"},"geometry":{"type":"Polygon","coordinates":[[[88.6255371659728,27.625368506621754],[88.62565918016232,27.625388201166473],[88.62564659230767,27.625449419529374],[88.62552457962393,27.625429717672723],[88.6255371659728,27.625368506621754]]]}},{"type":"Feature","properties":{"source":"Microsoft Global ML Building Footprints"},"geometry":{"type":"Polygon","coordinates":[[[88.6171291317228,27.630749190133315],[88.61701670462713,27.63072697970481],[88.61702832246938,27.630680820013445],[88.61714075123656,27.630703023810163],[88.6171291317228,27.630749190133315]]]}},{"type":"Feature","properties":{"source":"Microsoft Global ML Building Footprints"},"geometry":{"type":"Polygon","coordinates":[[[88.61712446008053,27.629059982412336],[88.61731344414997,27.629141109558596],[88.61728544452372,27.6291923068747],[88.61709645526386,27.629111189257074],[88.61712446008053,27.629059982412336]]]}},{"type":"Feature","properties":{"source":"Microsoft Global ML Building Footprints"},"geometry":{"type":"Polygon","coordinates":[[[88.61659207092038,27.62967341977948],[88.61655476943352,27.629749333956738],[88.61646568223354,27.629714974217507],[88.61650297867867,27.62963905807191],[88.61659207092038,27.62967341977948]]]}},{"type":"Feature","properties":{"source":"Microsoft Global ML Building Footprints"},"geometry":{"type":"Polygon","coordinates":[[[88.61245429713306,27.63678442661287],[88.61233044818444,27.636794801033034],[88.61232290712833,27.63672414715822],[88.61244676160936,27.63671377226793],[88.61245429713306,27.63678442661287]]]}},{"type":"Feature","properties":{"source":"Microsoft Global ML Building Footprints"},"geometry":{"type":"Polygon","coordinates":[[[88.6167446184065,27.630587750654605],[88.61673072231011,27.630629247298344],[88.61661239404992,27.630598137657074],[88.61662629014627,27.630556641001533],[88.6167446184065,27.630587750654605]]]}},{"type":"Feature","properties":{"source":"Microsoft Global ML Building Footprints"},"geometry":{"type":"Polygon","coordinates":[[[88.61420521645714,27.635804163177042],[88.6142634789662,27.63586040377953],[88.61416738884438,27.63593853066245],[88.61410912968549,27.635882293334035],[88.61420521645714,27.635804163177042]]]}},{"type":"Feature","properties":{"source":"Microsoft Global ML Building Footprints"},"geometry":{"type":"Polygon","coordinates":[[[88.61815349570956,27.62778667261827],[88.618148031081,27.627825082381243],[88.618055622815,27.627814756732192],[88.61806108664109,27.627776352606077],[88.61815349570956,27.62778667261827]]]}},{"type":"Feature","properties":{"source":"Microsoft Global ML Building Footprints"},"geometry":{"type":"Polygon","coordinates":[[[88.61508421853435,27.63594998340676],[88.61517660388752,27.635821547693155],[88.61525672192691,27.635866778066735],[88.61516433657374,27.63599521372724],[88.61508421853435,27.63594998340676]]]}},{"type":"Feature","properties":{"source":"Microsoft Global ML Building Footprints"},"geometry":{"type":"Polygon","coordinates":[[[88.61813430401396,27.62816406833911],[88.61809532622765,27.628279702876654],[88.61801406113419,27.62825820098581],[88.61805303892052,27.628142566425552],[88.61813430401396,27.62816406833911]]]}},{"type":"Feature","properties":{"source":"Microsoft Global ML Building Footprints"},"geometry":{"type":"Polygon","coordinates":[[[88.62062571487071,27.628380560671303],[88.6205787178619,27.62837895203144],[88.62058259967934,27.628289931820255],[88.62062960358274,27.628291543612058],[88.62062571487071,27.628380560671303]]]}},{"type":"Feature","properties":{"source":"Microsoft Global ML Building Footprints"},"geometry":{"type":"Polygon","coordinates":[[[88.61710205038104,27.628789684886748],[88.61699485753296,27.628786846695917],[88.6169988525072,27.628668134478822],[88.61710604535523,27.62867097267275],[88.61710205038104,27.628789684886748]]]}},{"type":"Feature","properties":{"source":"Microsoft Global ML Building Footprints"},"geometry":{"type":"Polygon","coordinates":[[[88.61293326571793,27.637640017983742],[88.61292867958313,27.637711070634197],[88.61283243474551,27.63770619521444],[88.61283702088026,27.637635142560832],[88.61293326571793,27.637640017983742]]]}},{"type":"Feature","properties":{"source":"Microsoft Global ML Building Footprints"},"geometry":{"type":"Polygon","coordinates":[[[88.61747195366092,27.628826069874698],[88.6175327878124,27.628852173525914],[88.61750164858876,27.62890914466159],[88.6174408127671,27.628883044079615],[88.61747195366092,27.628826069874698]]]}},{"type":"Feature","properties":{"source":"Microsoft Global ML Building Footprints"},"geometry":{"type":"Polygon","coordinates":[[[88.62058009435422,27.627735867518744],[88.62048502069156,27.62782487903614],[88.62041426937763,27.62776555985156],[88.6205093430403,27.627676548285933],[88.62058009435422,27.627735867518744]]]}},{"type":"Feature","properties":{"source":"Microsoft Global ML Building Footprints"},"geometry":{"type":"Polygon","coordinates":[[[88.61261937783016,27.637468881852463],[88.61256555519893,27.637495739396925],[88.61250591532557,27.637401938893127],[88.61255973233135,27.637375084132756],[88.61261937783016,27.637468881852463]]]}},{"type":"Feature","properties":{"source":"Microsoft Global ML Building Footprints"},"geometry":{"type":"Polygon","coordinates":[[[88.61768414838676,27.628529569370677],[88.61761898842477,27.628688193402226],[88.61754793361985,27.628665282344045],[88.61761309517999,27.628506654388744],[88.61768414838676,27.628529569370677]]]}},{"type":"Feature","properties":{"source":"Microsoft Global ML Building Footprints"},"geometry":{"type":"Polygon","coordinates":[[[88.61670324941707,27.630291479820748],[88.61672267299325,27.630234930863693],[88.61683559941922,27.630265369650132],[88.61681617584304,27.63032191859147],[88.61670324941707,27.630291479820748]]]}},{"type":"Feature","properties":{"source":"Microsoft Global ML Building Footprints"},"geometry":{"type":"Polygon","coordinates":[[[88.6161382309096,27.6305038261317],[88.6159935810125,27.630499188996232],[88.61599862120141,27.630375781789823],[88.61614327109851,27.630380418930528],[88.6161382309096,27.6305038261317]]]}},{"type":"Feature","properties":{"source":"Microsoft Global ML Building Footprints"},"geometry":{"type":"Polygon","coordinates":[[[88.61774759982238,27.62973866427683],[88.6177285687507,27.62978200854142],[88.6176214033282,27.6297450753137],[88.61764043439985,27.629701731034487],[88.61774759982238,27.62973866427683]]]}},{"type":"Feature","properties":{"source":"Microsoft Global ML Building Footprints"},"geometry":{"type":"Polygon","coordinates":[[[88.61703879192453,27.630317903297843],[88.61714799649971,27.630338109349253],[88.6171340362986,27.630397310734203],[88.6170248362047,27.630377105522896],[88.61703879192453,27.630317903297843]]]}},{"type":"Feature","properties":{"source":"Microsoft Global ML Building Footprints"},"geometry":{"type":"Polygon","coordinates":[[[88.61670263790047,27.629951512767107],[88.61672772596414,27.629885308842745],[88.61690248226748,27.62993729000941],[88.6168773989041,27.630003495300414],[88.61670263790047,27.629951512767107]]]}},{"type":"Feature","properties":{"source":"Microsoft Global ML Building Footprints"},"geometry":{"type":"Polygon","coordinates":[[[88.61705495222579,27.630584046935958],[88.61705712255318,27.630530907311275],[88.61717628316192,27.630534727319016],[88.61717410834015,27.630587874186297],[88.61705495222579,27.630584046935958]]]}},{"type":"Feature","properties":{"source":"Microsoft Global ML Building Footprints"},"geometry":{"type":"Polygon","coordinates":[[[88.61808187958937,27.628047455328577],[88.61809692084033,27.627935977103668],[88.61818566876511,27.627945381946503],[88.61817061956441,27.62805685381673],[88.61808187958937,27.628047455328577]]]}},{"type":"Feature","properties":{"source":"Microsoft Global ML Building Footprints"},"geometry":{"type":"Polygon","coordinates":[[[88.61650912462862,27.634844168256087],[88.61650866590873,27.634875053884883],[88.61641921178932,27.634874016677244],[88.61641966806967,27.634843131019842],[88.61650912462862,27.634844168256087]]]}},{"type":"Feature","properties":{"source":"Microsoft Global ML Building Footprints"},"geometry":{"type":"Polygon","coordinates":[[[88.61222411337492,27.63723851661937],[88.61218527355379,27.63726784361066],[88.61215481778433,27.637236187991377],[88.61219365760545,27.63720686099159],[88.61222411337492,27.63723851661937]]]}},{"type":"Feature","properties":{"source":"Microsoft Global ML Building Footprints"},"geometry":{"type":"Polygon","coordinates":[[[88.61265934864474,27.636652747006792],[88.61268707097545,27.636714222955426],[88.61255658337708,27.63676039652792],[88.61252886523486,27.636698919123106],[88.61265934864474,27.636652747006792]]]}},{"type":"Feature","properties":{"source":"Microsoft Global ML Building Footprints"},"geometry":{"type":"Polygon","coordinates":[[[88.6146487895237,27.63533528058006],[88.61470154249929,27.63536915414206],[88.61462252232256,27.63546573931088],[88.61456976934693,27.63543186577879],[88.6146487895237,27.63533528058006]]]}},{"type":"Feature","properties":{"source":"Microsoft Global ML Building Footprints"},"geometry":{"type":"Polygon","coordinates":[[[88.62136192789298,27.62727905323632],[88.62132527394694,27.627365459069054],[88.62129372947494,27.627354955155866],[88.62133039012873,27.627268549592813],[88.62136192789298,27.62727905323632]]]}},{"type":"Feature","properties":{"source":"Microsoft Global ML Building Footprints"},"geometry":{"type":"Polygon","coordinates":[[[88.61215615060966,27.637439729950522],[88.61207729796656,27.63751560775033],[88.6120331176809,27.637479572070305],[88.61211197356836,27.637403696891766],[88.61215615060966,27.637439729950522]]]}},{"type":"Feature","properties":{"source":"Microsoft Global ML Building Footprints"},"geometry":{"type":"Polygon","coordinates":[[[88.61638728835335,27.63237248818988],[88.61641905519627,27.632265854532065],[88.6165279644572,27.632291320219544],[88.61649618973902,27.632397952011097],[88.61638728835335,27.63237248818988]]]}},{"type":"Feature","properties":{"source":"Microsoft Global ML Building Footprints"},"geometry":{"type":"Polygon","coordinates":[[[88.61680788320122,27.630361066550677],[88.61679394376469,27.63041024527284],[88.61667535613103,27.630383869067998],[88.61668929556755,27.630334690333996],[88.61680788320122,27.630361066550677]]]}},{"type":"Feature","properties":{"source":"Microsoft Global ML Building Footprints"},"geometry":{"type":"Polygon","coordinates":[[[88.6181990512957,27.62483728293909],[88.61815344169725,27.6248450606628],[88.61813829871573,27.62477535223742],[88.61818390241187,27.624767572687375],[88.6181990512957,27.62483728293909]]]}},{"type":"Feature","properties":{"source":"Microsoft Global ML Building Footprints"},"geometry":{"type":"Polygon","coordinates":[[[88.62158401721611,27.62721946969897],[88.6216334793951,27.627227100633718],[88.62161942667903,27.627298600748908],[88.62156996450004,27.627290969819143],[88.62158401721611,27.62721946969897]]]}},{"type":"Feature","properties":{"source":"Microsoft Global ML Building Footprints"},"geometry":{"type":"Polygon","coordinates":[[[88.6164358278172,27.631151021497608],[88.61647149196568,27.631039688823613],[88.61653486660774,27.63105562357618],[88.61652289316753,27.631093010258482],[88.61656873585393,27.631104536817027],[88.61654504988675,27.63117847720431],[88.6164358278172,27.631151021497608]]]}},{"type":"Feature","properties":{"source":"Microsoft Global ML Building Footprints"},"geometry":{"type":"Polygon","coordinates":[[[88.61754292743798,27.62929876519106],[88.61765344888501,27.62932197692576],[88.6176377970178,27.62938047472364],[88.61752727994616,27.629357263920276],[88.61754292743798,27.62929876519106]]]}},{"type":"Feature","properties":{"source":"Microsoft Global ML Building Footprints"},"geometry":{"type":"Polygon","coordinates":[[[88.61751101585004,27.630042688983416],[88.61763138243039,27.63006589334004],[88.61761991001745,27.63011261942473],[88.6174995416874,27.63008942220442],[88.61751101585004,27.630042688983416]]]}},{"type":"Feature","properties":{"source":"Microsoft Global ML Building Footprints"},"geometry":{"type":"Polygon","coordinates":[[[88.61079193288543,27.637252157045765],[88.61087623115584,27.63732210682158],[88.61082339357672,27.63737208480353],[88.61073909236264,27.637302137843967],[88.61079193288543,27.637252157045765]]]}},{"type":"Feature","properties":{"source":"Microsoft Global ML Building Footprints"},"geometry":{"type":"Polygon","coordinates":[[[88.62086154800261,27.628399941378404],[88.62085750342195,27.6283288309198],[88.62096184461498,27.62832417250629],[88.62096804630535,27.62843320852855],[88.62090651175558,27.628435955795354],[88.62090435464592,27.628398030235644],[88.62086154800261,27.628399941378404]]]}},{"type":"Feature","properties":{"source":"Microsoft Global ML Building Footprints"},"geometry":{"type":"Polygon","coordinates":[[[88.6176516748547,27.627954596598244],[88.61772807641309,27.627963702161182],[88.61771425505343,27.628054733571005],[88.61763785349507,27.628045628015656],[88.6176516748547,27.627954596598244]]]}},{"type":"Feature","properties":{"source":"Microsoft Global ML Building Footprints"},"geometry":{"type":"Polygon","coordinates":[[[88.61649834273425,27.63101228866917],[88.6165116227265,27.63089465062494],[88.61658723814952,27.630901355427042],[88.6165739489562,27.631018992648222],[88.61649834273425,27.63101228866917]]]}},{"type":"Feature","properties":{"source":"Microsoft Global ML Building Footprints"},"geometry":{"type":"Polygon","coordinates":[[[88.61768837918935,27.62990196664746],[88.61766249203565,27.629962138435992],[88.6175547617179,27.629925758753643],[88.6175806488716,27.6298655869451],[88.61768837918935,27.62990196664746]]]}},{"type":"Feature","properties":{"source":"Microsoft Global ML Building Footprints"},"geometry":{"type":"Polygon","coordinates":[[[88.61836117255828,27.625248507064924],[88.61842755756616,27.625216673884026],[88.61846637420088,27.625280217907054],[88.61839999113786,27.62531205425332],[88.61836117255828,27.625248507064924]]]}},{"type":"Feature","properties":{"source":"Microsoft Global ML Building Footprints"},"geometry":{"type":"Polygon","coordinates":[[[88.61653536689363,27.630836489352],[88.61656990786099,27.63072103186854],[88.61670022772952,27.630751633608398],[88.61666568676212,27.6308670910596],[88.61653536689363,27.630836489352]]]}},{"type":"Feature","properties":{"source":"Microsoft Global ML Building Footprints"},"geometry":{"type":"Polygon","coordinates":[[[88.61363408531456,27.63622729565951],[88.61374232291469,27.63629752104587],[88.61370320795832,27.636344832306378],[88.61359497396944,27.636274602582418],[88.61363408531456,27.63622729565951]]]}},{"type":"Feature","properties":{"source":"Microsoft Global ML Building Footprints"},"geometry":{"type":"Polygon","coordinates":[[[88.61802596840673,27.628503859241825],[88.61801271976643,27.6285583641519],[88.61788199008893,27.628533421044438],[88.61789523872925,27.628478916121928],[88.61802596840673,27.628503859241825]]]}},{"type":"Feature","properties":{"source":"Microsoft Global ML Building Footprints"},"geometry":{"type":"Polygon","coordinates":[[[88.61751501123511,27.62961434706566],[88.61749832667573,27.62965939911639],[88.61738693900652,27.629627012776645],[88.61740362356586,27.629581960712585],[88.61751501123511,27.62961434706566]]]}},{"type":"Feature","properties":{"source":"Microsoft Global ML Building Footprints"},"geometry":{"type":"Polygon","coordinates":[[[88.61736031948007,27.629039530943444],[88.61732239989435,27.629095352934215],[88.61720032431678,27.629030253972793],[88.61723824390253,27.628974431948834],[88.61736031948007,27.629039530943444]]]}},{"type":"Feature","properties":{"source":"Microsoft Global ML Building Footprints"},"geometry":{"type":"Polygon","coordinates":[[[88.61231629391551,27.637559732160227],[88.61225501055218,27.637604576869876],[88.61217336246617,27.63751700125806],[88.6122346417168,27.637472159522034],[88.61231629391551,27.637559732160227]]]}},{"type":"Feature","properties":{"source":"Microsoft Global ML Building Footprints"},"geometry":{"type":"Polygon","coordinates":[[[88.61792706401589,27.62871250396936],[88.61790565496847,27.628759505684563],[88.61779724626022,27.62872074540428],[88.61781865530763,27.628673743672422],[88.61792706401589,27.62871250396936]]]}},{"type":"Feature","properties":{"source":"Microsoft Global ML Building Footprints"},"geometry":{"type":"Polygon","coordinates":[[[88.61590195056144,27.630815375546284],[88.61603235969594,27.630799623504174],[88.61605282350082,27.630932601561064],[88.61592240405285,27.630948354829783],[88.61590195056144,27.630815375546284]]]}},{"type":"Feature","properties":{"source":"Microsoft Global ML Building Footprints"},"geometry":{"type":"Polygon","coordinates":[[[88.6170503614734,27.629284411189005],[88.61708035851314,27.629234361977666],[88.61719334064144,27.629287514743766],[88.6171633436017,27.629337563930797],[88.6170503614734,27.629284411189005]]]}},{"type":"Feature","properties":{"source":"Microsoft Global ML Building Footprints"},"geometry":{"type":"Polygon","coordinates":[[[88.61747825654854,27.62948151731183],[88.61748530176719,27.6294421080733],[88.61759519772872,27.629457529039044],[88.61758317941454,27.6295247565456],[88.61752038172224,27.629515944570834],[88.61752535481774,27.629488126295044],[88.61747825654854,27.62948151731183]]]}},{"type":"Feature","properties":{"source":"Microsoft Global ML Building Footprints"},"geometry":{"type":"Polygon","coordinates":[[[88.61772737583173,27.629511046770446],[88.61783276922895,27.62954165107699],[88.61781563131454,27.629587976727223],[88.61771023903931,27.629557379294553],[88.61772737583173,27.629511046770446]]]}},{"type":"Feature","properties":{"source":"Microsoft Global ML Building Footprints"},"geometry":{"type":"Polygon","coordinates":[[[88.61149910126673,27.63721886436214],[88.61156245337608,27.63718749112863],[88.6116481320807,27.63732327444179],[88.61147442468415,27.63740929769577],[88.61139331551045,27.6372807562646],[88.61134426871611,27.637305045199668],[88.61130314293789,27.637239869219513],[88.6112765759243,27.637253025731596],[88.61111892710774,27.63700318414478],[88.61130489620285,27.636911088316744],[88.61149910126673,27.63721886436214]]]}},{"type":"Feature","properties":{"source":"Microsoft Global ML Building Footprints"},"geometry":{"type":"Polygon","coordinates":[[[88.61634401875233,27.632416954043265],[88.61645517414222,27.632461705724197],[88.61639998785152,27.632569293221614],[88.61628882953138,27.6325245472974],[88.61634401875233,27.632416954043265]]]}},{"type":"Feature","properties":{"source":"Microsoft Global ML Building Footprints"},"geometry":{"type":"Polygon","coordinates":[[[88.61434126152963,27.635648162758756],[88.61439967495596,27.635675823009116],[88.61434280587956,27.63577008067051],[88.61428439245321,27.635742420443982],[88.61434126152963,27.635648162758756]]]}},{"type":"Feature","properties":{"source":"Microsoft Global ML Building Footprints"},"geometry":{"type":"Polygon","coordinates":[[[88.61279326740882,27.63737932195655],[88.61274976909591,27.637396841880367],[88.61270486400606,27.637309342221535],[88.61274836919475,27.637291822211765],[88.61279326740882,27.63737932195655]]]}},{"type":"Feature","properties":{"source":"Microsoft Global ML Building Footprints"},"geometry":{"type":"Polygon","coordinates":[[[88.61599637781609,27.633014892481988],[88.61611658745981,27.632847328763475],[88.61617772273334,27.63288175244154],[88.61605751308961,27.633049316107346],[88.61599637781609,27.633014892481988]]]}},{"type":"Feature","properties":{"source":"Microsoft Global ML Building Footprints"},"geometry":{"type":"Polygon","coordinates":[[[88.62097008916987,27.626732811661654],[88.62108972858891,27.626678298720236],[88.62122992162537,27.626919787457282],[88.62111027052583,27.62697431302002],[88.62097008916987,27.626732811661654]]]}},{"type":"Feature","properties":{"source":"Microsoft Global ML Building Footprints"},"geometry":{"type":"Polygon","coordinates":[[[88.6168250536745,27.63110516244455],[88.61693292992425,27.631130293209182],[88.616902585076,27.631232534205424],[88.61679470882628,27.63120740346426],[88.6168250536745,27.63110516244455]]]}},{"type":"Feature","properties":{"source":"Microsoft Global ML Building Footprints"},"geometry":{"type":"Polygon","coordinates":[[[88.6183583434192,27.625677418362827],[88.61835929665716,27.6256479143412],[88.61844873336725,27.62565017709],[88.61844778227943,27.625679686711493],[88.6183583434192,27.625677418362827]]]}},{"type":"Feature","properties":{"source":"Microsoft Global ML Building Footprints"},"geometry":{"type":"Polygon","coordinates":[[[88.6215994674586,27.62834423959604],[88.62154797628686,27.628496961248963],[88.62149133806619,27.628481975400398],[88.62154282923792,27.62832925372657],[88.6215994674586,27.62834423959604]]]}},{"type":"Feature","properties":{"source":"Microsoft Global ML Building Footprints"},"geometry":{"type":"Polygon","coordinates":[[[88.61686259060372,27.629755983060022],[88.6169665216466,27.629772532539654],[88.61694410605998,27.62988302731894],[88.61684017501709,27.629866477856005],[88.61686259060372,27.629755983060022]]]}},{"type":"Feature","properties":{"source":"Microsoft Global ML Building Footprints"},"geometry":{"type":"Polygon","coordinates":[[[88.61693153900414,27.62956589987906],[88.61705061172898,27.629578230176804],[88.61704287985413,27.629636838040106],[88.61692380712928,27.629624507748964],[88.61693153900414,27.62956589987906]]]}},{"type":"Feature","properties":{"source":"Microsoft Global ML Building Footprints"},"geometry":{"type":"Polygon","coordinates":[[[88.61344886871615,27.636336295496037],[88.61354261306678,27.636423887132878],[88.61349458951325,27.636464225187957],[88.6134008451626,27.63637663358341],[88.61344886871615,27.636336295496037]]]}},{"type":"Feature","properties":{"source":"Microsoft Global ML Building Footprints"},"geometry":{"type":"Polygon","coordinates":[[[88.61742932531602,27.62983881432931],[88.61740535399359,27.629883340225568],[88.61730046957472,27.6298390181092],[88.61732444089716,27.62979449219491],[88.61742932531602,27.62983881432931]]]}},{"type":"Feature","properties":{"source":"Microsoft Global ML Building Footprints"},"geometry":{"type":"Polygon","coordinates":[[[88.61302710794739,27.636842544376385],[88.61301627462511,27.636945183712605],[88.61296043680203,27.636940554837786],[88.61297126976208,27.63683791892936],[88.61302710794739,27.636842544376385]]]}},{"type":"Feature","properties":{"source":"Microsoft Global ML Building Footprints"},"geometry":{"type":"Polygon","coordinates":[[[88.61786443306354,27.62884910791336],[88.61784237789509,27.62889434294771],[88.61773161742853,27.62885195345028],[88.61775367541897,27.628806712610576],[88.61786443306354,27.62884910791336]]]}}]}