{"type":"FeatureCollection","name":"swissimage_2021_2621-1202_2m","source":"Microsoft Global ML Building Footprints","licence":"ODbL 1.0 (c) Microsoft","features":[{"type":"Feature","properties":{"source":"Microsoft Global ML Building Footprints"},"geometry":{"type":"Polygon","coordinates":[[[7.721841739534416,46.97240911418378],[7.72173340432929,46.97248868963803],[7.721690211844101,46.97246131093927],[7.7216688122973665,46.972477029541565],[7.721587654605719,46.97242558557013],[7.721717384110738,46.97233028805534],[7.721841739534416,46.97240911418378]]]}},{"type":"Feature","properties":{"source":"Microsoft Global ML Building Footprints"},"geometry":{"type":"Polygon","coordinates":[[[7.720999935424957,46.9715760068048],[7.720998251969662,46.97164736751423],[7.7208228830341685,46.97164544959465],[7.720824559171957,46.97157408880264],[7.720999935424957,46.9715760068048]]]}},{"type":"Feature","properties":{"source":"Microsoft Global ML Building Footprints"},"geometry":{"type":"Polygon","coordinates":[[[7.7284000713927625,46.973196824669515],[7.728429573195643,46.97323057114865],[7.728390007619268,46.97324667535401],[7.728360505816387,46.973212928885026],[7.7284000713927625,46.973196824669515]]]}},{"type":"Feature","properties":{"source":"Microsoft Global ML Building Footprints"},"geometry":{"type":"Polygon","coordinates":[[[7.726169009345654,46.968546319426636],[7.726431883804934,46.96857766918691],[7.726408686138706,46.968668249836426],[7.726476356791547,46.968676320055124],[7.726445881426116,46.96879531791223],[7.7261908151191205,46.968764899457014],[7.72619581853736,46.96874536250245],[7.726069559102013,46.96873030516281],[7.7261013866625605,46.968605977410476],[7.726152179666244,46.96861203485362],[7.726169009345654,46.968546319426636]]]}},{"type":"Feature","properties":{"source":"Microsoft Global ML Building Footprints"},"geometry":{"type":"Polygon","coordinates":[[[7.724918790239252,46.973916870196724],[7.724947184207509,46.97395545095148],[7.724875219034888,46.973980109509135],[7.724846823926583,46.97394153259961],[7.724918790239252,46.973916870196724]]]}},{"type":"Feature","properties":{"source":"Microsoft Global ML Building Footprints"},"geometry":{"type":"Polygon","coordinates":[[[7.7171166949484205,46.97348176606459],[7.717068583354552,46.973540185623406],[7.717144007806316,46.973569105761875],[7.717087280697905,46.973637986600004],[7.716975159918245,46.97359500132408],[7.716944831303385,46.97363182780938],[7.716785828405057,46.973570861084184],[7.716920999073595,46.97340672987471],[7.7171166949484205,46.97348176606459]]]}},{"type":"Feature","properties":{"source":"Microsoft Global ML Building Footprints"},"geometry":{"type":"Polygon","coordinates":[[[7.727445714209362,46.97671929522955],[7.727527850800731,46.97668225720095],[7.727600073319176,46.97675680942059],[7.727517939372213,46.97679385012727],[7.727445714209362,46.97671929522955]]]}},{"type":"Feature","properties":{"source":"Microsoft Global ML Building Footprints"},"geometry":{"type":"Polygon","coordinates":[[[7.725177545693636,46.97450311393536],[7.725301234577211,46.97442462478039],[7.725425629697615,46.974515890129815],[7.72530194081404,46.97459437915083],[7.725177545693636,46.97450311393536]]]}},{"type":"Feature","properties":{"source":"Microsoft Global ML Building Footprints"},"geometry":{"type":"Polygon","coordinates":[[[7.720029419415719,46.97230796685789],[7.719940637321283,46.97231984723813],[7.719919862695623,46.97224758855192],[7.7200086519271505,46.97223570720057],[7.720029419415719,46.97230796685789]]]}},{"type":"Feature","properties":{"source":"Microsoft Global ML Building Footprints"},"geometry":{"type":"Polygon","coordinates":[[[7.72075220680462,46.971649353326],[7.720734565288092,46.97196552345493],[7.720501551506742,46.971959458636725],[7.72051919302327,46.97164328847193],[7.72075220680462,46.971649353326]]]}},{"type":"Feature","properties":{"source":"Microsoft Global ML Building Footprints"},"geometry":{"type":"Polygon","coordinates":[[[7.727731735001013,46.96689126602496],[7.72777794928849,46.96680803560512],[7.727869421823437,46.96683168883217],[7.727823207536,46.96691491921519],[7.727731735001013,46.96689126602496]]]}},{"type":"Feature","properties":{"source":"Microsoft Global ML Building Footprints"},"geometry":{"type":"Polygon","coordinates":[[[7.713637359614376,46.968652845375],[7.713738262710934,46.96881373084166],[7.713577307706689,46.96886073821665],[7.713519094381769,46.968767919818816],[7.7134601531125835,46.968785133806676],[7.713441346546679,46.96875514760053],[7.713488951751177,46.96874124206596],[7.71346506975068,46.9687031632783],[7.713637359614376,46.968652845375]]]}},{"type":"Feature","properties":{"source":"Microsoft Global ML Building Footprints"},"geometry":{"type":"Polygon","coordinates":[[[7.7171620325173995,46.974104235388815],[7.717199556671943,46.97396433949779],[7.717586252815769,46.97401263033776],[7.7175482536719375,46.97415429693256],[7.71741329931301,46.974137443803116],[7.717400949591284,46.97418348538014],[7.717280037387875,46.97416838584658],[7.717292857353524,46.97412057283278],[7.7171620325173995,46.974104235388815]]]}},{"type":"Feature","properties":{"source":"Microsoft Global ML Building Footprints"},"geometry":{"type":"Polygon","coordinates":[[[7.713412264778485,46.97057597539569],[7.713440235882718,46.9707354555596],[7.713276287243134,46.97074884472525],[7.713262558795715,46.97067057063139],[7.713170007908601,46.9706781333986],[7.713155766605704,46.97059693509927],[7.713412264778485,46.97057597539569]]]}},{"type":"Feature","properties":{"source":"Microsoft Global ML Building Footprints"},"geometry":{"type":"Polygon","coordinates":[[[7.720642718604993,46.969542898157115],[7.7205586054093445,46.969622104116524],[7.7204653960875635,46.969576012029044],[7.720549509283212,46.96949680600138],[7.720642718604993,46.969542898157115]]]}},{"type":"Feature","properties":{"source":"Microsoft Global ML Building Footprints"},"geometry":{"type":"Polygon","coordinates":[[[7.721516870800302,46.972358548437285],[7.721586408370884,46.972356004626796],[7.721592287152785,46.97243082806184],[7.721522749582244,46.97243337186878],[7.721516870800302,46.972358548437285]]]}},{"type":"Feature","properties":{"source":"Microsoft Global ML Building Footprints"},"geometry":{"type":"Polygon","coordinates":[[[7.71770657380618,46.97373957651927],[7.717724136225059,46.9737178178163],[7.717787933830498,46.973741792299236],[7.7177511019583855,46.97378742457985],[7.717641219983147,46.973746126846514],[7.717660489428186,46.97372225628431],[7.71770657380618,46.97373957651927]]]}},{"type":"Feature","properties":{"source":"Microsoft Global ML Building Footprints"},"geometry":{"type":"Polygon","coordinates":[[[7.718188150413172,46.9730670251161],[7.718152462976886,46.9731138588078],[7.718250372220279,46.97314859516241],[7.718165308144576,46.97326024208781],[7.718091404821235,46.973234026167454],[7.718071091747332,46.97326068713339],[7.71779237862559,46.973161805117705],[7.717891720429733,46.973031418356165],[7.7179550661354535,46.97305388923096],[7.717996779956571,46.972999139498754],[7.718188150413172,46.9730670251161]]]}},{"type":"Feature","properties":{"source":"Microsoft Global ML Building Footprints"},"geometry":{"type":"Polygon","coordinates":[[[7.72830073895129,46.973429964599184],[7.7285839095877495,46.97339515615106],[7.728592333839286,46.97342706370994],[7.728563756986042,46.97343057648804],[7.728572649251566,46.973464256666226],[7.728318055468311,46.97349555229577],[7.72830073895129,46.973429964599184]]]}},{"type":"Feature","properties":{"source":"Microsoft Global ML Building Footprints"},"geometry":{"type":"Polygon","coordinates":[[[7.71745084216144,46.97695795758257],[7.717418758453749,46.97701974558445],[7.7173389683367954,46.97700046216162],[7.717371046412951,46.976938672776456],[7.71745084216144,46.97695795758257]]]}},{"type":"Feature","properties":{"source":"Microsoft Global ML Building Footprints"},"geometry":{"type":"Polygon","coordinates":[[[7.717510427483676,46.97359144647425],[7.717485472494041,46.973627277299144],[7.7173817859412575,46.973593650737584],[7.717406743928894,46.97355782086246],[7.717510427483676,46.97359144647425]]]}},{"type":"Feature","properties":{"source":"Microsoft Global ML Building Footprints"},"geometry":{"type":"Polygon","coordinates":[[[7.717262685384281,46.97781201628408],[7.7173125306001555,46.9779480880852],[7.717150961630592,46.9779756391736],[7.717101116414717,46.9778395674426],[7.717262685384281,46.97781201628408]]]}},{"type":"Feature","properties":{"source":"Microsoft Global ML Building Footprints"},"geometry":{"type":"Polygon","coordinates":[[[7.717673203047903,46.974071962785565],[7.717698544129736,46.97402743261994],[7.717647266872136,46.97401384685155],[7.717672607954009,46.97396931663753],[7.717789147175842,46.974000193404606],[7.717738465012136,46.974089253744154],[7.717673203047903,46.974071962785565]]]}},{"type":"Feature","properties":{"source":"Microsoft Global ML Building Footprints"},"geometry":{"type":"Polygon","coordinates":[[[7.727416115377617,46.97651429467593],[7.727538341303877,46.976640250218864],[7.72741435257807,46.97669626732909],[7.727390893353228,46.9766720948702],[7.727353600599662,46.97668894343279],[7.72725482491619,46.97658716457076],[7.727416115377617,46.97651429467593]]]}},{"type":"Feature","properties":{"source":"Microsoft Global ML Building Footprints"},"geometry":{"type":"Polygon","coordinates":[[[7.716954825130871,46.97153541314179],[7.717118817469579,46.97150386627043],[7.717176257081406,46.97164289602465],[7.7170122647427375,46.971674442814006],[7.716954825130871,46.97153541314179]]]}},{"type":"Feature","properties":{"source":"Microsoft Global ML Building Footprints"},"geometry":{"type":"Polygon","coordinates":[[[7.717425742151409,46.97718114749919],[7.717373611260925,46.97734837355378],[7.717160623393302,46.977317464790474],[7.71721275731716,46.97715022890885],[7.717425742151409,46.97718114749919]]]}},{"type":"Feature","properties":{"source":"Microsoft Global ML Building Footprints"},"geometry":{"type":"Polygon","coordinates":[[[7.726391430389037,46.96841813451324],[7.726430868194418,46.9684298239321],[7.726408878946995,46.9684643708812],[7.726369439169631,46.96845267900172],[7.726391430389037,46.96841813451324]]]}},{"type":"Feature","properties":{"source":"Microsoft Global ML Building Footprints"},"geometry":{"type":"Polygon","coordinates":[[[7.718491647345318,46.97933720681041],[7.718607090384766,46.97937314269762],[7.718520992422246,46.9795018886977],[7.7184055493828385,46.97946595289703],[7.718491647345318,46.97933720681041]]]}},{"type":"Feature","properties":{"source":"Microsoft Global ML Building Footprints"},"geometry":{"type":"Polygon","coordinates":[[[7.726709042502367,46.968811146237414],[7.726663495288286,46.96881217952376],[7.726660645024581,46.968753673603864],[7.7267061922386615,46.968752640316374],[7.726709042502367,46.968811146237414]]]}},{"type":"Feature","properties":{"source":"Microsoft Global ML Building Footprints"},"geometry":{"type":"Polygon","coordinates":[[[7.720745441295507,46.96945469010398],[7.720839624451101,46.96933307929288],[7.720971711985172,46.96938071439908],[7.7210093852474015,46.96933207004056],[7.721099540231,46.96936458289604],[7.720967683813136,46.96953483785387],[7.720745441295507,46.96945469010398]]]}},{"type":"Feature","properties":{"source":"Microsoft Global ML Building Footprints"},"geometry":{"type":"Polygon","coordinates":[[[7.720939037577232,46.96956111540128],[7.720837385373618,46.96970999654492],[7.7206809147417665,46.96966024923936],[7.720782566945341,46.969511367957224],[7.720939037577232,46.96956111540128]]]}},{"type":"Feature","properties":{"source":"Microsoft Global ML Building Footprints"},"geometry":{"type":"Polygon","coordinates":[[[7.718294446028762,46.97323302100411],[7.718327794825046,46.97317408921026],[7.718367477031967,46.97318454242496],[7.718377830854766,46.97316624582242],[7.7185879081859765,46.973221595086784],[7.718544210507701,46.97329881466077],[7.718294446028762,46.97323302100411]]]}},{"type":"Feature","properties":{"source":"Microsoft Global ML Building Footprints"},"geometry":{"type":"Polygon","coordinates":[[[7.718547148632244,46.979620657485086],[7.718594527849234,46.97974691697482],[7.718516492834864,46.9797605436805],[7.718511004522459,46.979745918056295],[7.718345812030094,46.97977477234373],[7.718287510382225,46.97961936354142],[7.718483859848511,46.97958507631805],[7.718500279350269,46.979628844195894],[7.718547148632244,46.979620657485086]]]}},{"type":"Feature","properties":{"source":"Microsoft Global ML Building Footprints"},"geometry":{"type":"Polygon","coordinates":[[[7.723823304819795,46.97025697519125],[7.724032372339371,46.97026072948215],[7.724030750020572,46.970302796775215],[7.724097758840944,46.97030400007259],[7.724093244562513,46.97042105671127],[7.724018194683682,46.970419709021165],[7.724015514330862,46.97048921128092],[7.723814487869745,46.97048560140123],[7.723823304819795,46.97025697519125]]]}},{"type":"Feature","properties":{"source":"Microsoft Global ML Building Footprints"},"geometry":{"type":"Polygon","coordinates":[[[7.718745510155411,46.97324781415818],[7.718670450307714,46.973249025742405],[7.718666074643403,46.973122813953545],[7.7187411344911006,46.973121602366454],[7.718745510155411,46.97324781415818]]]}},{"type":"Feature","properties":{"source":"Microsoft Global ML Building Footprints"},"geometry":{"type":"Polygon","coordinates":[[[7.7162608621339634,46.97469022506088],[7.716409219397238,46.97471254211172],[7.716378767546517,46.97480678812397],[7.716230410283242,46.974784471112464],[7.7162608621339634,46.97469022506088]]]}},{"type":"Feature","properties":{"source":"Microsoft Global ML Building Footprints"},"geometry":{"type":"Polygon","coordinates":[[[7.717629042440892,46.97447021490199],[7.717657589784022,46.974632588873696],[7.717448703030287,46.974649696625846],[7.717420155687198,46.974487322706075],[7.717629042440892,46.97447021490199]]]}},{"type":"Feature","properties":{"source":"Microsoft Global ML Building Footprints"},"geometry":{"type":"Polygon","coordinates":[[[7.716503693141945,46.9742933739913],[7.716423487816284,46.97435269632639],[7.716309015062928,46.97428064017723],[7.716389220388589,46.97422131776222],[7.716503693141945,46.9742933739913]]]}},{"type":"Feature","properties":{"source":"Microsoft Global ML Building Footprints"},"geometry":{"type":"Polygon","coordinates":[[[7.719953724824085,46.97232617257395],[7.720022814301024,46.97231044053766],[7.720031673517385,46.97232855555368],[7.7199625823685025,46.97234428796535],[7.719953724824085,46.97232617257395]]]}},{"type":"Feature","properties":{"source":"Microsoft Global ML Building Footprints"},"geometry":{"type":"Polygon","coordinates":[[[7.728448303186721,46.97322977063539],[7.7285242805244225,46.97333631884219],[7.728355116559427,46.97339248127505],[7.728264365850519,46.97326521547037],[7.728364129214489,46.97323209396393],[7.728378902585695,46.973252811686535],[7.728448303186721,46.97322977063539]]]}},{"type":"Feature","properties":{"source":"Microsoft Global ML Building Footprints"},"geometry":{"type":"Polygon","coordinates":[[[7.717328052253878,46.97343914415064],[7.717207545308615,46.97343585808764],[7.7172132173592844,46.973339013583235],[7.717333724304547,46.97334229965219],[7.717328052253878,46.97343914415064]]]}},{"type":"Feature","properties":{"source":"Microsoft Global ML Building Footprints"},"geometry":{"type":"Polygon","coordinates":[[[7.720257127732122,46.972434626611594],[7.720188779116275,46.97248303978936],[7.720080266326721,46.97241171157827],[7.720132532915298,46.97237468969101],[7.720080540588454,46.97234051375742],[7.7201475465101455,46.97229304807169],[7.720166152811565,46.972305278499825],[7.720257284299361,46.97224072737185],[7.720289281660402,46.9722617601266],[7.720357630276209,46.972213346748525],[7.720482837341085,46.97229564882738],[7.720413906709163,46.972344474389594],[7.720476512430929,46.9723856237932],[7.720423485500163,46.97242318424422],[7.720383141001501,46.972396664762556],[7.720294689851577,46.97245931714639],[7.720257127732122,46.972434626611594]]]}},{"type":"Feature","properties":{"source":"Microsoft Global ML Building Footprints"},"geometry":{"type":"Polygon","coordinates":[[[7.71726450782412,46.97081407509707],[7.717268534177051,46.97091005493871],[7.7170996933597635,46.97091335292591],[7.717095667344802,46.97081738114711],[7.71726450782412,46.97081407509707]]]}},{"type":"Feature","properties":{"source":"Microsoft Global ML Building Footprints"},"geometry":{"type":"Polygon","coordinates":[[[7.716527171137453,46.97407865922481],[7.716695786662715,46.97412004804085],[7.716705184405899,46.97410222320387],[7.716835802066306,46.97413428495147],[7.716818715260496,46.97416669372213],[7.716899460723292,46.97418651368991],[7.716828550479096,46.97432100982844],[7.71644857183063,46.97422773956231],[7.716527171137453,46.97407865922481]]]}},{"type":"Feature","properties":{"source":"Microsoft Global ML Building Footprints"},"geometry":{"type":"Polygon","coordinates":[[[7.726895273116656,46.97201817556325],[7.726970296544606,46.972071721694164],[7.726938932667831,46.9720921838288],[7.726960368752738,46.972107482172795],[7.726911325137049,46.97213947873669],[7.726814862755007,46.972070636195376],[7.726895273116656,46.97201817556325]]]}},{"type":"Feature","properties":{"source":"Microsoft Global ML Building Footprints"},"geometry":{"type":"Polygon","coordinates":[[[7.719830855159042,46.97943200552507],[7.720023655956889,46.97942666583738],[7.72003393982069,46.97959921045732],[7.719841139570605,46.97960455931891],[7.719830855159042,46.97943200552507]]]}},{"type":"Feature","properties":{"source":"Microsoft Global ML Building Footprints"},"geometry":{"type":"Polygon","coordinates":[[[7.716811818063802,46.9739884294541],[7.716725176795403,46.97395882495038],[7.7166918829918085,46.97400418350911],[7.716608251963546,46.97397560758473],[7.716557774261288,46.974044376975854],[7.71645913253566,46.974010672063116],[7.716486558859192,46.97397330720457],[7.716504578556607,46.973979465225334],[7.716639310726827,46.973795883860625],[7.716819444142771,46.973857433918],[7.716776489195851,46.97391596283435],[7.716847255894992,46.97394014316819],[7.716811818063802,46.9739884294541]]]}},{"type":"Feature","properties":{"source":"Microsoft Global ML Building Footprints"},"geometry":{"type":"Polygon","coordinates":[[[7.7257793709069,46.96891733079216],[7.726200713529812,46.96878572406734],[7.726209848993797,46.96879934356727],[7.726278594369109,46.96877787086587],[7.72632934694681,46.96885353472163],[7.726222902494717,46.96888678272475],[7.726270609917729,46.968957906607365],[7.726124248796067,46.969003622517114],[7.72608567683704,46.968946118157845],[7.725848394412571,46.96902023334151],[7.7257793709069,46.96891733079216]]]}},{"type":"Feature","properties":{"source":"Microsoft Global ML Building Footprints"},"geometry":{"type":"Polygon","coordinates":[[[7.726143326328301,46.96832249071928],[7.726241356353478,46.968295433625144],[7.726287034089512,46.96837251315498],[7.72618901085834,46.96839956833491],[7.726143326328301,46.96832249071928]]]}},{"type":"Feature","properties":{"source":"Microsoft Global ML Building Footprints"},"geometry":{"type":"Polygon","coordinates":[[[7.726671412144697,46.9696868862666],[7.726833475492558,46.96965039972602],[7.726859459625324,46.96970413106288],[7.726886066486478,46.969698139593014],[7.7268808365157815,46.969687324791614],[7.726952131420202,46.969671273636685],[7.7269792655626945,46.96972739490284],[7.726992635807046,46.96972438476238],[7.727021809421051,46.969784711386794],[7.72674848439292,46.96984625999123],[7.726671412144697,46.9696868862666]]]}},{"type":"Feature","properties":{"source":"Microsoft Global ML Building Footprints"},"geometry":{"type":"Polygon","coordinates":[[[7.720443646289001,46.97215088131542],[7.7204585581510665,46.972069797729155],[7.72051828241644,46.972074908984844],[7.720524243886078,46.97204247523871],[7.720653636757335,46.972053548800645],[7.720632771613483,46.97216706680249],[7.720443646289001,46.97215088131542]]]}},{"type":"Feature","properties":{"source":"Microsoft Global ML Building Footprints"},"geometry":{"type":"Polygon","coordinates":[[[7.717583072242484,46.973782428800234],[7.717729347744835,46.9738487349724],[7.717653309439743,46.973926833280224],[7.71750703477716,46.97386053457099],[7.717583072242484,46.973782428800234]]]}},{"type":"Feature","properties":{"source":"Microsoft Global ML Building Footprints"},"geometry":{"type":"Polygon","coordinates":[[[7.717039120697358,46.97441597047901],[7.7170585182004015,46.9742689194413],[7.717163387909158,46.974275354820044],[7.717167455849743,46.97424449201623],[7.71747077431213,46.974263105301944],[7.7174434951810955,46.97447006722052],[7.717065677447237,46.974446882339336],[7.717069506097234,46.97441783508823],[7.717039120697358,46.97441597047901]]]}},{"type":"Feature","properties":{"source":"Microsoft Global ML Building Footprints"},"geometry":{"type":"Polygon","coordinates":[[[7.7177051107329575,46.966835718544935],[7.717899970818345,46.966768885785655],[7.718029657280874,46.96694497539653],[7.717834791723224,46.96701180050555],[7.7177051107329575,46.966835718544935]]]}},{"type":"Feature","properties":{"source":"Microsoft Global ML Building Footprints"},"geometry":{"type":"Polygon","coordinates":[[[7.718674798580696,46.979205796792485],[7.718755105998851,46.97911409570433],[7.718851170029342,46.979153256140705],[7.718770869543601,46.97924495998767],[7.718674798580696,46.979205796792485]]]}},{"type":"Feature","properties":{"source":"Microsoft Global ML Building Footprints"},"geometry":{"type":"Polygon","coordinates":[[[7.721674804641987,46.97219141447316],[7.721779626242187,46.9722236128893],[7.721738462829029,46.97228600727732],[7.721633641228829,46.97225380889876],[7.721674804641987,46.97219141447316]]]}},{"type":"Feature","properties":{"source":"Microsoft Global ML Building Footprints"},"geometry":{"type":"Polygon","coordinates":[[[7.716540654384332,46.974861326227035],[7.716547619702454,46.974674774467495],[7.716850512736668,46.97468003958781],[7.716849488425193,46.97470747370821],[7.7169406243823735,46.974709057902786],[7.716934683375767,46.97486817551884],[7.716540654384332,46.974861326227035]]]}},{"type":"Feature","properties":{"source":"Microsoft Global ML Building Footprints"},"geometry":{"type":"Polygon","coordinates":[[[7.716765642398271,46.973666810636544],[7.716708235662146,46.9737376189674],[7.716585012097914,46.973691106845855],[7.716642422486917,46.97362029394777],[7.716765642398271,46.973666810636544]]]}},{"type":"Feature","properties":{"source":"Microsoft Global ML Building Footprints"},"geometry":{"type":"Polygon","coordinates":[[[7.728627641093446,46.97322524221307],[7.728632592224671,46.97319264940211],[7.728684674682658,46.97319633552107],[7.728679720243918,46.9732289280957],[7.728627641093446,46.97322524221307]]]}},{"type":"Feature","properties":{"source":"Microsoft Global ML Building Footprints"},"geometry":{"type":"Polygon","coordinates":[[[7.717617355059629,46.97413192468377],[7.717730674953578,46.974165043858555],[7.717663691856109,46.97427174720626],[7.717550371962161,46.97423862809757],[7.717617355059629,46.97413192468377]]]}},{"type":"Feature","properties":{"source":"Microsoft Global ML Building Footprints"},"geometry":{"type":"Polygon","coordinates":[[[7.718433546681718,46.97302415998007],[7.718647950711328,46.9730200028841],[7.7186525087477165,46.9731297255353],[7.718438104718106,46.97313388262274],[7.718433546681718,46.97302415998007]]]}},{"type":"Feature","properties":{"source":"Microsoft Global ML Building Footprints"},"geometry":{"type":"Polygon","coordinates":[[[7.716930993723783,46.97764839723984],[7.7167443354010645,46.97765815735494],[7.71672635188247,46.97749805507947],[7.716913010205189,46.977488294935135],[7.716930993723783,46.97764839723984]]]}},{"type":"Feature","properties":{"source":"Microsoft Global ML Building Footprints"},"geometry":{"type":"Polygon","coordinates":[[[7.717178374147249,46.971071372606424],[7.717168655655677,46.97115319642944],[7.717295009873966,46.971160184294746],[7.71728107155095,46.97127743506066],[7.717205359112911,46.9712732442704],[7.717208702704115,46.97124509333153],[7.717072802719889,46.97123757756121],[7.717060492630581,46.97134122072715],[7.716905939707361,46.971332673395786],[7.716930241375879,46.9711280684916],[7.716887606326988,46.97112570857495],[7.716895915356532,46.971055751541684],[7.717178374147249,46.971071372606424]]]}},{"type":"Feature","properties":{"source":"Microsoft Global ML Building Footprints"},"geometry":{"type":"Polygon","coordinates":[[[7.721027605457622,46.96922009682118],[7.721068361824224,46.96914007767771],[7.721207162665924,46.96917299778764],[7.721166406299322,46.96925301688189],[7.721027605457622,46.96922009682118]]]}},{"type":"Feature","properties":{"source":"Microsoft Global ML Building Footprints"},"geometry":{"type":"Polygon","coordinates":[[[7.717032701059097,46.974581938129106],[7.71703493218538,46.97450693355458],[7.717265507173443,46.97451012677718],[7.717263874641973,46.974565008180235],[7.717298729000652,46.97456549087616],[7.717298130405799,46.97458561404298],[7.717032701059097,46.974581938129106]]]}},{"type":"Feature","properties":{"source":"Microsoft Global ML Building Footprints"},"geometry":{"type":"Polygon","coordinates":[[[7.726009633781588,46.96852322912361],[7.725906208036699,46.96864255388058],[7.725757179104984,46.96858240250414],[7.725860604849832,46.968463077613016],[7.726009633781588,46.96852322912361]]]}},{"type":"Feature","properties":{"source":"Microsoft Global ML Building Footprints"},"geometry":{"type":"Polygon","coordinates":[[[7.726339728024048,46.97213794587016],[7.726408467629735,46.97202704472556],[7.726682361809432,46.972106089693945],[7.726613605677004,46.97221699898467],[7.726339728024048,46.97213794587016]]]}},{"type":"Feature","properties":{"source":"Microsoft Global ML Building Footprints"},"geometry":{"type":"Polygon","coordinates":[[[7.726716278405803,46.96899897830253],[7.726392771576478,46.96908279809801],[7.726329189612224,46.96896852589347],[7.726350287393666,46.96896305849674],[7.726319520580369,46.968907762980876],[7.726497683761777,46.968861601219565],[7.726519545769621,46.96890089265397],[7.726643788260477,46.96886869571327],[7.726716278405803,46.96899897830253]]]}},{"type":"Feature","properties":{"source":"Microsoft Global ML Building Footprints"},"geometry":{"type":"Polygon","coordinates":[[[7.7173692507624825,46.97362742264656],[7.71737829527674,46.973604393968145],[7.717480899064566,46.973623150890965],[7.717471852754785,46.97364618413289],[7.7173692507624825,46.97362742264656]]]}},{"type":"Feature","properties":{"source":"Microsoft Global ML Building Footprints"},"geometry":{"type":"Polygon","coordinates":[[[7.717158355070013,46.97500936405757],[7.717153037813818,46.974892348892226],[7.717323360092818,46.974888745669695],[7.717328665357646,46.97500576109659],[7.717158355070013,46.97500936405757]]]}},{"type":"Feature","properties":{"source":"Microsoft Global ML Building Footprints"},"geometry":{"type":"Polygon","coordinates":[[[7.7240482917354125,46.97010169999024],[7.724040669332104,46.9701586480396],[7.7239129884329705,46.970150690280256],[7.7239206100268465,46.970093748269896],[7.7240482917354125,46.97010169999024]]]}},{"type":"Feature","properties":{"source":"Microsoft Global ML Building Footprints"},"geometry":{"type":"Polygon","coordinates":[[[7.713755798852353,46.970766226701635],[7.713654173518005,46.970769983278885],[7.71365165102599,46.970738249596316],[7.7137532759756455,46.97073448817761],[7.713755798852353,46.970766226701635]]]}},{"type":"Feature","properties":{"source":"Microsoft Global ML Building Footprints"},"geometry":{"type":"Polygon","coordinates":[[[7.717237591741277,46.97281844901598],[7.717230886845079,46.97294178542436],[7.716988846672255,46.97293564761034],[7.716994568127764,46.97283059977956],[7.716966067299826,46.972829878396425],[7.7169682531609185,46.97278966947979],[7.717080751145726,46.972792516913096],[7.717079558857858,46.97281444905204],[7.717237591741277,46.97281844901598]]]}},{"type":"Feature","properties":{"source":"Microsoft Global ML Building Footprints"},"geometry":{"type":"Polygon","coordinates":[[[7.717010660737649,46.97089388814015],[7.717013445158742,46.970968880544504],[7.716935710995636,46.97097022444847],[7.716932926574542,46.970895232046004],[7.717010660737649,46.97089388814015]]]}},{"type":"Feature","properties":{"source":"Microsoft Global ML Building Footprints"},"geometry":{"type":"Polygon","coordinates":[[[7.717158073195649,46.971388467666394],[7.717364297711313,46.97138305080973],[7.717362751274854,46.971355637797394],[7.717437742007838,46.97135366803018],[7.717444443232413,46.971472457653284],[7.717163227983765,46.97147984426349],[7.717158073195649,46.971388467666394]]]}}]}